,id,name,address,city,state,zip,county,phone,type,ownership,emergency,quality,LAT,LON
0,10000,(ICO) Institut de Cancérologie de l'Ouest - Centre Paul Papin,rue André Boquel,,,,,,,,,,47.48363320000001,-0.5565815
1,10001,A.U.R.A. Auvergne Dialyse,,,,,,,,,,,45.779432799999995,3.0497259
2,10002,Abri Montagnard,,,,,,,,,,,42.991559,-0.5997899999999999
3,10003,Abri Montagnard,,,,,,,,,,,43.000440000000005,-0.6248630000000001
4,10004,Allée des Dryades,,,,,,,,,,,44.9107463,4.889499900000001
5,10005,American Memorial Hospital,,,,,,,,,,,49.231078499999995,4.0175041
6,10006,Ancien Hopital de Monbran (fermé),,,,,,,,,,,44.233190500000006,0.6009845
7,10007,Ancien Hôpital,,,,,,,,,,,14.834637400000002,-61.05757320000001
8,10008,Ancien hôpital,Rue Maître Georges Lefêvre,,,,,,,,,,46.7828865,-56.17277070000001
9,10009,Ancien hôtel-Dieu,,,,,,,,,,,43.919715100000005,5.0490015999999995
10,10010,Ancienne Clinique Fardeau,,,,,,,,,no,,47.25308,-0.083139
11,10011,Anciens Hôpitaux Maringer Villemin Fournier,,,,,,,,,,,48.677516600000004,6.188811599999999
12,10012,Antenne medico-psychologique,,,,,,,,,,,-20.558874300000003,164.2804961
13,10013,Arnault Tzanck Mougins,,,,,,+33 4 97 16 68 00,,,,,43.6078282,7.0115289
14,10014,Association Audoise Sociale et Médicale,,,,,,,,,no,,43.0558555,2.2202385
15,10015,Aura,,,,,,,,,no,,48.8294695,2.3104442
16,10016,Automne en Aspe,,,,,,,,,,,42.995011,-0.614661
17,10017,Avenue du Docteur Santy,,,,,,,,,,,44.9149623,4.9080471
18,10018,Bercail Saint-Denis,,,,,,,,,,,49.700301,0.7106935000000001
19,10019,Biologie du cancer,,,,,,,,,,,48.8442219,2.3431408
20,10020,Boulevard Franklin Roosevelt,,,,,,,,,,,44.91230720000001,4.9087127
21,10021,Boulevard du Maréchal Juin,,,,,,,,,,,44.911816200000004,4.9063751
22,10022,Boulevard du Maréchal Juin,,,,,,,,,,,44.912242799999994,4.9086393
23,10023,Boulevard du Maréchal Juin,,,,,,,,,,,44.911688899999994,4.9055168
24,10024,Boulevard du Maréchal Juin,,,,,,,,,,,44.9121338,4.9084546
25,10025,Boulevard du Maréchal Juin,,,,,,,,,,,44.9117857,4.9057837
26,10026,Boulevard du Maréchal Juin,,,,,,,,,,,44.9118344,4.906136900000001
27,10027,Boulevard du Maréchal Juin,,,,,,,,,,,44.9120235,4.9077377
28,10028,Bâtiment 101 - Centre de protonthérapie,Avenue Irène et Frédéric Joliot-Curie,,,,,+33 1 69 29 87 00,,,no,,48.6978483,2.1765925
29,10029,Bâtiment Constant Burg,,,,,,,,,,,48.8435477,2.3456222999999996
30,10030,C.H.S Georges Mazurelle,,,,,,,,,,,46.6444648,-1.4260233999999998
31,10031,C.H.U Saint-Jacques,,,,,,,,,,,47.196026700000004,-1.5362714
32,10032,C.H.U. - Hôpital Gabriel Montpied,,,,,,+33 4 73 75 07 50,,,yes,,45.7601964,3.0883572
33,10033,CASM,Place du Conseil National de la Résistance,,,,,+33 4 56 58 82 70,,,,,45.184922,5.753588
34,10034,CENTRE DE DIALYSE,,,,,,,,,,,-21.570366,165.4992659
35,10035,CH de Grasse - Site du Petit Paris,,,,,,,,,,,43.6497373,6.9133394
36,10036,CHAM - Centre Hospitalier de l'Arrondissement de Montreuil-sur-mer,Route Départementale,,,,,+33 3 21 89 46 25,,,yes,,50.4156606,1.6606522000000001
37,10037,CHCBE (Centre Hospitalier de Capesterre B-E),,,,,,,,,,,16.0458832,-61.563782200000006
38,10038,CHRU de Nancy Brabois,,,,,,,,,yes,,48.648565999999995,6.14586
39,10039,CHSA - Centre de Psychothérapie,,,,,,,,,,,50.2797275,3.9584370000000004
40,10040,CHU Amiens Picardie - Centre Saint-Victor,,,,,,,,,,,49.9029602,2.3185096
41,10041,CHU Amiens Picardie Hôpital Nord,,,,,,,,,,,49.905836,2.2930547000000003
42,10042,CHU Amiens Sud,,,,,,+33 3 22 45 60 00,,,yes,,49.870009499999995,2.2480667000000003
43,10043,CHU Estaing,,,,,,+33 4 73 75 07 50,,,yes,,45.7866733,3.1091001
44,10044,CHU Félix Guyon,Allée des Topazes,,,,,0262 90 50 50,,,yes,,-20.8899622,55.4447582
45,10045,CHU Larche Bleu,,,,,,,,,,,43.6625975,3.8999803999999996
46,10046,CHU Louise Michel Hopital Nord,Route de Châteaugay,,,,,,,,yes,,45.838867900000004,3.0924428
47,10047,CHU Reims - Hôpital Sébastopol,Rue de Sébastopol,,,,,,,,,,49.2654169,4.0468967000000005
48,10048,CHU d'Angers,Rue Larrey,,,,,+33 2 41 35 36 37,,,yes,,47.480650399999995,-0.5595356
49,10049,CHU de Guadeloupe,,,,,,+33 5 90 89 10 10,,,yes,,16.2384565,-61.528328099999996
50,10050,CHU de Martinique,,,,,,0596 55 20 00,,,yes,,14.635166199999999,-61.037134200000004
51,10051,CHU de Montpellier,,,,,,+33 4 67 33 67 33,,,,,43.630349,3.855078
52,10052,CHU de Montpellier,,,,,,,,,,,43.6268456,3.8663104
53,10053,CHU de Nîmes,,,,,,+33 4 66 68 68 68,,,yes,,43.824220700000005,4.325386900000001
54,10054,CHU de Reims,,,,,,+33 3 26 78 78 78,,,yes,,49.2299514,4.0151871
55,10055,CHU de Saint-Pierre,Avenue Président Mitterrand,,,,,0262 35 90 00,,,yes,,-21.3436878,55.4962936
56,10056,CHU de la Réunion - Site Sud Cilaos,Rue des Fleurs Jaunes,,,,,+262 2 62 31 70 50,,,no,,-21.1326604,55.479879700000005
57,10057,CMP - CATTP Maupassant,,,,,,,,,,,49.2529907,4.0366355
58,10058,CMP Dolto,,,,,,,,,no,,45.1714135,5.754241
59,10059,CMPP,Allée de l'Espoir,,,,,,,,,,49.828853,3.2803136
60,10060,CPC La Bastide,Route de la Treille,,,,,,,,,,43.3055403,5.5077258
61,10061,CRF le Grand Large,,,,,,,,,,,43.2392724,5.3618312
62,10062,CRRF André Lalande,,,,,,,,,no,,46.236012,1.5613694
63,10063,CSSR Les Lauriers,,,,,,+33 5 56 77 37 37,,,,,44.882357,-0.51962
64,10064,"Centre Alain ""Les Iris""",,,,,,,,,,,44.0832671,5.0606762000000005
65,10065,Centre Antoine Lacassagne,,,,,,,,,no,,43.6865092,7.211765
66,10066,Centre Bellevue - centre de soins pour personnes agées,,,,,,,,,,,43.640091299999995,3.8586386
67,10067,Centre Bouffard Vercelli,,,,,,,,,,,42.458182799999996,3.1599890999999998
68,10068,Centre Bourgès,Avenue Clément Ader,,,,,,,,,,43.625186,3.9114139999999997
69,10069,Centre Cardio-Vasculaire de Valmante,,,,,,+33 8 26 96 18 19,,,no,,43.247141,5.4118821
70,10070,Centre Cardiologique du Nord,,,,,,,,,,,48.941824100000005,2.3470053
71,10071,Centre Chirurgical Marie Lannelongue,Avenue de la Résistance,,,,,,,,,,48.7856738,2.27262
72,10072,Centre Chirurgical des Princes,,,,,,,,,,,48.8402586,2.2477665
73,10073,Centre Chirurgical Émile Gallé,,,,,,+33 3 83 85 75 00,,,,,48.6987856,6.1704392
74,10074,Centre Clinical,,,,,,,,,,,45.6380093,0.20325539999999997
75,10075,"Centre De Soins ""La Fabrique Du Pré""",,,,,,,,,,,48.6344225,4.9612534
76,10076,Centre Esquirol,,,,,,,,,no,,49.206575,-0.351265
77,10077,Centre Gabriel Pertat,,,,,,,,,,,48.44407460000001,5.1369620000000005
78,10078,Centre Georges-François Leclerc,,,,,,,,,,,47.3188935,5.0697299000000005
79,10079,Centre Hopitalier du Marin,,,,,,,,,,,14.4707976,-60.8701902
80,10080,Centre Hospitalier,,,,,,,,,,,49.7416271,3.0844264
81,10081,Centre Hospitalier,,,,,,,,,,,47.9453717,-1.2455983
82,10082,Centre Hospitalier - Site de Saint-Pée,,,,,,,,,,,43.1869404,-0.6321287
83,10083,Centre Hospitalier Ain Val de Saône,,,,,,,,,,,46.172290999999994,4.805275
84,10084,Centre Hospitalier Ain Val de Saône,,,,,,,,,no,,46.2634915,4.889702
85,10085,Centre Hospitalier Alpes Léman,Route de Findrol,,,,,,,,yes,,46.14332279999999,6.3205583
86,10086,Centre Hospitalier Alpes-Isère,Rue de la gare,,,,,,,,,,45.234294399999996,5.6751422
87,10087,Centre Hospitalier Ardèche Méridionale,,,,,,+33 4 75 35 60 60,,,yes,,44.6128718,4.3964802
88,10088,Centre Hospitalier Ardèche Nord,,,,,,+33 4 75 67 35 00,,,yes,,45.24326129999999,4.6647689
89,10089,Centre Hospitalier Aunay-Bayeux,,,,,,+33 2 31 51 51 51,,,yes,,49.275013,-0.701459
90,10090,Centre Hospitalier Aunay-Bayeux,Rue de l'Hôpital,,,,,+33 2 31 71 76 76,,,,,49.01903660000001,-0.6323131999999999
91,10091,Centre Hospitalier Avranches - Granville,,,,,,+33 2 33 91 50 00,,,yes,,48.828773600000005,-1.5678040000000002
92,10092,Centre Hospitalier Avranches - Granville,,,,,,+33 2 33 91 50 00,,,yes,,48.691458000000004,-1.35309
93,10093,Centre Hospitalier Bernard des Plas,,,,,,,,,,,45.954193100000005,1.7486581
94,10094,Centre Hospitalier Bon Sauveur,,,,,,,,,,,48.629759,-3.3002203000000003
95,10095,Centre Hospitalier Buëch-Durance,,,,,,,,,,,44.32375029999999,5.8131083
96,10096,Centre Hospitalier Bélair,Rue Pierre Hallali,,,,,,,,no,,49.7873025,4.7223527999999995
97,10097,Centre Hospitalier Camille Claudel,,,,,,,,,,,45.6259686,0.1219547
98,10098,Centre Hospitalier Chamonix Mont Blanc,,,,,,+33 4 50 53 84 00,,,yes,,45.9138774,6.861934599999999
99,10099,Centre Hospitalier Côte de Lumière,Rue Jacques Monod,,,,,+33 2 51 21 85 85,,,yes,,46.51676079999999,-1.7485529
100,10100,Centre Hospitalier Dinan - Saint-Brieuc,,,,,,,,,,,48.4480862,-2.0539422
101,10101,Centre Hospitalier Docteur Récamier,,,,,,+33 4 79 42 59 59,,,yes,,45.761806,5.684719
102,10102,Centre Hospitalier Départemental - Site de La-Roche-sur-Yon,,,,,,+33 2 51 44 61 61,,,yes,,46.6671526,-1.4155459
103,10103,Centre Hospitalier Départemental - Site de Luçon,,,,,,+33 2 51 28 33 33,,,yes,,46.4498685,-1.1745527
104,10104,Centre Hospitalier Départemental - Site de Montaigu,,,,,,+33 2 51 45 40 00,,,yes,,46.9710322,-1.3108931000000001
105,10105,Centre Hospitalier Esquirol,,,,,,,,,,,45.816516899999996,1.2477394
106,10106,Centre Hospitalier Esquirol,,,,,,,,,,,45.8156925,1.2335565
107,10107,Centre Hospitalier Ferdinand Grall,,,,,,+33 2 98 21 80 00,,,yes,,48.4489023,-4.2338213
108,10108,Centre Hospitalier Fondation d'Aligre,,,,,,,,,,,46.618479,3.76683
109,10109,Centre Hospitalier Francis Robert,,,,,,+33 2 40 09 44 00,,,yes,,47.3730553,-1.1743569
110,10110,Centre Hospitalier Francis Vals,,,,,,,,,,,43.0056651,3.0426759999999997
111,10111,Centre Hospitalier Gabriel Deplante,Rue de la Forêt,,,,,+33 4 50 01 80 00,,,yes,,45.864621,5.937015
112,10112,Centre Hospitalier George Sand,,,,,,+33 2 48 66 52 52,,,,,47.080250899999996,2.3792226000000003
113,10113,Centre Hospitalier Georges Heuyer,,,,,,,,,,,48.6342093,4.9552723
114,10114,Centre Hospitalier Guillaume Régnier,,,,,,,,,,,48.114484600000004,-1.6502022
115,10115,Centre Hospitalier Guy Thomas,,,,,,+33 4 73 67 80 00,,,yes,,45.890270799999996,3.1120647999999997
116,10116,Centre Hospitalier Gériatrique des Mont d'Or,,,,,,,,,no,,45.8599631,4.8339467
117,10117,Centre Hospitalier Gériatrique des Monts d'Or,,,,,,,,,no,,45.8635701,4.833641
118,10118,Centre Hospitalier InterCommunal,,,,,,,,,,,43.4947277,2.3698842
119,10119,Centre Hospitalier Intercommunal,,,,,,,,,,,14.82504,-61.052076
120,10120,Centre Hospitalier Intercommunal Castelsarrasin-Moissac,,,,,,,,,,,44.0365993,1.1116909
121,10121,Centre Hospitalier Intercommunal Castres-Mazamet,,,,,,,,,,,43.496933299999995,2.3767543
122,10122,Centre Hospitalier Intercommunal Corte Tattone,,,,,,+33 4 95 45 05 00,,,,,42.3019181,9.154167999999999
123,10123,Centre Hospitalier Intercommunal Elbeuf. Louviers. Val de Reuil,,,,,,+33 2 32 25 75 00,,,yes,,49.2126878,1.1768486999999999
124,10124,Centre Hospitalier Intercommunal Lucie et Raymond Aubrac,Allée de la Source,,,,,+33 1 43 86 20 00,,,yes,,48.7225968,2.4514191000000003
125,10125,Centre Hospitalier Intercommunal d'Orgelet,Rue des Prés Millats,,,,,+33 3 84 35 02 02,,,,,46.515273,5.6049807000000005
126,10126,Centre Hospitalier Intercommunal des Alpes du Sud,Place Auguste Muret,,,,,+33 4 92 40 61 61,,,yes,,44.5581617,6.0730851999999995
127,10127,Centre Hospitalier Intercommunal des Alpes du Sud,,,,,,+33 4 92 33 70 00,,,yes,,44.193735100000005,5.9428555
128,10128,Centre Hospitalier Intercommunal des Andaines - Site de Domfront,,,,,,+33 2 33 30 57 57,,,no,,48.590503999999996,-0.6598970000000001
129,10129,Centre Hospitalier Intercommunal des Andaines - Site de la Ferté-Macé,,,,,,+33 2 33 30 50 50,,,yes,,48.5991475,-0.34732579999999996
130,10130,Centre Hospitalier Jacques Barrot,,,,,,,,,,,45.143508600000004,4.1267265
131,10131,Centre Hospitalier Jacques Monod,,,,,,+33 2 33 62 62 00,,,yes,,48.7473277,-0.5412251
132,10132,Centre Hospitalier La Tour Blanche,,,,,,+33 2 54 03 54 03,,,yes,,46.958564100000004,1.9976040000000002
133,10133,Centre Hospitalier Lannion-Trestel,,,,,,,,,,,48.8210384,-3.3506812999999993
134,10134,Centre Hospitalier Lemire,Rue Lemire,,,,,,,,,,49.0984474,6.705788900000001
135,10135,Centre Hospitalier Les Marronniers,,,,,,,,,,,46.6916388,4.1374261
136,10136,Centre Hospitalier Loire-Vendée-Océan - Site de Challans,,,,,,+33 2 51 49 50 00,,,yes,,46.845557899999996,-1.8714987
137,10137,Centre Hospitalier Louis Brunet,,,,,,,,,,,43.335612899999994,5.469607900000001
138,10138,Centre Hospitalier Louis Pasteur,,,,,,+33 2 37 30 30 30,,,yes,,48.4241098,1.5086658000000002
139,10139,Centre Hospitalier Louis Pasteur,,,,,,+33 3 84 79 80 80,,,yes,,47.0819311,5.4700545
140,10140,Centre Hospitalier Louis-Daniel Beauperthuy,,,,,,,,,,,16.1988935,-61.784834700000005
141,10141,Centre Hospitalier Lyon-Sud,Chemin du Grand Revoyet,,,,,+33 8 25 08 25 69,,,yes,,45.7037174,4.8074577000000005
142,10142,Centre Hospitalier Lyon-Sud (Sainte-Eugénie),,,,,,,,,no,,45.701271500000004,4.7961402
143,10143,Centre Hospitalier Léon Jean Grégory,,,,,,,,,,,42.628476,2.7399188999999997
144,10144,Centre Hospitalier Manhès,,,,,,,,,,,48.627858,2.3602939999999997
145,10145,Centre Hospitalier Marescot,,,,,,,,,,,48.9251055,0.2019807
146,10146,Centre Hospitalier Marguerite de Lorraine,,,,,,+33 2 33 83 40 40,,,yes,,48.5226591,0.5503153000000001
147,10147,Centre Hospitalier Marie Madeleine,Rue Thérèse,,,,,+33 3 87 88 80 00,,,yes,,49.181845,6.911648
148,10148,Centre Hospitalier Maubert,,,,,,,,,,,48.7387966,-0.5750923000000001
149,10149,Centre Hospitalier Maurice Selbonne,,,,,,,,,no,,16.1418011,-61.760307999999995
150,10150,Centre Hospitalier Michel Perret,,,,,,,,,,,45.3024416,5.4876179
151,10151,Centre Hospitalier Michel Perret,,,,,,,,,,,45.3031196,5.4888551
152,10152,Centre Hospitalier Montpensier,,,,,,,,,no,,45.9404167,4.771465
153,10153,Centre Hospitalier Montperrin,,,,,,+33 4 42 16 16 16,,,,,43.5233378,5.4388752
154,10154,Centre Hospitalier Mémorial,,,,,,+33 2 33 06 33 33,,,yes,,49.104662700000006,-1.1112861
155,10155,Centre Hospitalier Métropole Savoie,,,,,,+33 4 79 96 50 50,,,yes,,45.56391370000001,5.9145497
156,10156,Centre Hospitalier Métropole Savoie (site d'Aix-les-Bains),,,,,,+33 4 79 88 61 61,,,yes,,45.6980554,5.903834
157,10157,Centre Hospitalier Neufchâtel-en-Bray,Route de Gaillefontaine,,,,,,,,,,49.7307359,1.4499276
158,10158,Centre Hospitalier Nord Ouest Villefranche,,,,,,+33 4 74 09 25 03,,,yes,,46.0055909,4.692005
159,10159,Centre Hospitalier Paul Ardier,,,,,,+33 4 73 89 72 72,,,yes,,45.5411035,3.251009
160,10160,Centre Hospitalier Paul Guiraud,,,,,,,,,,,48.7885753,2.3616088
161,10161,Centre Hospitalier Paul Nappez Morteau,,,,,,,,,,,47.061089,6.602677000000001
162,10162,Centre Hospitalier Paul Ribeyre,,,,,,,,,,,44.654010299999996,4.370160299999999
163,10163,Centre Hospitalier Pierre Gallice,,,,,,,,,,,45.0958694,3.4939266000000004
164,10164,Centre Hospitalier Pierre Oudot,Avenue du Médipôle,,,,,+33 4 69 15 70 00,,,yes,,45.5964572,5.242743099999999
165,10165,Centre Hospitalier Pont-Saint-Esprit,Rue Philippe le Bel,,,,,+33466334000,,,,,44.265496899999995,4.6425221
166,10166,Centre Hospitalier Psychiatrique Interdépartemental Site de Clermont,,,,,,,,,,,49.3771534,2.4166586
167,10167,Centre Hospitalier Psychiatrique Interdépartemental Site de Fitz James,,,,,,,,,,,49.3865415,2.4404077
168,10168,Centre Hospitalier Psychiatrique de Ravenel,Avenue Porterat,,,,,+33 3 29 37 00 77,,,no,,48.2951386,6.1035747
169,10169,Centre Hospitalier René Pleven,,,,,,+33 2 96 85 72 85,,,yes,,48.444687200000004,-2.0507735
170,10170,Centre Hospitalier Régional Centre Gériatrique de Champmaillot,,,,,,,,,,,47.3179004,5.0574205999999995
171,10171,Centre Hospitalier Régional Universitaire de Lille,,,,,,,,,yes,,50.6083638,3.0301982999999995
172,10172,Centre Hospitalier Régional d'Orléans,,,,,,+33 2 38 51 44 44,,,yes,,47.8368281,1.9173824000000002
173,10173,Centre Hospitalier Saint Eloi,,,,,,,,,,,43.878453,7.4523958
174,10174,Centre Hospitalier Saint-Charles,,,,,,+33 3 83 62 20 20,,,yes,,48.675808,5.886645
175,10175,Centre Hospitalier Saint-Louis,,,,,,,,,,,47.106895,6.142232
176,10176,Centre Hospitalier Saint-Louis,,,,,,,,,,,47.409168,-0.757958
177,10177,Centre Hospitalier Saint-Maixent,,,,,,,,,no,,46.410691,-0.221158
178,10178,Centre Hospitalier Saint-Roch,,,,,,,,,,,46.8927806,1.4210649
179,10179,Centre Hospitalier Sainte-Béatrix de Lorraine,Rue Georges Lang,,,,,+33 329 234 141,,,yes,,48.014008200000006,6.5906405
180,10180,Centre Hospitalier Sainte-Catherine,,,,,,+33 3 88 71 67 67,,,yes,,48.7472653,7.348221700000001
181,10181,Centre Hospitalier Sainte-Marie,,,,,,,,,,,45.0500998,3.8994628
182,10182,Centre Hospitalier Seurre,,,,,,,,,,,46.995692,5.146658
183,10183,Centre Hospitalier Spécialisé,,,,,,,,,,,46.723493700000006,4.8350919999999995
184,10184,Centre Hospitalier Spécialisé,,,,,,,,,no,,48.1147652,-1.6477464
185,10185,Centre Hospitalier Spécialisé - ISTMA,,,,,,,,,,,49.1075308,-1.0951137
186,10186,Centre Hospitalier Spécialisé Albert Bousquet - Centre d'accueil et hôpital de jour,,,,,,,,,,,-22.2967014,166.4483013
187,10187,Centre Hospitalier Spécialisé Avignon Montfavet,Avenue de la Pinède,,,,,,,,,,43.9215495,4.8777974
188,10188,Centre Hospitalier Spécialisé d'Erstein,,,,,,,,,,,48.430711200000005,7.6878484
189,10189,Centre Hospitalier Spécialisé de Blain,,,,,,+33 2 40 51 51 51,,,no,,47.4690877,-1.8162281000000002
190,10190,Centre Hospitalier Spécialisé de Cadillac,,,,,,,,,,,44.6358799,-0.3177026
191,10191,Centre Hospitalier Spécialisé de Lorquin,,,,,,,,,no,,48.6720347,6.999323599999999
192,10192,Centre Hospitalier Spécialisé des Pyrénées,,,,,,,,,,,43.30496420000001,-0.33643049999999997
193,10193,Centre Hospitalier Spécialisé la Chartreuse,,,,,,,,,yes,,47.3222547,5.015575
194,10194,Centre Hospitalier Spécialisé Édouard Toulouse,,,,,,,,,,,43.3826184,5.3586285
195,10195,Centre Hospitalier Sud Francilien,,,,,,+33 1 61 69 61 69,,,yes,,48.6215433,2.4574678
196,10196,Centre Hospitalier Sépcialisé de Saint-Rémy & Nord Franche-Comté,,,,,,,,,,,47.8331988,6.0885762
197,10197,Centre Hospitalier Universitaire Côte de Nacre,Avenue de la Côte de Nacre,,,,,+33 2 31 06 31 06,,,yes,,49.202482,-0.3534934
198,10198,Centre Hospitalier Valvert,,,,,,+33 4 91 87 67 02,,,,,43.3001306,5.4642472
199,10199,Centre Hospitalier Yves Grassot,,,,,,+33 5 53 20 30 40,,,yes,,44.5019139,0.16553020000000002
200,10200,Centre Hospitalier Yves Touraine,,,,,,+33 4 76 32 64 32,,,yes,,45.539076,5.6644120000000004
201,10201,Centre Hospitalier d'Abbeville,,,,,,+33 3 22 25 52 00,,,yes,,50.1007453,1.8312941999999999
202,10202,Centre Hospitalier d'Albert,,,,,,+33 3 22 74 41 35,,,,,49.998905,2.654681
203,10203,Centre Hospitalier d'Ambert,,,,,,+33 4 73 82 73 82,,,yes,,45.553968700000006,3.7420262
204,10204,Centre Hospitalier d'Argonne,,,,,,+33 3 26 60 81 41,,,yes,,49.091695200000004,4.909927400000001
205,10205,Centre Hospitalier d'Armentières,,,,,,+33 3 20 48 33 33,,,yes,,50.683678,2.8689847
206,10206,Centre Hospitalier d'Arras,,,,,,+33 3 21 21 10 10,,,yes,,50.297033,2.755097
207,10207,Centre Hospitalier d'Auch,,,,,,+33 5 62 61 32 32,,,yes,,43.6313603,0.5809226
208,10208,Centre Hospitalier d'Hauteville - Unité Albarine,,,,,,,,,,,45.9831114,5.6116977
209,10209,Centre Hospitalier d'Hauteville - Unité Espérence,,,,,,,,,,,45.975944500000004,5.6040567999999995
210,10210,Centre Hospitalier d'Hauteville - Unité Inter,,,,,,,,,,,45.97450429999999,5.610218499999999
211,10211,Centre Hospitalier d'Hazebrouck,,,,,,+33 3 28 42 66 00,,,yes,,50.727861,2.5376066
212,10212,Centre Hospitalier d'Hénin-Beaumont,,,,,,,,,no,,50.4304078,2.9462342
213,10213,Centre Hospitalier de Bapaume,,,,,,,,,,,50.1039847,2.8585026
214,10214,Centre Hospitalier de Beauvais,,,,,,+33 3 44 11 21 21,,,yes,,49.450942100000006,2.0719811000000004
215,10215,Centre Hospitalier de Belfort-Montbéliard - Site de Montbéliard,,,,,,+33381988000,,,,,47.519507700000005,6.7936918
216,10216,Centre Hospitalier de Belleville,,,,,,,,,,,46.1105056,4.7469454
217,10217,Centre Hospitalier de Bigorre - L'Ayguerote,,,,,,,,,,,43.2338181,0.06521569999999999
218,10218,Centre Hospitalier de Boulogne-sur-Mer,,,,,,+33 3 21 99 33 33,,,yes,,50.7220646,1.6256386
219,10219,Centre Hospitalier de Brioude,,,,,,+33 4 71 50 99 99,,,yes,,45.297445700000004,3.3811491
220,10220,Centre Hospitalier de Béthune,,,,,,+33 3 21 64 44 44,,,yes,,50.5163509,2.6722465
221,10221,Centre Hospitalier de Cadillac - Unité pour Malades Difficiles,,,,,,,,,,,44.635650399999996,-0.3112248
222,10222,Centre Hospitalier de Calais,,,,,,+33 3 21 46 33 33,,,yes,,50.9428578,1.8892642
223,10223,Centre Hospitalier de Cambrai,Avenue de Paris,,,,,+33 3 27 73 73 73,,,yes,,50.1656773,3.228497
224,10224,Centre Hospitalier de Carentan,Avenue Qui Qu'en Grogne,,,,,,,,,,49.3061586,-1.244359
225,10225,Centre Hospitalier de Charlieu,,,,,,,,,,,46.1588265,4.1649142
226,10226,Centre Hospitalier de Chatillon-sur-Indre,,,,,,,,,no,,46.988776,1.1655156999999998
227,10227,Centre Hospitalier de Chauny,,,,,,+33 3 23 38 55 00,,,yes,,49.6235703,3.2306461
228,10228,Centre Hospitalier de Château du Loir,,,,,,+33 2 43 44 77 77,,,yes,,47.6912468,0.4202901
229,10229,Centre Hospitalier de Compiègne,,,,,,+33 3 44 23 60 00,,,yes,,49.386385,2.7873618
230,10230,Centre Hospitalier de Condom,,,,,,+33 5 62 28 20 77,,,yes,,43.9562919,0.3782684
231,10231,Centre Hospitalier de Cosne sur Loire,Avenue du Maréchal Leclerc,,,,,,,,,,47.4152364,2.9286799
232,10232,Centre Hospitalier de Creil,Boulevard Laennec BP 72,,,,,+33 3 44 61 60 00,,,yes,,49.2481747,2.4577253
233,10233,Centre Hospitalier de Crest,,,,,,+33 4 75 25 37 00,,,yes,,44.7278265,5.007578
234,10234,Centre Hospitalier de Crozon,,,,,,,,,no,,48.245726700000006,-4.4870358
235,10235,Centre Hospitalier de Douai,,,,,,+33 3 27 99 61 61,,,yes,,50.340920000000004,3.1020257
236,10236,Centre Hospitalier de Doullens,,,,,,+33 3 22 32 33 33,,,yes,,50.1539297,2.3514221
237,10237,Centre Hospitalier de Dunkerque,,,,,,+33 3 28 28 59 00,,,yes,,51.03849,2.4003221000000003
238,10238,Centre Hospitalier de Falaise,Boulevard des Bercagnes,,,,,+33 2 31 40 40 40,,,yes,,48.890713500000004,-0.2065239
239,10239,Centre Hospitalier de Fontenay-le-Comte,,,,,,+33 2 51 53 51 53,,,,,46.465711799999994,-0.8289133
240,10240,Centre Hospitalier de Gisors - Pôle Sanitaire du Vexin,,,,,,+33 2 32 27 76 76,,,yes,,49.2828514,1.7576147
241,10241,Centre Hospitalier de Grasse - Site Clavary,,,,,,+33 4 93 09 55 55,,,yes,,43.620205,6.928625299999999
242,10242,Centre Hospitalier de Haguenau,,,,,,+33 3 88 06 33 33,,,yes,,48.7978044,7.7822081999999995
243,10243,Centre Hospitalier de Hirson,Rue Aux Loups,,,,,+33 3 23 58 82 82,,,yes,,49.925533,4.073861
244,10244,Centre Hospitalier de La Châtre,,,,,,,,,,,46.5707701,1.9861802
245,10245,Centre Hospitalier de La Fere,,,,,,,,,,,49.6647705,3.3585197
246,10246,Centre Hospitalier de La Mûre,,,,,,+33 4 76 81 42 00,,,yes,,44.9052689,5.7936902
247,10247,Centre Hospitalier de La Tour-du-Pin,,,,,,,,,,,45.57053,5.4487403
248,10248,Centre Hospitalier de Lanmeur,Rue de Traonbézéden,,,,,+33 2 98 78 84 84,,,,,48.6475643,-3.7105224000000003
249,10249,Centre Hospitalier de Laon,,,,,,+33 3 23 24 33 33,,,yes,,49.562246200000004,3.6112165000000003
250,10250,Centre Hospitalier de Laval,,,,,,+33 2 43 66 50 00,,,yes,,48.064628799999994,-0.7869535
251,10251,Centre Hospitalier de Lens,,,,,,+33 3 21 69 12 34,,,yes,,50.441403799999996,2.8202238
252,10252,Centre Hospitalier de Limoux,,,,,,,,,,,43.055017,2.2198127
253,10253,Centre Hospitalier de Lunéville,,,,,,+33 3 83 76 12 12,,,yes,,48.5905635,6.4914122
254,10254,Centre Hospitalier de Lézignan-Corbières,,,,,,,,,no,,43.1948095,2.7585504000000003
255,10255,Centre Hospitalier de Mamers,,,,,,,,,,,48.360401,0.358103
256,10256,Centre Hospitalier de Mont de Marsan - Site de Sainte-Anne,,,,,,,,,,,43.9035723,-0.4994912
257,10257,Centre Hospitalier de Montdidier,,,,,,+33 3 22 78 70 00,,,yes,,49.6502059,2.57355
258,10258,Centre Hospitalier de Montgelas,,,,,,+33 4 78 07 30 30,,,yes,,45.6004523,4.763846900000001
259,10259,Centre Hospitalier de Montluçon,,,,,,+33 4 70 02 30 30,,,yes,,46.3428578,2.6090735
260,10260,Centre Hospitalier de Montélimar,,,,,,+33 4 75 53 40 00,,,yes,,44.5691908,4.7812980000000005
261,10261,Centre Hospitalier de Montéran,,,,,,,,,,,16.0256592,-61.7029554
262,10262,Centre Hospitalier de Moulins-Yzeure,,,,,,+33 4 70 35 77 77,,,yes,,46.570525599999996,3.3245466
263,10263,Centre Hospitalier de Murat,,,,,,,,,,,45.1102326,2.8731308999999996
264,10264,Centre Hospitalier de Novillars,,,,,,,,,,,47.2801973,6.120715000000001
265,10265,Centre Hospitalier de Noyon,,,,,,+33 3 44 44 42 22,,,yes,,49.58967929999999,2.9986108
266,10266,Centre Hospitalier de Nérac,,,,,,,,,yes,,44.136159,0.33674
267,10267,Centre Hospitalier de Néris-Les-Bains,Rue Voltaire,,,,,,,,no,,46.2853839,2.6606424
268,10268,Centre Hospitalier de Penthièvre,Rue du Jeu de Paume,,,,,,,,,,48.4700306,-2.5182455000000004
269,10269,Centre Hospitalier de Pfastatt,,,,,,,,,,,47.766938399999994,7.302150699999999
270,10270,Centre Hospitalier de Pont-de-Vaux,,,,,,,,,no,,46.435475200000006,4.9439250999999995
271,10271,Centre Hospitalier de Péronne,,,,,,+33 3 22 83 60 00,,,yes,,49.93462,2.927698
272,10272,Centre Hospitalier de Rambouillet,,,,,,+33 1 34 83 78 78,,,yes,,48.6514768,1.8228153000000002
273,10273,Centre Hospitalier de Rives,,,,,,,,,,,45.3550814,5.4995404
274,10274,Centre Hospitalier de Roanne,,,,,,+33 4 77 44 30 00,,,yes,,46.043253,4.080851
275,10275,Centre Hospitalier de Rouffach,,,,,,+33 3 89 78 70 70,,,,,47.9503035,7.2905394
276,10276,Centre Hospitalier de Saint-Esprit,,,,,,,,,,,14.5594193,-60.9423428
277,10277,Centre Hospitalier de Saint-Flour,,,,,,+33 4 71 60 64 64,,,yes,,45.034481400000004,3.0851227000000003
278,10278,Centre Hospitalier de Saint-Hilaire-du-Harcouet,,,,,,+33 2 33 79 44 44,,,yes,,48.5702004,-1.0959451999999998
279,10279,Centre Hospitalier de Saint-Laurent-du-Pont,,,,,,,,,,,45.387205,5.738133400000001
280,10280,Centre Hospitalier de Saint-Marcellin,,,,,,,,,,,45.1527548,5.3235444
281,10281,Centre Hospitalier de Sambre-Avesnois,,,,,,+33 3 27 69 43 43,,,yes,,50.2782132,3.95791
282,10282,"Centre Hospitalier de Sarrebourg, Site de Hoff",Route de Verdun,,,,,,,,,,48.74106210000001,7.032223599999999
283,10283,"Centre Hospitalier de Sarrebourg, Site de Hoff",Rue des Roses,,,,,,,,,,48.744069399999994,7.0272485
284,10284,Centre Hospitalier de Saumur,,,,,,+33 2 41 53 30 30,,,yes,,47.2472895,-0.057035199999999994
285,10285,Centre Hospitalier de Savenay,Rue de l'Hôpital,,,,,,,,,,47.357051299999995,-1.9410666
286,10286,Centre Hospitalier de Seclin,,,,,,,,,yes,,50.5444479,3.0188982999999996
287,10287,Centre Hospitalier de Soissons,,,,,,+33 3 23 75 70 70,,,yes,,49.3686545,3.3356068999999997
288,10288,Centre Hospitalier de Somain,Rue Joseph Bouliez,,,,,,,,,,50.355024,3.2855687000000007
289,10289,Centre Hospitalier de St. Nicolas de Port,,,,,,+33 3 83 18 60 00,,,,,48.633532,6.299963
290,10290,Centre Hospitalier de Sélestat,,,,,,+33 3 88 57 56 00,,,yes,,48.2634187,7.431273299999999
291,10291,Centre Hospitalier de Sézanne,,,,,,+33 3 26 81 79 79,,,,,48.722753499999996,3.7276267999999995
292,10292,Centre Hospitalier de Thiers,Route du Fau,,,,,+33 4 73 51 10 00,,,yes,,45.85808,3.5196444
293,10293,Centre Hospitalier de Tourcoing,,,,,,+33 3 20 69 49 49,,,yes,,50.748005,3.1808049
294,10294,Centre Hospitalier de Tréguier,,,,,,,,,,,48.7792072,-3.2356293999999997
295,10295,Centre Hospitalier de Tulle,Le chandou,,,,,,,,,,45.2831013,1.7669077000000002
296,10296,Centre Hospitalier de Valenciennes,,,,,,+33 3 27 14 33 33,,,yes,,50.3611231,3.4967099000000004
297,10297,Centre Hospitalier de Valognes,,,,,,+33 2 33 95 70 00,,,limited,,49.503554799999996,-1.4639502
298,10298,Centre Hospitalier de Vitry-le-François,,,,,,+33 3 26 73 60 60,,,yes,,48.7171593,4.6012375
299,10299,Centre Hospitalier de l'Aigle,,,,,,+33 2 33 24 95 95,,,yes,,48.7666018,0.6098708
300,10300,Centre Hospitalier de l'Arrondissement de Montreuil,,,,,,,,,,,50.514952,1.642065
301,10301,Centre Hospitalier de l'Ouest Vosgien - Site de Vittel,,,,,,+33 3 29 94 80 00,,,yes,,48.2061967,5.9456899000000005
302,10302,Centre Hospitalier de la Bresse Louhannaise,,,,,,,,,,,46.6229026,5.2319364
303,10303,Centre Hospitalier de la Candélie,,,,,,,,,,,44.238195700000006,0.6547823
304,10304,Centre Hospitalier de la Côte Basque - site Cam de Prats,,,,,,,,,,,43.485103499999994,-1.4659903
305,10305,Centre Hospitalier de la Côte Fleurie,La Brèche du Bois,,,,,+33 2 31 89 89 89,,,yes,,49.3812756,0.1304307
306,10306,Centre Hospitalier de la Milétrie,Rue de la Milétrie,,,,,+33 5 49 44 44 44,,,yes,,46.5516086,0.3877045
307,10307,Centre Hospitalier des Murets,,,,,,,,,,,48.7891565,2.5784156000000005
308,10308,Centre Hospitalier des Quatre Villes,Grande Rue,,,,,+33 1 77707070,,,yes,,48.8207745,2.201871
309,10309,Centre Hospitalier du Beaujolais Vert,,,,,,,,,,,46.09826339999999,4.318779
310,10310,Centre Hospitalier du Forez,,,,,,+33 4 77 96 78 00,,,yes,,45.6125842,4.0475763
311,10311,Centre Hospitalier du Haut-Bugey,Route de Veyziat,,,,,+33 4 74 73 10 01,,,yes,,46.2609108,5.6307257
312,10312,Centre Hospitalier du Jura,,,,,,,,,,,47.0693001,5.4619644
313,10313,Centre Hospitalier du Mans,,,,,,+33 2 43 43 43 43,,,yes,,48.012716600000005,0.17895339999999998
314,10314,Centre Hospitalier du Mans - Gériaterie,,,,,,,,,no,,47.964464500000005,0.1552427
315,10315,Centre Hospitalier du Nord-Mayenne,,,,,,+33 2 43 08 73 00,,,yes,,48.3069815,-0.6048005999999999
316,10316,Centre Hospitalier du Ternois,,,,,,,,,,,50.3775505,2.3226913
317,10317,Centre Hospitalier d‘Arcachon,,,,,,+33 5 57 52 90 00,,,yes,,44.6155719,-1.1140113
318,10318,Centre Hospitalier intercommunal Alençon-Mamers,,,,,,+33 2 43 31 31 31,,,yes,,48.359433200000005,0.3607798
319,10319,Centre Hospitalier Émile Durkheim,Avenue Robert Schuman,,,,,+33 3 29 68 70 00,,,yes,,48.179431799999996,6.4541012
320,10320,Centre Hospitalier Émile Roux,,,,,,+33 4 71 04 32 10,,,yes,,45.050816,3.8757935
321,10321,Centre Hospitaliser Spécialisé Saint-Cyr,,,,,,,,,,,45.8179703,4.8355398
322,10322,Centre Jacques Parisot,,,,,,,,,,,48.5885206,6.0935185999999995
323,10323,Centre Jean Chanton,,,,,,,,,,,44.0141448,7.3023553
324,10324,Centre Jean Wier,,,,,,,,,,,48.8829055,2.220104
325,10325,Centre Laennec,,,,,,,,,,,48.811173499999995,2.2947535
326,10326,Centre Languedoc,,,,,,,,,,,43.601543799999995,3.8301428
327,10327,Centre Léon Bérard,,,,,,,,,no,,45.741245500000005,4.87878
328,10328,Centre Martel de Janville,,,,,,,,,no,,46.0813057,6.4055577
329,10329,Centre Municipal d'Education Pour la Santé Louis Pasteur,,,,,,,,,no,,48.9304148,2.4961175
330,10330,Centre Mutualiste Neurologique Propara,Rue du Caducée,,,,,,,,,,43.6436019,3.8325108
331,10331,Centre Mutualiste de Réadaptation Fonctionnelle,,,,,,,,,no,,43.925674,2.1340613999999998
332,10332,Centre Médical Alfred Leune,,,,,,,,,no,,46.1398258,1.8843028000000002
333,10333,Centre Médical Infantile de Montpribat,,,,,,,,,,,43.6997122,-0.8518044
334,10334,Centre Médical Lalance,,,,,,,,,,,47.7605402,7.2911385
335,10335,Centre Médical Nicolas de Pontoux,,,,,,,,,,,46.7983896,4.853660700000001
336,10336,Centre Médical Rio Vert,Avenue de Marseille,,,,,+33 4 92 54 76 76,,,,,44.424184999999994,6.0000480000000005
337,10337,Centre Médical Rocheplane,Rue Massenet,,,,,,,,,,45.1788517,5.7616087
338,10338,Centre Médical de Lanmary,,,,,,,,,,,45.239106799999995,0.8134449
339,10339,Centre Médical de Salem,,,,,,,,,,,48.1986978,7.1977592
340,10340,Centre Médical et Pédagogique Jacques Arnaud,Rue Pasteur,,,,,,,,,,49.046294200000006,2.2934851000000003
341,10341,Centre Médical les Aloès,Rue Adrien Lagourgue,,,,,,,,,,-21.217972,55.3109216
342,10342,Centre Médical pour Affections Cardiaques,,,,,,,,,,,48.4877549,7.2161268
343,10343,Centre Médico Chirurgical,,,,,,,,,,,44.91011029999999,2.4256048
344,10344,Centre Médico Chirurgical du Mans,,,,,,+33 2 43 78 38 38,,,yes,,47.9651921,0.22571170000000002
345,10345,Centre Médico Psycho Pédagogique C.M.P.P,,,,,,,,,,,49.405095,2.7979807
346,10346,Centre Médico Psychologique de Volzac,,,,,,,,,,,45.031731,3.0660381
347,10347,Centre Médico Pédagogique,,,,,,,,,,,48.7860967,7.7388613
348,10348,Centre Médico-Chirurgical de Réadaptation des Massues,,,,,,,,,,,45.760071,4.7980838
349,10349,Centre Médico-Chirurgical de l'Europe,,,,,,+33 1 39 17 22 22,,,yes,,48.880691,2.10698
350,10350,"Centre Médico-Psychologique ""Adultes""",,,,,,,,,,,48.261546100000004,-1.6046676000000002
351,10351,Centre Médico-Psychologique Camille Claudel,,,,,,,,,,,43.2240836,0.07384550000000001
352,10352,Centre Médico-Psychologique Capou,Route de Bordeaux,,,,,,,,no,,44.0354604,1.3118290000000001
353,10353,Centre Médico-Psychologique de Gençay,Rue de l'Échelle,,,,,,,,no,,46.374658399999994,0.4035696
354,10354,Centre Médico-Psychologique de Saint-Julien-en-Genevois,,,,,,,,,,,46.14443970000001,6.076549099999999
355,10355,Centre Médico-Social du Perray,,,,,,,,,,,47.2470641,-1.5123572
356,10356,Centre Médico-psychologique,,,,,,,,,,,46.044296700000004,4.0792989
357,10357,Centre Neuro-Psychiatrique-Infantile Théophile-Roussel,,,,,,,,,,,48.9256545,2.1292811
358,10358,Centre Orthopédique Maguelone,,,,,,,,,,,43.6238284,3.9081884
359,10359,Centre Oscar Lambret,,,,,,,,,,,50.612081599999996,3.0324272
360,10360,Centre Ostéo-articulaire des Cèdres,Rue des Tropiques,,,,,,,,,,45.150581,5.7259272
361,10361,Centre Paul Strauss,,,,,,,,,,,48.576030200000005,7.7511488
362,10362,Centre Psychothérapique Saint-Martin de Vignogoul,,,,,,,,,,,43.591702399999996,3.787532
363,10363,Centre Psychothérapique de Nancy,,,,,,+33 3 83 92 50 50,,,,,48.6788527,6.1413029
364,10364,Centre Psychothérapique de Tours Sud (CHU),,,,,,+33 2 47 47 47 47,,,,,47.3520214,0.7109871999999999
365,10365,Centre Psychothérapique de l'Ain,,,,,,,,,,,46.2280783,5.2327902
366,10366,Centre Psychothérapique de l'Orne,,,,,,,,,no,,48.435203,0.0768957
367,10367,Centre Psychotérapique de l'Orne,,,,,,,,,,,48.7473036,-0.5416414
368,10368,Centre Pédiatrique des Côtes,,,,,,,,,,,48.7587061,2.1471273999999996
369,10369,Centre Ressources Autismes - Nord-Pas-de-Calais,,,,,,,,,no,,50.60473629999999,3.0282343999999997
370,10370,Centre Rhône-Azur,,,,,,,,,,,44.5681427,6.0686355
371,10371,Centre Régional de Médecine Physique et de Réadaptation Les Herbiers,Rue Herbeuse,,,,,+33 2 35 59 52 00,,,,,49.462447499999996,1.1149131
372,10372,Centre Rééducation Moteur Cérébral,,,,,,,,,no,,48.95277670000001,4.3275261
373,10373,Centre Saint-Jean,,,,,,+33 3 89 38 59 00,,,,,47.756935,7.058730000000001
374,10374,Centre Sainte-Barbe,,,,,,,,,,,50.42215,2.8907979
375,10375,Centre William Harvey,,,,,,,,,,,49.1768223,-1.3313203000000002
376,10376,Centre cardiologique d'Évecquemont,,,,,,,,,,,49.010346500000004,1.9355061000000002
377,10377,Centre catalan d'imagerie,,,,,,+33 4 68 55 21 35,,,,,42.6953658,2.8637466000000003
378,10378,Centre catalan d'oncologie,,,,,,+33 4 68 55 74 96,,,,,42.6957407,2.8642197
379,10379,Centre de Biologie-Pathologie,,,,,,,,,no,,50.6095124,3.0323892999999997
380,10380,Centre de Convalescence Mutualiste,,,,,,,,,no,,47.1919552,-1.5022291
381,10381,Centre de Convalescence l'Hostrea,,,,,,+33 2 32 27 75 75,,,,,49.2410408,1.6799879
382,10382,Centre de Dialyse - Diaverum,,,,,,+33 4 90 52 15 20,,,,,43.6574624,4.6315163
383,10383,Centre de Gérontologie de Serre Cavalier,,,,,,+33 4 66 68 34 71,,,,,43.8500519,4.379116799999999
384,10384,Centre de Gérontologie et d'Accueil Spécialisé Philippe Dugué,,,,,,,,,no,,48.7073841,2.0342104
385,10385,Centre de Jour Marie Noël pour Enfants,,,,,,,,,,,49.405095,2.7979807
386,10386,Centre de Long et Moyen Séjour des Monts d'Or,,,,,,,,,,,45.878398,4.769292500000001
387,10387,Centre de Lutte contre le Cancer René Gauducheau,,,,,,,,,,,47.2367559,-1.6378712
388,10388,Centre de Médecine Physique et de Capture4Réadaptation (CMPR) de Bagnoles de l’Orne,Avenue du Docteur Jacques Aimez,,,,,,,,no,,48.5536991,-0.42476759999999997
389,10389,Centre de Post-Cure,,,,,,,,,,,49.8665201,2.2779375
390,10390,Centre de Psychiatrie Les Tournesols,,,,,,+33 2 54 23 36 41,,,,,47.8025878,1.0562421
391,10391,Centre de Psychothérapie Les Marronniers,,,,,,,,,,,50.4598365,2.7155694
392,10392,Centre de Radiologie,,,,,,,,,,,-21.5701343,165.4984696
393,10393,Centre de Réadaptation Cardio-Respiratoire de la Loire (CRCRL),,,,,,,,,,,45.477303899999995,4.3657748
394,10394,Centre de Réadaptation Cardiologique et Pneumologique de Franche-Comté,,,,,,,,,,,46.8814196,5.907140900000001
395,10395,Centre de Réadaptation Fonctionnelle,,,,,,,,,,,46.940846,5.877237999999999
396,10396,Centre de Réadaptation Fonctionnelle E. Bretegnier,,,,,,,,,,,47.5773071,6.7553917000000006
397,10397,Centre de Réadaptation Le Muesberg,,,,,,,,,,,48.1957484,7.2241428
398,10398,Centre de Réadaptation Spécialisé Saint-Luc,,,,,,,,,,,48.628396,7.1214208
399,10399,Centre de Réadaptation de Lay-Saint-Christophe,,,,,,,,,,,48.747048,6.1815777999999995
400,10400,Centre de Réadaptation et de Rééducation Fonctionnelles Le Bourbonnais,,,,,,,,,,,46.617684000000004,3.7672402999999997
401,10401,Centre de Réeducation Fonctionnelle de la Tour de Gassies,,,,,,+33 5 56 16 33 33,,,,,44.884912899999996,-0.6275582
402,10402,Centre de Rééducation Florentin,,,,,,,,,,,48.68795,6.196986
403,10403,Centre de Rééducation Fonctionnelle Institut Asclépiade,,,,,,,,,,,48.293766399999996,4.13549
404,10404,Centre de Rééducation Fonctionnelle Notre-Dame,,,,,,,,,,,45.77777570000001,3.0713977999999997
405,10405,Centre de Rééducation Korian Les Grands Chênes,Rue Stéhélin,,,,,,,,,,44.854558700000005,-0.6237236999999999
406,10406,Centre de Santé H. Barbusse,,,,,,+33 1 49 45 68 90,,,,,48.9079446,2.3316958
407,10407,Centre de Santé Infirmier de Molène,,,,,,,,,,,48.395862799999996,-4.9585425
408,10408,Centre de Santé Mentale Angevin (CESAME),,,,,,,,,,,47.4201948,-0.5682165
409,10409,Centre de Santé Médical,,,,,,,,,,,50.490457,2.8499630000000002
410,10410,Centre de Santé de Manosque,Avenue du Majoral Mestre Raoul Arnaud,,,,,+33 4 92 70 58 60,,,,,43.8300825,5.780818900000001
411,10411,Centre de Soins,,,,,,,,,,,50.341287,3.3471379999999997
412,10412,Centre de Soins de Suite Le parc,,,,,,,,,,,48.5518283,-0.4188272
413,10413,Centre de Soins de Suite de Sartrouville;Centre Imagerie Médicale Yvelines Nord (CIMYN),,,,,,,,,,,48.942474700000005,2.1610009999999997
414,10414,Centre de Soins de Suite et de Réadaptation Sainte-Catherine Labouré,,,,,,,,,no,,45.0597219,5.2158125
415,10415,Centre de Soins et d'Accompagnement et de Prévention en Addictologie,,,,,,,,,,,50.6192757,3.0451803
416,10416,Centre de Soins et de Réadaptation Les Tilleroyes,,,,,,,,,,,47.2345516,5.960453299999999
417,10417,Centre de Traumatologie et d'Orthopédie de la Main,,,,,,,,,,,48.537662899999994,7.7256698
418,10418,Centre de cure médicale,Rue de la Croix Duchet,,,,,+33 2 48 63 26 00,,,no,,46.7373268,2.5084327
419,10419,Centre de dépistage anonyme et gratuit,,,,,,,,,,,48.853509499999994,2.3594089
420,10420,Centre de l'Espoir,,,,,,,,,,,50.6220315,3.1228906000000003
421,10421,Centre de long séjour,,,,,,,,,,,46.7934216,3.1166946
422,10422,Centre de long séjour de Bellevaux,,,,,,,,,,,47.2422323,6.0215783
423,10423,Centre de réadaptation CRF de Beaurouvre,,,,,,,,,,,48.3184911,1.2736067
424,10424,Centre de réadaptation Château Walk,,,,,,,,,,,48.7940768,7.768046000000001
425,10425,Centre de réadaptation fonctionnelle Richelieu,,,,,,+33 5 46 43 12 05,,,,,46.1538977,-1.1745953000000002
426,10426,Centre de rééducation fonctionnelle de la Hève,,,,,,,,,,,49.519419299999996,0.08756439999999999
427,10427,Centre de rééducation fonctionnelle du Cabirol,,,,,,,,,,,43.597177,1.3291387
428,10428,Centre de santé,,,,,,,,,no,,43.3601681,1.6246254999999998
429,10429,Centre de soins Louis Sevestre,,,,,,,,,,,47.438964899999995,0.6465181999999999
430,10430,Centre des Maladies du Foie et de l'Appareil Digestif,,,,,,+33472666700,,,no,,45.6890859,4.823331
431,10431,Centre départemental Georges Daumézon,,,,,,,,,,,47.9460349,1.9481554
432,10432,"Centre d’écoute, de consultations et d’activités thérapeutiques (CECAT)",Allée de la Providence,,,,,,,,,,46.561988,0.367398
433,10433,Centre hopitalier de Chaumont,,,,,,+33 3 25 30 70 30,,,yes,,48.1212756,5.1379222
434,10434,Centre hospitaier de Saint-Tropez,Rond-Point du Général Diego Brosset,,,,,+33 4 98 12 50 00,,,yes,,43.2493068,6.572216900000001
435,10435,Centre hospitalier,,,,,,+33 2 32 23 60 00,,,yes,,48.74007460000001,0.9208392
436,10436,Centre hospitalier,,,,,,+33 2 54 29 60 00,,,yes,,46.7988082,1.6925839
437,10437,Centre hospitalier Aiguilles-Queyras,,,,,,+33 4 92 46 70 18,,,,,44.780682399999996,6.8670989
438,10438,Centre hospitalier Alphonse Guérin,Rue du Roi Arthur,,,,,+33 2 97 73 26 26,,,yes,,47.936564399999995,-2.3970238
439,10439,Centre hospitalier Alès-Cévennes,,,,,,+33 4 66 78 33 33,,,yes,,44.144635,4.0931699
440,10440,Centre hospitalier Annecy-Genevois,,,,,,+33 4 50 49 65 65,,,yes,,46.1471833,6.0790072
441,10441,Centre hospitalier Ariège Couserans,,,,,,+33 5 61 96 20 20,,,yes,,43.0014401,1.1291401
442,10442,Centre hospitalier Auban-Moët,,,,,,+33 3 26 58 70 00,,,yes,,49.031017999999996,3.956321
443,10443,Centre hospitalier Bat.1,,,,,,,,,,,50.641901000000004,2.398562
444,10444,Centre hospitalier Comminges Pyrénées,,,,,,+33 5 62 00 40 00,,,yes,,43.112755,0.7137674
445,10445,Centre hospitalier Comminges Pyrénées,Boulevard d'Encore,,,,,,,,,,43.1162449,0.7330826
446,10446,Centre hospitalier Durécu-Lavoisier,Rue Louis Pasteur,,,,,+33 2 32 12 32 32,,,no,,49.4450136,1.1483223999999999
447,10447,Centre hospitalier Erstein Ville,,,,,,+33 3 88 64 66 46,,,no,,48.421604200000004,7.660315600000001
448,10448,Centre hospitalier Eure-Seine,Rue Louis Gillain,,,,,+33 2 32 33 80 00,,,yes,,49.0327971,1.1112600000000001
449,10449,Centre hospitalier Eure-Seine,Rue du Docteur Burnet,,,,,+33 2 32 71 66 00,,,yes,,49.090833200000006,1.4889871000000001
450,10450,Centre hospitalier Fanny Ramadier,,,,,,+33 4 66 31 00 66,,,,,44.807553399999996,3.2793956
451,10451,Centre hospitalier François Quesnay,,,,,,+33 1 34 97 40 00,,,yes,,48.9997244,1.6720779
452,10452,Centre hospitalier François Tosquelles,,,,,,+33 4 66 42 55 55,,,,,44.7808718,3.3942345
453,10453,Centre hospitalier Geneviève de Gaulle Anthonioz,,,,,,+33 3 25 56 84 84,,,yes,,48.656150200000006,4.9617002999999995
454,10454,Centre hospitalier Georges Claudinon,Rue Paul Langevin,,,,,,,,no,,45.3919822,4.3217034000000005
455,10455,Centre hospitalier Henri Guérin,,,,,,,,,,,43.236708,6.1501765
456,10456,Centre hospitalier Henri Mondor,,,,,,+33 4 71 46 56 56,,,yes,,44.9274367,2.4335188999999997
457,10457,Centre hospitalier Henri laborit,,,,,,,,,yes,,46.551615999999996,0.3877224
458,10458,Centre hospitalier Henri laborit,,,,,,,,,,,46.8303053,0.5560937
459,10459,Centre hospitalier Hôtel Dieu,,,,,,+33 3 82 44 70 00,,,yes,,49.536161299999996,5.780996599999999
460,10460,Centre hospitalier Irénée de Bruyn,Rue de Pére Irénée de Bruyn,,,,,,,,,,17.8947099,-62.850947999999995
461,10461,Centre hospitalier Jacques Boutard,,,,,,+33 5 55 75 75 75,,,yes,,45.5158334,1.2028489
462,10462,Centre hospitalier Jacques Cœur,,,,,,+33 2 48 48 48 48,,,yes,,47.083814200000006,2.4400431
463,10463,Centre hospitalier Jacques Lacarin,Boulevard Denière,,,,,+33 4 70 97 33 33,,,yes,,46.1240941,3.4327422999999997
464,10464,Centre hospitalier Jean-Martin Charcot,,,,,,,,,,,48.8036351,2.0629916
465,10465,Centre hospitalier Le Cateau,,,,,,+33 3 27 84 66 66,,,yes,,50.1041776,3.5360532
466,10466,Centre hospitalier Le Vinatier,,,,,,,,,,,45.746643,4.8965931
467,10467,Centre hospitalier Loire Vendée Océan,,,,,,+33 2 40 78 44 00,,,,,46.994735,-1.8226846
468,10468,Centre hospitalier Louis Constant Fleming,Spring Concordia,,,,,+33 5 90 52 25 25,,,yes,,18.065498100000003,-63.074023499999996
469,10469,Centre hospitalier Louis Jaillon,Montée de l'Hôpital,,,,,+33 3 84 41 33 33,,,yes,,46.384532799999995,5.8670067
470,10470,Centre hospitalier Lucien Hussel,,,,,,+33 4 74 31 33 33,,,yes,,45.536348700000005,4.8785738
471,10471,Centre hospitalier Manchester,,,,,,+33 3 24 58 70 70,,,yes,,49.7613444,4.6946447000000004
472,10472,Centre hospitalier Max Querrien,Chemin de Kerpuns,,,,,,,,yes,,48.7724685,-3.0362123
473,10473,Centre hospitalier Michel Mazéas,,,,,,+33 2 98 75 10 10,,,yes,,48.084205600000004,-4.318537999999999
474,10474,Centre hospitalier Notre-Dame de la Miséricorde,,,,,,+33 4 95 29 90 90,,,yes,,41.923072999999995,8.730833500000001
475,10475,Centre hospitalier Ouest Réunion,,,,,,02 62 45 30 30,,,yes,,-20.977619100000002,55.30048670000001
476,10476,Centre hospitalier Paul Martinais,,,,,,+33 2 47 91 33 33,,,yes,,47.1287167,1.0015743000000001
477,10477,Centre hospitalier Pierre Dezarnaulds,,,,,,+33 2 38 29 38 29,,,yes,,47.690261299999996,2.6369145
478,10478,Centre hospitalier René Dubos,,,,,,+33 1 30 75 40 40,,,yes,,49.0607915,2.0939121
479,10479,Centre hospitalier Rives de Seine - Neuilly-sur-Seine,,,,,,+33 1 40 88 60 00,,,yes,,48.890373600000004,2.2613266
480,10480,Centre hospitalier Robert Bisson,,,,,,+33 2 31 61 31 31,,,yes,,49.143406,0.23187129999999997
481,10481,Centre hospitalier Robert Morlevat,,,,,,+33 3 80 89 64 64,,,yes,,47.495789200000004,4.3424166
482,10482,Centre hospitalier Saint-Esprit,,,,,,+33 5 53 69 70 71,,,yes,,44.2148783,0.6334880999999999
483,10483,Centre hospitalier Saint-Nazaire,Boulevard Georges Charpak,,,,,+33 2 72 27 80 00,,,yes,,47.2644084,-2.2600696
484,10484,Centre hospitalier Saint-Pierre d'Oléron,,,,,,+33 5 46 76 31 00,,,limited,,45.942953,-1.30472
485,10485,Centre hospitalier Sainte-Marie,,,,,,+33 5 90 97 65 00,,,yes,,15.8897434,-61.3073906
486,10486,Centre hospitalier Simone Veil,,,,,,+33 2 99 74 14 14,,,yes,,48.123634499999994,-1.2267728999999998
487,10487,Centre hospitalier Universitaire de Nantes,,,,,,+33 2 40 08 33 33,,,yes,,47.2093415,-1.5551253
488,10488,Centre hospitalier William Morey,,,,,,+33 3 85 44 66 88,,,yes,,46.777113299999996,4.8392774
489,10489,Centre hospitalier Yves Le Foll,,,,,,+33 2 96 01 71 23,,,yes,,48.494007,-2.753637
490,10490,Centre hospitalier d'Albertville-Moûtiers,,,,,,+33 4 79 89 55 55,,,yes,,45.6697133,6.3699983
491,10491,Centre hospitalier d'Albertville-Moûtiers,,,,,,+33 4 79 09 60 60,,,yes,,45.4835066,6.5339946
492,10492,Centre hospitalier d'Albi,,,,,,+33 5 63 47 47 47,,,yes,,43.925009499999994,2.1439633999999996
493,10493,Centre hospitalier d'Alençon,Rue de Fresnay,,,,,+33 2 33 32 30 30,,,yes,,48.426406,0.08657639999999998
494,10494,Centre hospitalier d'Altkirch,,,,,,+33 3 89 08 30 30,,,,,47.62538920000001,7.2537594
495,10495,Centre hospitalier d'Amboise,,,,,,+33 2 47 23 33 33,,,yes,,47.4092098,0.9804845
496,10496,Centre hospitalier d'Angoulême,,,,,,+33 5 45 24 40 40,,,yes,,45.6366171,0.1183945
497,10497,Centre hospitalier d'Antibes - Juan-les-Pins,Avenue de Nice,,,,,,,,yes,,43.602543,7.116229
498,10498,Centre hospitalier d'Argentan,Rue Aristide Briand,,,,,+33 2 33 12 33 12,,,yes,,48.7465864,-0.02026
499,10499,Centre hospitalier d'Argenteuil,,,,,,+33 1 34 23 24 25,,,yes,,48.9423763,2.2357211
500,10500,Centre hospitalier d'Arles,,,,,,+33 4 90 49 29 29,,,yes,,43.659021100000004,4.635536599999999
501,10501,Centre hospitalier d'Arpajon,,,,,,+33 1 64 92 92 92,,,yes,,48.5844717,2.2390163
502,10502,Centre hospitalier d'Aubagne,,,,,,+33 4 42 84 70 00,,,yes,,43.29171229999999,5.562814599999999
503,10503,Centre hospitalier d'Avallon,,,,,,+33 3 86 34 66 00,,,yes,,47.489703399999996,3.9052601000000005
504,10504,Centre hospitalier d'Avignon,,,,,,+33 4 32 75 33 33,,,yes,,43.9195164,4.7965552
505,10505,Centre hospitalier d'Elbeuf,Rue du Docteur Villiers,,,,,+33 2 32 96 35 35,,,yes,,49.306576799999995,1.0396531999999998
506,10506,Centre hospitalier d'Embrun,,,,,,+33 4 92 43 73 00,,,yes,,44.5618383,6.4927456
507,10507,Centre hospitalier d'Is-sur-Tille,,,,,,+33 3 80 95 62 62,,,no,,47.5196887,5.1073565
508,10508,Centre hospitalier d'Oloron,,,,,,,,,yes,,43.1966977,-0.6154097
509,10509,Centre hospitalier d'Orange,,,,,,+33 4 90 11 22 22,,,yes,,44.1479406,4.8216057999999995
510,10510,Centre hospitalier d'Orsay,,,,,,+33 1 69 29 75 75,,,yes,,48.699957899999994,2.1868766
511,10511,Centre hospitalier d'Ortez,,,,,,+33 5 59 69 70 70,,,yes,,43.4862888,-0.77277
512,10512,Centre hospitalier d'Étampes,,,,,,+33 1 60 80 76 76,,,yes,,48.4200853,2.1509242000000004
513,10513,Centre hospitalier de Bagnols-sur-Cèze,,,,,,+33 4 66 79 10 11,,,yes,,44.15826989999999,4.6153648
514,10514,Centre hospitalier de Bagnères-de-Bigorre,,,,,,+33 5 62 91 41 11,,,yes,,43.066465,0.1466433
515,10515,Centre hospitalier de Bailleul,,,,,,,,,,,50.7370825,2.7385897
516,10516,Centre hospitalier de Basse-Terre,Avenue Gaston Feuillard,,,,,+33 590 80 54 54,,,yes,,16.004653400000002,-61.72980129999999
517,10517,Centre hospitalier de Bastia,,,,,,+33 4 95 59 11 11,,,yes,,42.6803543,9.427702499999999
518,10518,Centre hospitalier de Bergerac,,,,,,+33 5 53 63 88 88,,,yes,,44.8515028,0.49917619999999996
519,10519,Centre hospitalier de Bernay,Rue Anne de Ticheville,,,,,+33 2 32 45 63 00,,,yes,,49.089714799999996,0.5910711
520,10520,Centre hospitalier de Bigorre - La Gespe,,,,,,+33 5 62 51 51 51,,,yes,,43.219055100000006,0.056632
521,10521,Centre hospitalier de Bigorre - Site de Vic,,,,,,+33 5 62 54 70 00,,,,,43.388524200000006,0.053372800000000005
522,10522,Centre hospitalier de Blaye,,,,,,+33 5 57 33 40 00,,,yes,,45.13393,-0.659974
523,10523,Centre hospitalier de Bligny,,,,,,,,,no,,48.627872499999995,2.1468841
524,10524,Centre hospitalier de Blois,,,,,,+33 2 54 55 66 33,,,yes,,47.6065446,1.3433667999999999
525,10525,Centre hospitalier de Bonifacio,,,,,,+33 4 95 73 95 73,,,,,41.399390000000004,9.1628317
526,10526,Centre hospitalier de Boscamnant,,,,,,+33 5 46 86 50 00,,,no,,45.1985354,-0.08910839999999999
527,10527,Centre hospitalier de Bourbonne les Bains,,,,,,,,,,,47.9467441,5.7327711
528,10528,Centre hospitalier de Bourg-Saint-Maurice,,,,,,+33 4 79 41 79 79,,,yes,,45.617099200000006,6.7634514999999995
529,10529,Centre hospitalier de Brignoles,,,,,,+33 4 94 72 66 00,,,yes,,43.404717,6.066261
530,10530,Centre hospitalier de Brive-la-Gaillarde,,,,,,,,,yes,,45.1677815,1.5315587
531,10531,Centre hospitalier de Béziers,Rue Valentin Haüy,,,,,+33 4 67 35 70 35,,,yes,,43.342321399999996,3.2536522999999997
532,10532,Centre hospitalier de Cahors,,,,,,+33 5 65 20 50 50,,,yes,,44.4448503,1.437638
533,10533,Centre hospitalier de Calvi-Balagne,,,,,,+33 9 74 56 57 38,,,yes,,42.5491318,8.7655602
534,10534,Centre hospitalier de Cannes,,,,,,+33 4 93 69 70 00,,,,,43.5632344,7.005486200000001
535,10535,Centre hospitalier de Capesterr-Belle-Eau (CHCBE),,,,,,,,,,,16.0112126,-61.5978238
536,10536,Centre hospitalier de Carcassonne,,,,,,+33 4 68 24 24 24,,,yes,,43.222308,2.3935785
537,10537,Centre hospitalier de Carhaix,,,,,,+33 2 98 99 20 20,,,yes,,48.2738275,-3.5806077000000003
538,10538,Centre hospitalier de Carpentras,Rond-Point de l'Amitié Vevey Seesen,,,,,+33 4 32 85 88 88,,,yes,,44.047791100000005,5.0269223
539,10539,Centre hospitalier de Castelnaudary,,,,,,+33 4 68 94 57 52,,,yes,,43.317226500000004,1.9611186
540,10540,Centre hospitalier de Cernay,,,,,,+33 3 89 38 54 14,,,no,,47.807196399999995,7.1732095000000005
541,10541,Centre hospitalier de Chagny,,,,,,,,,,,46.910616999999995,4.750314
542,10542,Centre hospitalier de Champagnole,Rue de Franche Comté,,,,,+33 3 84 53 02 02,,,yes,,46.737379,5.9095529
543,10543,Centre hospitalier de Charolles,Rue du Prieuré,,,,,,,,,,46.4315342,4.2815296
544,10544,Centre hospitalier de Chateau-Chinon,,,,,,+33 3 86 79 60 00,,,no,,47.061313,3.935654
545,10545,Centre hospitalier de Chatellerault,,,,,,+33 5 49 02 90 90,,,yes,,46.829268400000004,0.5550704000000001
546,10546,Centre hospitalier de Cholet,,,,,,+33 2 41 49 60 00,,,yes,,47.0408295,-0.9005742
547,10547,Centre hospitalier de Châlons-en-Champagne,,,,,,+33 3 26 69 60 60,,,yes,,48.9730152,4.3723410000000005
548,10548,Centre hospitalier de Château-Renault,,,,,,+33 2 47 23 33 33,,,,,47.588496,0.9174005999999999
549,10549,Centre hospitalier de Châteaubriant,,,,,,+33 2 40 55 88 00,,,yes,,47.727137299999995,-1.3797966999999998
550,10550,Centre hospitalier de Châteaudun,,,,,,+33 2 37 44 40 40,,,yes,,48.075337100000006,1.3561809
551,10551,Centre hospitalier de Châtillon-sur-Seine,,,,,,+33 3 80 91 21 21,,,yes,,47.863412,4.5575898
552,10552,Centre hospitalier de Clamecy,,,,,,+33 3 86 27 60 00,,,yes,,47.454201700000006,3.5105506
553,10553,Centre hospitalier de Clermont de l'Oise,,,,,,+33 3 44 77 33 00,,,yes,,49.378951799999996,2.4104261
554,10554,Centre hospitalier de Commercy,,,,,,+33 3 29 91 63 00,,,limited,,48.7608701,5.5871889
555,10555,Centre hospitalier de Cornouaille,Avenue Yves Thépot,,,,,+33 2 98 52 60 60,,,yes,,47.9875037,-4.0975146
556,10556,Centre hospitalier de Coulommiers,,,,,,+33 1 64 77 64 77,,,yes,,48.8265658,3.0934875
557,10557,Centre hospitalier de Coulommiers,,,,,,+33 1 64 77 64 77,,,no,,48.814407,3.081542
558,10558,Centre hospitalier de Courbevoie - Neuilly-sur-Seine,,,,,,,,,,,48.899975899999994,2.2525283
559,10559,Centre hospitalier de Coutances,Rue de la Gare,,,,,+33 2 33 47 40 00,,,yes,,49.04273870000001,-1.4421312
560,10560,Centre hospitalier de Dax-Côte d'Argent,Boulevard Yves Du Manoir,,,,,+33 5 58 91 48 48,,,yes,,43.7098295,-1.0394178
561,10561,Centre hospitalier de Decazeville,,,,,,+33 5 65 43 71 71,,,yes,,44.5693952,2.2520522
562,10562,Centre hospitalier de Decize,,,,,,+33 3 86 77 78 79,,,yes,,46.8213067,3.4524614000000002
563,10563,Centre hospitalier de Denain,,,,,,+33 3 27 24 30 00,,,yes,,50.329632000000004,3.393933
564,10564,Centre hospitalier de Die,,,,,,+33 4 75 22 55 00,,,yes,,44.755526,5.3704681
565,10565,Centre hospitalier de Dieppe,Avenue Pasteur,,,,,+33 2 32 14 76 76,,,yes,,49.9194795,1.0771973999999997
566,10566,Centre hospitalier de Dieppe le Château Michel,,,,,,,,,no,,49.907841600000005,1.0728942
567,10567,Centre hospitalier de Digne-les-Bains,Quartier Saint-Christophe,,,,,+33 4 92 30 15 15,,,yes,,44.0707516,6.176904599999999
568,10568,Centre hospitalier de Dourdan,,,,,,+33 1 60 81 58 58,,,yes,,48.5345483,1.9977790000000002
569,10569,Centre hospitalier de Dreux,,,,,,+33 2 37 51 52 53,,,yes,,48.72613320000001,1.3872653
570,10570,Centre hospitalier de Eu,,,,,,+33 2 27 28 22 22,,,yes,,50.0499578,1.4226931999999999
571,10571,Centre hospitalier de Faye L'Abbesse,,,,,,+33 5 49 68 49 68,,,yes,,46.833506899999996,-0.38967179999999996
572,10572,Centre hospitalier de Figeac,,,,,,+33 5 65 50 65 50,,,yes,,44.6093046,2.0278657
573,10573,Centre hospitalier de Fismes,,,,,,+33 3 26 48 95 95,,,,,49.3067383,3.6775419
574,10574,Centre hospitalier de Florac,,,,,,+33 4 66 49 63 00,,,,,44.3247307,3.5974190000000004
575,10575,Centre hospitalier de Fontainebleau,,,,,,+33 1 60 74 10 10,,,yes,,48.4112175,2.6946995
576,10576,Centre hospitalier de Fougères,,,,,,+33 2 99 17 70 00,,,yes,,48.3578794,-1.1941369
577,10577,Centre hospitalier de Fourmies,,,,,,+33 3 27 56 47 47,,,yes,,50.009485,4.0579079
578,10578,Centre hospitalier de Fumay,,,,,,+33 3 24 41 10 32,,,,,49.9891225,4.7096345
579,10579,Centre hospitalier de Gaillac,,,,,,+33 5 63 42 50 50,,,,,43.9017325,1.8865976000000002
580,10580,Centre hospitalier de Gonesse,,,,,,+33 1 34 53 21 21,,,yes,,48.9943659,2.4487735
581,10581,Centre hospitalier de Gourdon,,,,,,+33 5 65 27 65 27,,,yes,,44.733084399999996,1.3752571000000002
582,10582,Centre hospitalier de Grand-Fougeray,Rue Saint-Roch,,,,,+33 2 99 08 30 30,,,no,,47.7251064,-1.7330119
583,10583,Centre hospitalier de Gray,,,,,,+33 3 84 64 61 61,,,yes,,47.4461597,5.5845454000000005
584,10584,Centre hospitalier de Guervénan,,,,,,,,,,,48.523104700000005,-3.7348901
585,10585,Centre hospitalier de Guingamp,,,,,,+33 2 96 44 56 56,,,yes,,48.5692474,-3.1449932
586,10586,Centre hospitalier de Guise,,,,,,,,,,,49.903085100000006,3.6412456
587,10587,Centre hospitalier de Guéret,,,,,,+33 5 55 51 70 00,,,yes,,46.163802600000004,1.8717686000000002
588,10588,Centre hospitalier de Haute-Corrèze,,,,,,+33 5 55 96 40 00,,,yes,,45.541932,2.3104897
589,10589,Centre hospitalier de Hyères,Boulevard du Maréchal Juin,,,,,+33 4 94 00 24 00,,,yes,,43.120579799999994,6.1122804
590,10590,Centre hospitalier de Joigny,,,,,,+33 3 86 92 33 33,,,yes,,47.98025870000001,3.3956987
591,10591,Centre hospitalier de Jonzac,,,,,,+33 5 46 48 75 75,,,yes,,45.4398001,-0.4351518
592,10592,Centre hospitalier de Josselin,,,,,,+33 2 97 73 13 13,,,,,47.9590109,-2.5496103
593,10593,Centre hospitalier de Juvisy-sur-Orge,,,,,,+33 1 69 54 27 27,,,yes,,48.6926097,2.3733352
594,10594,Centre hospitalier de Kourou,,,,,,+594 594 32 76 76,,,yes,,5.1648238,-52.6444701
595,10595,Centre hospitalier de La Ferté-Bernard,,,,,,+33 2 43 71 61 51,,,yes,,48.188351399999995,0.6612088
596,10596,Centre hospitalier de La Rochelle,,,,,,+33 5 46 45 50 50,,,yes,,46.15936370000001,-1.1461598999999998
597,10597,Centre hospitalier de La Souterraine,,,,,,+33 5 55 89 58 00,,,no,,46.23639420000001,1.4802688
598,10598,Centre hospitalier de Langogne,,,,,,+33 4 66 69 78 00,,,,,44.7245075,3.8400891
599,10599,Centre hospitalier de Langon,,,,,,+33 5 56 76 57 57,,,yes,,44.5433695,-0.24385570000000004
600,10600,Centre hospitalier de Langres,,,,,,+33 3 25 87 88 88,,,yes,,47.866054,5.3366377
601,10601,Centre hospitalier de Lannion,,,,,,+33 2 96 05 71 11,,,yes,,48.7230333,-3.4657742999999996
602,10602,Centre hospitalier de Lavaur,,,,,,+33 5 63 58 81 81,,,yes,,43.701864799999996,1.8177522000000002
603,10603,Centre hospitalier de Libourne,,,,,,+33 5 57 55 34 34,,,yes,,44.9169576,-0.2307435
604,10604,Centre hospitalier de Lodève,,,,,,,,,,,43.730067299999995,3.3147116999999997
605,10605,Centre hospitalier de Longjumeau,,,,,,+33 1 64 54 33 33,,,yes,,48.6915411,2.2900378
606,10606,Centre hospitalier de Lons-le-Saunier,Rue du Docteur Jean Michel,,,,,+33 3 84 35 60 00,,,yes,,46.6779145,5.5524735
607,10607,Centre hospitalier de Loudun,,,,,,+33 5 49 98 45 42,,,yes,,47.010425,0.07666289999999999
608,10608,Centre hospitalier de Lourdes,,,,,,+33 5 62 42 42 42,,,yes,,43.0993656,-0.0462977
609,10609,Centre hospitalier de Lure,,,,,,+33384624306,,,yes,,47.681275799999995,6.4992981
610,10610,Centre hospitalier de Luxeuil-les-Bains,,,,,,+33 3 84 93 35 50,,,yes,,47.8229501,6.3818838
611,10611,Centre hospitalier de Marennes,,,,,,+33 5 46 85 01 38,,,,,45.822173299999996,-1.0998727
612,10612,Centre hospitalier de Martigues,,,,,,+33 4 42 43 22 22,,,yes,,43.4141334,5.0383472000000005
613,10613,Centre hospitalier de Mauriac,,,,,,+33 4 71 67 33 33,,,yes,,45.2168015,2.34003
614,10614,Centre hospitalier de Mauvezin,,,,,,+33 5 62 58 32 00,,,no,,43.7294516,0.8742419
615,10615,Centre hospitalier de Mayotte,Rue de l'Hôpital,,,,,+262 2 69 61 80 00,,,yes,,-12.7772767,45.2278125
616,10616,Centre hospitalier de Meaux,,,,,,+33 1 64 77 64 77,,,yes,,48.965591700000004,2.8876817000000004
617,10617,Centre hospitalier de Melun,,,,,,+33 1 64 71 60 00,,,yes,,48.5561925,2.6425633
618,10618,Centre hospitalier de Menton,,,,,,+33 4 93 28 77 77,,,yes,,43.7666641,7.484344800000001
619,10619,Centre hospitalier de Meulan-en-Yvelines,,,,,,+33 1 30 91 85 00,,,yes,,49.0032469,1.9104444999999999
620,10620,Centre hospitalier de Millau,Boulevard Achille Souques,,,,,+33 5 65 59 30 00,,,yes,,44.0944698,3.0497531
621,10621,Centre hospitalier de Millau Site de Saint-Côme,Avenue du Général Cossé,,,,,,,,,,44.0958348,3.0706842
622,10622,Centre hospitalier de Mont-de-Marsan,Avenue Pierre de Coubertin,,,,,+33 5 58 05 10 10,,,yes,,43.894739799999996,-0.48781320000000006
623,10623,Centre hospitalier de Montauban,Rue Léon Cladel,,,,,+33 5 63 92 82 82,,,yes,,44.024183799999996,1.3490608
624,10624,Centre hospitalier de Montereau,,,,,,+33 1 64 31 64 31,,,yes,,48.38417379999999,2.9540162
625,10625,Centre hospitalier de Montmorillon,,,,,,,,,yes,,46.430125399999994,0.8661525999999999
626,10626,Centre hospitalier de Morestel,,,,,,,,,,,45.679378299999996,5.4616414
627,10627,Centre hospitalier de Mâcon,,,,,,+33 3 85 20 30 40,,,yes,,46.3178643,4.813681099999999
628,10628,Centre hospitalier de Nemours,,,,,,+33 1 64 45 19 00,,,yes,,48.2613753,2.7025589
629,10629,Centre hospitalier de Niort - Site de Goise,,,,,,,,,,,46.312836600000004,-0.4570832
630,10630,Centre hospitalier de Nogent-le-Rotrou,,,,,,+33 2 37 53 75 75,,,yes,,48.3167531,0.8372316999999999
631,10631,Centre hospitalier de Parthenay,,,,,,+33 5 49 68 49 68,,,limited,,46.6537521,-0.22202249999999998
632,10632,Centre hospitalier de Pau,,,,,,+33 5 59 92 48 48,,,yes,,43.3286417,-0.3513231
633,10633,Centre hospitalier de Perpignan,,,,,,+33 4 68 61 66 33,,,yes,,42.722500200000006,2.8866527000000004
634,10634,Centre hospitalier de Pertuis,,,,,,+33 4 42 33 50 00,,,yes,,43.694960200000004,5.4985367
635,10635,Centre hospitalier de Pithiviers,,,,,,+33 2 38 32 31 31,,,yes,,48.1701477,2.2505397
636,10636,Centre hospitalier de Plaisir-Site Mansart,,,,,,+33 1 30 79 57 57,,,,,48.82601470000001,1.9440442999999998
637,10637,Centre hospitalier de Plaisir-Site Marc Laurent,,,,,,,,,,,48.8254778,1.9451604
638,10638,Centre hospitalier de Pont-à-Mousson,,,,,,+33 3 83 80 20 00,,,yes,,48.906003000000005,6.0511471
639,10639,Centre hospitalier de Pontarlier,,,,,,+33 3 81 38 54 54,,,yes,,46.900205299999996,6.3609191
640,10640,Centre hospitalier de Provins,,,,,,+33 1 64 60 40 00,,,yes,,48.5463066,3.3016196000000004
641,10641,Centre hospitalier de Périgueux,,,,,,+33 5 53 45 25 25,,,yes,,45.1945529,0.7313351
642,10642,Centre hospitalier de Pézenas,,,,,,,,,,,43.4600235,3.4179494
643,10643,Centre hospitalier de Quimperlé,,,,,,+33 2 98 96 60 00,,,yes,,47.8689242,-3.5576552
644,10644,Centre hospitalier de Rochefort,,,,,,+33 5 46 88 50 50,,,yes,,45.9683527,-0.966709
645,10645,Centre hospitalier de Rodez,,,,,,+33 5 65 55 12 12,,,yes,,44.3619279,2.5493632
646,10646,Centre hospitalier de Romorantin-Lanthenay,Rue des Capucins,,,,,+33 2 54 88 33 00,,,yes,,47.3560874,1.7340662
647,10647,Centre hospitalier de Roubaix,,,,,,+33 3 20 99 31 31,,,yes,,50.67791210000001,3.1745262999999997
648,10648,Centre hospitalier de Royan,,,,,,+33 5 46 39 52 52,,,yes,,45.633994,-1.0616358
649,10649,Centre hospitalier de Saint-Affrique,,,,,,+33 5 65 49 70 22,,,yes,,43.9593114,2.8745982000000003
650,10650,Centre hospitalier de Saint-Amand-Montrond,Avenue Jean Jaurès,,,,,+33 2 48 63 25 25,,,yes,,46.7256937,2.4943766
651,10651,Centre hospitalier de Saint-Calais,,,,,,+33 2 43 63 64 65,,,yes,,47.91807070000001,0.743417
652,10652,Centre hospitalier de Saint-Céré,,,,,,+33 5 65 10 40 00,,,yes,,44.8624221,1.8866083999999999
653,10653,Centre hospitalier de Saint-Jean-d'Angely,,,,,,+33 5 46 59 50 50,,,yes,,45.9460458,-0.5307636
654,10654,Centre hospitalier de Saint-Jean-de-Maurienne,,,,,,+33 4 79 20 60 20,,,yes,,45.277043799999994,6.3422884
655,10655,Centre hospitalier de Saint-Junien,,,,,,+33 5 55 43 50 00,,,yes,,45.888154,0.897854
656,10656,Centre hospitalier de Saint-Malo,Rue de la Marne,,,,,+33 2 99 21 21 21,,,yes,,48.6399287,-2.0072370999999998
657,10657,Centre hospitalier de Saint-Méen le Grand,,,,,,+33 2 99 09 88 88,,,,,48.186078,-2.2023200000000003
658,10658,Centre hospitalier de Saint-Palais,,,,,,+33 5 59 65 45 35,,,yes,,43.3263326,-1.0266191999999998
659,10659,Centre hospitalier de Saint-Quentin,,,,,,+33 3 23 06 71 71,,,yes,,49.861823799999996,3.270086
660,10660,Centre hospitalier de Sainte-Foy-la-Grande,,,,,,+33 5 57 41 96 96,,,yes,,44.842513399999994,0.2214481
661,10661,Centre hospitalier de Saintonge,,,,,,+33 5 46 95 15 15,,,yes,,45.7456996,-0.6572275
662,10662,Centre hospitalier de Salon-de-Provence,,,,,,+33 4 90 44 91 44,,,yes,,43.640802799999996,5.1030138
663,10663,Centre hospitalier de Sarlat,,,,,,+33 5 53 31 75 75,,,yes,,44.900423499999995,1.2217288
664,10664,Centre hospitalier de Sault,,,,,,+33 4 90 64 19 00,,,no,,44.0937586,5.4162705
665,10665,Centre hospitalier de Sedan,,,,,,+33 3 24 22 80 00,,,yes,,49.705814000000004,4.939293
666,10666,Centre hospitalier de Senlis,,,,,,+33 3 44 21 70 00,,,yes,,49.197882,2.5744427000000005
667,10667,Centre hospitalier de Sens,,,,,,+33 3 86 86 15 15,,,yes,,48.1921619,3.2964747
668,10668,Centre hospitalier de Sierentz,,,,,,+33 3 89 26 60 00,,,no,,47.6511838,7.4603767
669,10669,Centre hospitalier de Thouars,,,,,,+33 5 49 66 50 42,,,limited,,46.971999600000004,-0.184819
670,10670,Centre hospitalier de Tournus - Romenay,,,,,,+33 3 85 27 47 67,,,no,,46.5665862,4.8921225999999995
671,10671,Centre hospitalier de Troyes,,,,,,+33 3 25 49 49 49,,,yes,,48.2799096,4.0684557
672,10672,Centre hospitalier de Tulle,Place Docteur Maschat,,,,,+33 5 55 29 79 00,,,yes,,45.2725395,1.771253
673,10673,Centre hospitalier de Vaison-la-Romaine,,,,,,+33 4 90 36 04 58,,,yes,,44.2399022,5.0750226
674,10674,Centre hospitalier de Valréas,,,,,,+33 4 90 28 51 51,,,yes,,44.382773900000004,4.9908099
675,10675,Centre hospitalier de Vendôme-Montoire,,,,,,+33 2 54 23 33 33,,,,,47.794023200000005,1.0646844
676,10676,Centre hospitalier de Versailles,,,,,,+33 1 39 63 91 33,,,yes,,48.829946299999996,2.122778
677,10677,Centre hospitalier de Vesoul,,,,,,+33 3 84 96 60 60,,,yes,,47.6351127,6.1371884
678,10678,Centre hospitalier de Vierzon,,,,,,+33 2 48 52 33 33,,,yes,,47.2283008,2.0514432
679,10679,Centre hospitalier de Ville-Évrard,,,,,,,,,,,48.9374016,2.3738784
680,10680,Centre hospitalier de Villefranche de Rouergue - Site de Saint-Alain,,,,,,,,,no,,44.3546653,2.0360567
681,10681,Centre hospitalier de Villefranche-de-Rouergue - Site de Ruhle,,,,,,,,,,,44.384068799999994,2.0303058999999997
682,10682,Centre hospitalier de Villefranche-de-Rouergue - Site de la Chartreuse,,,,,,+33 5 65 65 30 00,,,yes,,44.3437638,2.0317108
683,10683,Centre hospitalier de Vire,,,,,,+33 2 31 67 47 47,,,yes,,48.8372723,-0.8857156999999999
684,10684,Centre hospitalier de Voiron,,,,,,+33 4 76 67 14 91,,,yes,,45.3681573,5.5955191
685,10685,Centre hospitalier de l'Estran,,,,,,,,,,,48.5516626,-1.5207857
686,10686,Centre hospitalier de l'Ouest Guyanais,,,,,,+594 594 34 88 88,,,yes,,5.4873487,-54.021936399999994
687,10687,Centre hospitalier de l'agglomération montargoise,,,,,,+33 2 38 95 91 11,,,yes,,47.9945485,2.7749607000000003
688,10688,Centre hospitalier de la Ciotat,,,,,,+33 4 42 08 76 00,,,yes,,43.1791292,5.6086769
689,10689,Centre hospitalier de la Côte Basque - Site de Saint-Leon,Avenue Interne Jacques Loëb,,,,,+33 5 59 44 35 35,,,yes,,43.4824909,-1.4786213
690,10690,Centre hospitalier de la Dracénie,Route de Montferrat,,,,,+33 4 94 60 50 00,,,yes,,43.5483285,6.4457772
691,10691,Centre hospitalier de la Haute Côte-d'Or,,,,,,+33 3 80 33 91 91,,,,,47.3972536,4.5399327000000005
692,10692,Centre hospitalier de la Risle,Route de Lisieux,,,,,+33 2 32 41 64 64,,,yes,,49.3478111,0.5130262
693,10693,Centre hospitalier de la Région de Saint-Omer,,,,,,+33 3 21 88 70 00,,,yes,,50.7025571,2.2479367999999997
694,10694,Centre hospitalier de l’Austreberthe,Rue Pierre et Marie Curie,,,,,+33 2 35 92 82 82,,,no,,49.541599,0.9533363000000001
695,10695,Centre hospitalier de l’Estran,,,,,,+33 2 33 60 72 00,,,,,48.6854704,-1.3529877000000001
696,10696,Centre hospitalier de l’Ouest Vosgien - Site de Neufchâteau,,,,,,+33 3 29 94 80 00,,,yes,,48.3676161,5.7089794000000005
697,10697,Centre hospitalier des Charmes,,,,,,+33 3 85 81 80 00,,,yes,,46.465678600000004,4.1069354
698,10698,Centre hospitalier des Escartons,,,,,,+33 4 92 25 25 25,,,yes,,44.9065737,6.631947099999999
699,10699,Centre hospitalier des Mureaux,,,,,,+33 1 30 91 85 00,,,,,48.9873854,1.9331116000000002
700,10700,Centre hospitalier des Pays de Morlaix,,,,,,+33 2 98 62 61 60,,,yes,,48.5742219,-3.8290998
701,10701,Centre hospitalier des Quinze-Vingts,,,,,,+33 1 40 02 15 20,,,yes,,48.8514645,2.3714152000000004
702,10702,Centre hospitalier des Trois-Îlets,,,,,,+596 5 96 66 30 00,,,,,14.538419000000001,-61.0348225
703,10703,Centre hospitalier des vallées de l’Ariège - Site de Foix,,,,,,+33 5 61 03 30 30,,,yes,,43.0272398,1.619345
704,10704,Centre hospitalier du Bassin de Thau,,,,,,+33 4 67 46 57 57,,,yes,,43.4064895,3.6670303
705,10705,Centre hospitalier du Belvédère,Rue Louis Pasteur,,,,,,,,,,49.4577607,1.0824288999999998
706,10706,Centre hospitalier du Blanc,,,,,,+33 2 54 28 28 28,,,yes,,46.633678,1.0591899999999999
707,10707,Centre hospitalier du Bois-Petit,,,,,,,,,,,49.4135524,1.0845718999999998
708,10708,Centre hospitalier du Centre Bretagne - Centre de rééducation fonctionnelle,,,,,,,,,,,48.1712175,-2.5993855
709,10709,Centre hospitalier du Centre-Bretagne,,,,,,+33 2 97 79 00 00,,,yes,,48.0862938,-2.9157514
710,10710,Centre hospitalier du Chinonais,,,,,,+33 2 47 93 75 15,,,yes,,47.188917700000005,0.29142199999999996
711,10711,Centre hospitalier du Forez,,,,,,+33 4 77 27 54 54,,,yes,,45.7469109,4.220521499999999
712,10712,Centre hospitalier du François,,,,,,+596 596 30 10 99,,,,,14.6255095,-60.9043751
713,10713,Centre hospitalier du Grand Large,,,,,,,,,,,49.867500299999996,0.7080434
714,10714,Centre hospitalier du Pays d'Aix,Avenue des Tamarys,,,,,+33 4 42 33 50 00,,,yes,,43.5349583,5.4417897
715,10715,Centre hospitalier du Pays d'Apt,,,,,,+33 4 90 04 33 00,,,yes,,43.875440999999995,5.3840108
716,10716,Centre hospitalier du Rouvray,Rue Paul Eluard,,,,,+33 2 32 95 12 34,,,,,49.4002661,1.0995618999999999
717,10717,Centre hospitalier du Sud-Charente,,,,,,+33 5 45 78 78 00,,,yes,,45.4742261,-0.1408333
718,10718,Centre hospitalier du Tonnerrois,,,,,,+33 3 86 54 33 00,,,yes,,47.8575734,3.9782187999999996
719,10719,Centre hospitalier d’Auxerre,,,,,,+33 3 86 48 48 48,,,yes,,47.806389700000004,3.5572565000000003
720,10720,Centre hospitalier en Pays d'Olmes,,,,,,+33 5 61 65 78 78,,,yes,,42.9282234,1.8602077000000001
721,10721,Centre hospitalier intercommunal André Grégoire,,,,,,+33 1 49 20 30 40,,,yes,,48.8784526,2.4517257000000003
722,10722,Centre hospitalier intercommunal Caux-Vallée de Seine,,,,,,+33 2 35 39 36 36,,,yes,,49.5190136,0.5418606
723,10723,Centre hospitalier intercommunal Fréjus Saint-Raphaël,,,,,,+33 4 94 40 21 21,,,yes,,43.4379084,6.7548481
724,10724,Centre hospitalier intercommunal Lys Hyrôme,,,,,,+33 2 41 75 80 36,,,,,47.145328899999996,-0.5405469
725,10725,Centre hospitalier intercommunal Redon-Carentoir,Avenue Étienne Gascon,,,,,+33 2 99 71 71 71,,,yes,,47.6530269,-2.0807345
726,10726,Centre hospitalier intercommunal Robert Ballanger,,,,,,+33 1 49 36 71 23,,,yes,,48.9557125,2.518623
727,10727,Centre hospitalier intercommunal de Cavaillon-Lauris,,,,,,+33 4 90 78 85 00,,,yes,,43.8413849,5.037325900000001
728,10728,Centre hospitalier intercommunal de Créteil,,,,,,+33 1 45 17 50 00,,,yes,,48.796197799999995,2.4637099
729,10729,Centre hospitalier intercommunal de Poissy,,,,,,+33 1 39 27 40 50,,,yes,,48.9205947,2.0213848999999997
730,10730,Centre hospitalier intercommunal de Saint-Germain-en-Laye,Rue Armagis,,,,,+33 1 39 27 40 50,,,yes,,48.8979273,2.0827192
731,10731,Centre hospitalier intercommunal de la Lauter,,,,,,+33 3 88 54 11 11,,,yes,,49.040552000000005,7.9301052
732,10732,Centre hospitalier intercommunal du Pays de Cognac,,,,,,+33 5 45 80 15 15,,,yes,,45.6838914,-0.29910590000000004
733,10733,Centre hospitalier privé du Montgardé,,,,,,+33 1 30 95 52 00,,,yes,,48.956182399999996,1.8464289
734,10734,Centre hospitalier régional universitaire Jean Minjoz,,,,,,+33 3 81 66 81 66,,,yes,,47.2276931,5.9631062
735,10735,Centre hospitalier spécialisé,,,,,,,,,,,43.6432898,0.593787
736,10736,Centre hospitalier spécialisé d'Yzeure,,,,,,+33 4 70 20 33 33,,,no,,46.578404799999994,3.3439656
737,10737,Centre hospitalier spécialisé de Bassens,,,,,,,,,,,45.575720200000006,5.936008599999999
738,10738,Centre hospitalier spécialisé de Fains-Véel,Rue de Bar,,,,,+33 3 29 76 86 86,,,,,48.7898899,5.127036799999999
739,10739,Centre hospitalier spécialisé de Sarreguemines,,,,,,+33 3 87 27 98 00,,,no,,49.0992739,7.082683
740,10740,Centre hospitalier universitaire Amiens Picardie,,,,,,,,,,,49.873647,2.2545669999999998
741,10741,Centre hospitalier universitaire de Limoges,Avenue Martin Luther King,,,,,+33 5 55 05 55 55,,,yes,,45.8142021,1.2323441000000002
742,10742,Centre hospitalier universitaire de Nice,,,,,,+33 4 92 03 77 77,,,yes,,43.7249415,7.2800804
743,10743,Centre hospitalier Émile Durkheim,,,,,,+33 3 29 68 15 15,,,no,,48.195313,6.4326707999999995
744,10744,Centre hostipalier Psychiatrique Sainte-Marie,,,,,,,,,,,45.778892,3.0753145
745,10745,Centre hostpitalier Saint-Egrève,,,,,,,,,,,45.1866419,5.7202194
746,10746,Centre infantile Raymond Lerch,,,,,,,,,,,49.503707,0.1260293
747,10747,Centre local hospitalier Saint-Joseph,Les Rivières,,,,,+33 2 99 73 05 34,,,no,,48.409684999999996,-1.724287
748,10748,Centre medical spectateurs,,,,,,,,,,,47.95413610000001,0.21161329999999998
749,10749,Centre municipal de santé,Rue du Général Leclerc,,,,,+33 1 60 89 74 33,,,,,48.6125945,2.4748593
750,10750,Centre municipal de santé Pierre Rouquès,,,,,,,,,no,,48.793660700000004,2.3926652
751,10751,Centre médical,,,,,,,,,,,47.518165,-2.580971
752,10752,Centre médical Claude Bernard,,,,,,,,,no,,48.763546999999996,1.955771
753,10753,Centre médical de l'Argentière,Route du Pont Grizon,,,,,,,,,,45.6887832,4.4544746
754,10754,Centre médical du Hantz,,,,,,,,,,,48.3986698,7.1267091
755,10755,Centre médical et pédagogique de Rennes Beaulieu,,,,,,+33 2 99 25 19 19,,,,,48.122676899999995,-1.6385265
756,10756,Centre médical pédagogique,,,,,,,,,,,48.67727,2.560025
757,10757,Centre médico psychologique Lucien Clarac,,,,,,,,,,,42.9829527,1.1443955
758,10758,Centre médico-chirurgical Floréal,,,,,,+33 1 48 97 72 00,,,yes,,48.8781898,2.4311202
759,10759,Centre médico-psycho-pédagogique du Glandier,,,,,,,,,no,,45.366045899999996,1.4484048999999999
760,10760,Centre médico-psychologique - Hôpital de jour,Rue du Stade,,,,,+33 2 41 80 76 21,,,,,47.673279,-0.8876440000000001
761,10761,Centre médico-psychologique - Unité pour soins intensifs psychiatriques - Hôpital de jour Maxéville,,,,,,,,,,,48.7129241,6.1611297
762,10762,Centre médico-psychologique La Pommeraie,,,,,,+33 1 30 55 34 59,,,,,48.8249018,1.9490436999999998
763,10763,Centre médico-social,Rue Saint-Claude,,,,,,,,,,48.920731700000005,2.5451753
764,10764,Centre of Radiology Olivier Leguay,,,,,,,,,,,16.251866800000002,-61.5903062
765,10765,Centre post-cure de la Métairie,,,,,,,,,,,48.873596299999996,2.3860482000000003
766,10766,Centre psychothérapique Camille Claudel,,,,,,,,,,,43.344728499999995,3.2404278
767,10767,Centre spécialisé du Haut-Languedoc,,,,,,+33 4 67 97 43 00,,,,,43.487475,2.7657467000000002
768,10768,Centre thérapeutique de jour,,,,,,,,,,,48.0755782,7.329875
769,10769,Château Le Moine,,,,,,,,,,,44.84767,-0.529939
770,10770,Château de la Vernede - Centre de soin de suite et de réadaptation,,,,,,,,,,,43.2644934,2.4048836
771,10771,Clinique,,,,,,,,,,,48.615198,2.303532
772,10772,"Clinique ""Château Caradoc""",,,,,,,,,no,,43.5016554,-1.4602016000000002
773,10773,Clinique Aguiléra,Rue de l'Estagnas,,,,,+33 8 25 13 50 64,,,yes,,43.4850145,-1.5401687
774,10774,Clinique Alleray Labrouste,,,,,,,,,,,48.83255870000001,2.3067349999999998
775,10775,Clinique Ambroise Paré,,,,,,+33 8 26 30 19 19,,,yes,,43.5901482,1.4137634
776,10776,Clinique Ambroise Paré,,,,,,+33 8 26 66 66 56,,,,,48.7019591,6.1405957
777,10777,Clinique Ambroise Paré,,,,,,,,,no,,49.36036420000001,6.1541274
778,10778,Clinique Ambroise Paré,,,,,,+33826204700,,,,,50.6491385,3.0857646
779,10779,Clinique Anne d'Artois,Rue Émile Basly,,,,,+33 826 200 110,,,yes,,50.5400381,2.6316759999999997
780,10780,Clinique Arago,Rue Raymond Losserand,,,,,+33 1 44 08 04 00,,,no,,48.829095200000005,2.3106578
781,10781,Clinique Atlantis,,,,,,,,,,,43.702646200000004,7.252884900000001
782,10782,Clinique Beau Soleil,Avenue de Lodève,,,,,+33 4 67 75 99 99,,,yes,,43.610381200000006,3.8497779999999997
783,10783,Clinique Belharra,,,,,,+33 8 26 96 64 64,,,yes,,43.478152200000004,-1.4528963
784,10784,Clinique Belledonne,,,,,,+33 4 38 38 02 02,,,,,45.1866592,5.7611337
785,10785,Clinique Bethanie,,,,,,+33 5 56 84 81 00,,,,,44.8058405,-0.5985653000000001
786,10786,Clinique Blomet,,,,,,,,,,,48.839487,2.295048
787,10787,Clinique Bon secours,,,,,,,,,,,45.033362,3.8883269
788,10788,Clinique Bonnefon,Avenue Carnot,,,,,+33 8 26 20 73 30,,,yes,,44.121468,4.0879053
789,10789,Clinique Bouchard,Rue du Docteur Escat,,,,,,,,,,43.282431700000004,5.3806445
790,10790,Clinique Bretéché,,,,,,,,,,,47.2257105,-1.5460906
791,10791,Clinique Bénigne Joly,,,,,,,,,,,47.3345624,5.0092809
792,10792,Clinique Capio La Croix du Sud,Chemin de Ribaute,,,,,+33 8 06 23 32 33,,,yes,,43.583639899999994,1.5080489
793,10793,Clinique Cave,Boulevard Montauriol,,,,,,,,,,44.0115924,1.3626683000000002
794,10794,Clinique Champ Fleuri,,,,,,,,,,,45.7698701,4.9580218
795,10795,Clinique Champeau Méditérannée,Avenue Enseigne Albertini,,,,,+33 4 67 09 19 20,,,,,43.346024,3.226909
796,10796,Clinique Chantecler,Avenue des Poilus,,,,,,,,,,43.3177852,5.4598915
797,10797,Clinique Charcot,Rue du Commandant Charcot,,,,,+33472326868,,,,,45.749779,4.796317
798,10798,Clinique Chirurgicale Victor Hugo,,,,,,,,,,,48.8713364,2.2914783
799,10799,Clinique Château d'Aufrery,,,,,,,,,,,43.6115953,1.526016
800,10800,Clinique Claude Bernard,,,,,,+33 5 63 77 77 63,,,yes,,43.9306544,2.1633242999999998
801,10801,Clinique Claude Bernard,Avenue Louis Armand,,,,,+33 1 30 72 34 34,,,yes,,48.980720500000004,2.2630427
802,10802,Clinique Claude Bernard,,,,,,+33 8 26 30 66 66,,,yes,,49.1141956,6.2117602
803,10803,Clinique Clément Drevon,,,,,,,,,,,47.3127364,5.043569799999999
804,10804,Clinique Convert,,,,,,+33 4 74 45 64 45,,,yes,,46.210928,5.2526980000000005
805,10805,Clinique Croix Saint-Michel du docteur Boyé,Avenue Charles De Gaulle,,,,,,,,,,44.0101829,1.3669081
806,10806,Clinique De Saint-Joseph,,,,,,,,,,,-21.3775767,55.6115007
807,10807,Clinique Diététique,,,,,,,,,,,48.721931,2.531646
808,10808,Clinique Edouard Rist,,,,,,,,,,,48.8460148,2.2647937999999996
809,10809,Clinique Esquirol Saint-Hilaire,,,,,,+33 5 53 47 47 47,,,yes,,44.1854228,0.6279259
810,10810,Clinique Eugénie - Ramsay Générale de Santé,,,,,,,,,,,49.3480812,2.9859713
811,10811,Clinique François Chénieux,,,,,,+33 8 25 56 45 00,,,yes,,45.8138888,1.284284
812,10812,Clinique Gallieni,,,,,,,,,,,48.9278856,2.4649831
813,10813,Clinique Gaston Métivet,,,,,,,,,no,,48.8048761,2.4786805
814,10814,Clinique Guillaume de Varye,,,,,,,,,,,47.1079657,2.3549905
815,10815,Clinique Générale,,,,,,+33 8 26 88 88 88,,,yes,,45.8960217,6.1259622
816,10816,Clinique Générale de Marignane,Avenue Général Raoul Salan,,,,,+33 4 42 78 45 00,,,yes,,43.4095262,5.2141965
817,10817,Clinique Jean Causse,,,,,,+33 4 67 35 63 21,,,,,43.3131218,3.1450242000000004
818,10818,Clinique Jean Paoli,Rue Pierre Renaudel,,,,,+33 4 90 99 34 00,,,,,43.6719745,4.635293700000001
819,10819,Clinique Jeanne d'Arc,,,,,,+33 4 90 99 32 32,,,,,43.6770225,4.6401745000000005
820,10820,Clinique Jeanne d'Arc,,,,,,+33 2 47 93 70 00,,,,,47.1887473,0.29176540000000006
821,10821,Clinique Jouvenet,,,,,,,,,,,48.8423264,2.2660875
822,10822,Clinique Juge,,,,,,+33 8 26 20 78 78,,,,,43.273936799999994,5.3871518
823,10823,Clinique Jules Verne,Route de Paris,,,,,,,,,,47.248529,-1.5195003
824,10824,Clinique Kennedy,,,,,,,,,,,43.8317784,4.3468882
825,10825,Clinique Kennedy,,,,,,+33 4 75 00 35 00,,,,,44.5575159,4.7316365
826,10826,Clinique Ker Yonnec,,,,,,,,,,,48.307688899999995,3.123231
827,10827,Clinique Kuindo-Magnin,,,,,,,,,,,-22.268019600000002,166.40912619999997
828,10828,Clinique L'Angélus,,,,,,+33 4 96 11 47 47,,,,,43.2844965,5.3673669
829,10829,Clinique L'Espérance,,,,,,,,,,,16.266827499999998,-61.5101983
830,10830,Clinique La Carmargue,,,,,,,,,,,43.8101105,4.407159099999999
831,10831,Clinique La Ligne Bleue,,,,,,+33 3 29 68 60 60,,,no,,48.1996261,6.4627315
832,10832,Clinique La Majolane,,,,,,,,,no,,45.7699592,4.99972
833,10833,Clinique La Mare,,,,,,,,,,,49.2980489,1.1747068
834,10834,Clinique La Montagne,,,,,,,,,,,48.89610089999999,2.258639
835,10835,Clinique La Parisière,Avenue Antonin Vallon,,,,,+33 4 75 70 30 00,,,,,45.039541899999996,5.0602549
836,10836,Clinique La Provençale,,,,,,,,,,,43.3002124,5.5029193
837,10837,Clinique Lambert,,,,,,,,,,,48.908057799999995,2.2421462000000005
838,10838,Clinique Lautréamont,,,,,,+33826109990,,,no,,50.6183041,3.0233978
839,10839,Clinique Lavalette,,,,,,,,,,,43.638641,3.8703468
840,10840,Clinique Le Castelet,Avenue Georges Clemenceau,,,,,,,,,,43.5791927,3.8263001000000005
841,10841,Clinique Le Marquisat,,,,,,+33 5 61 37 81 81,,,,,43.6528042,1.5122905
842,10842,Clinique Le Sermay,Avenue des Massettes,,,,,+33 4 79 26 91 00,,,,,45.5438954,5.9704943
843,10843,Clinique Les Bruyères,Chemin de la Source,,,,,,,,,,43.628139399999995,6.921124400000001
844,10844,Clinique Les Fontaines,,,,,,+33 1 60 56 40 00,,,yes,,48.5437401,2.651771
845,10845,Clinique Les Jeunes Chênes,,,,,,+33 5 59 02 19 20,,,,,43.3284147,-0.35298140000000006
846,10846,Clinique Les Martinets,,,,,,,,,,,48.8847934,2.1711896
847,10847,Clinique Les Sophoras,Rue des Sophoras,,,,,+33 4 66 62 79 00,,,no,,43.8548232,4.382804599999999
848,10848,Clinique Lyon Champvert,,,,,,,,,,,45.758755,4.8023945999999995
849,10849,Clinique Madeleine Rémuzat,,,,,,,,,,,43.292284,5.419917
850,10850,Clinique Malartic,Chemin de Faveyrolles,,,,,+33 4 94 89 89 89,,,yes,,43.1301902,5.874778900000001
851,10851,Clinique Marcel Sembat,,,,,,+33 1 47 11 99 99,,,,,48.8350527,2.2446235
852,10852,Clinique Mathilde,Boulevard de l'Europe,,,,,+33 2 32 81 10 10,,,no,,49.4284307,1.0948604
853,10853,Clinique Maussins-Nollet,,,,,,+33 1 42 03 47 37,,,,,48.8773381,2.4046789
854,10854,Clinique Mon Repos,,,,,,,,,,,45.7713655,4.783837200000001
855,10855,Clinique Monié,,,,,,,,,,,43.411255600000004,1.7309481
856,10856,Clinique Montevideo,,,,,,+33 1 41 22 98 88,,,,,48.8410484,2.2507302000000005
857,10857,Clinique Monticelli-Vélodrome,,,,,,,,,,,43.2683628,5.3953142
858,10858,Clinique Mutualiste Bonneveine,,,,,,+33 4 96 14 14 14,,,,,43.248978799999996,5.3832557
859,10859,Clinique Mutualiste Catalane,,,,,,,,,,,42.72855560000001,2.8761902000000004
860,10860,Clinique Mutualiste Chirurgicale,,,,,,+33 4 77 12 12 12,,,yes,,45.414508500000004,4.3936153
861,10861,Clinique Mutualiste de la Porte de Lorient,,,,,,,,,,,47.751777000000004,-3.3844953
862,10862,Clinique Mutualiste des Eaux Claires,,,,,,,,,,,45.181610600000006,5.7099687999999995
863,10863,Clinique Médicale Les Jardins de Brunoy,,,,,,,,,no,,48.7023213,2.5109790000000003
864,10864,Clinique Mégival,,,,,,,,,,,49.8953141,1.0779656000000002
865,10865,Clinique Notre-Dame,,,,,,,,,no,,49.3566099,6.1554727
866,10866,Clinique Notre-Dame,,,,,,+33 2 31 66 64 00,,,,,48.841186900000004,-0.8977904000000001
867,10867,Clinique Notre-Dame,,,,,,,,,,,43.53162879999999,6.4529928
868,10868,Clinique Notre-Dame d'Espérance,,,,,,,,,no,,42.68264,2.9100847
869,10869,Clinique Notre-Dame de Bon Voyage,,,,,,,,,,,43.1802477,5.6120822
870,10870,Clinique Océane,,,,,,,,,no,,47.680768,-2.7743134
871,10871,Clinique Ophtalmologique Thiers,Avenue Thiers,,,,,+33 8 26 30 13 30,,,,,44.851119399999995,-0.5425349
872,10872,Clinique Ormeau Pyrénées,,,,,,,,,no,,43.218838399999996,0.0777824
873,10873,Clinique Pasteur,,,,,,,,,,,47.984431799999996,0.22004320000000002
874,10874,Clinique Pasteur,,,,,,,,,,,43.5953487,1.4177508
875,10875,Clinique Pasteur,,,,,,+33 3 83 18 83 83,,,,,48.701586999999996,6.218162
876,10876,Clinique Pasteur,,,,,,+33 2 32 38 95 00,,,yes,,49.027980299999996,1.1605969999999999
877,10877,Clinique Pasteur,Rue Malbec,,,,,,,,,,44.8521781,0.4904871
878,10878,Clinique Pasteur-Lanroze,,,,,,,,,,,48.400108700000004,-4.4898499
879,10879,Clinique Paul Picquet,Rue Pierre Castets,,,,,,,,,,48.20765720000001,3.2944464
880,10880,Clinique Princess,,,,,,+33 5 59 02 55 32,,,,,43.3235196,-0.34927990000000003
881,10881,Clinique Provence Azur,,,,,,+33 4 42 28 28 28,,,,,43.5731255,5.362106
882,10882,Clinique Provence-Bourbonne,,,,,,,,,no,,43.2824269,5.5970352
883,10883,Clinique Psychatrique Sainte-Thérèse,,,,,,,,,,,43.185439,2.996498
884,10884,Clinique Psychiatrique de la Pévèle,,,,,,,,,,,50.549572,3.0155849999999997
885,10885,Clinique Rech,,,,,,,,,,,43.6199576,3.8652078999999997
886,10886,Clinique Richelieu,,,,,,+33 5 46 90 58 00,,,no,,45.7514264,-0.6434541
887,10887,Clinique Rive Gauche,,,,,,+33 8 26 30 30 31,,,,,43.596983200000004,1.4312063999999998
888,10888,Clinique Ronsard,,,,,,+33 2 47 26 30 33,,,,,47.3326851,0.6895986
889,10889,Clinique Rémusat,,,,,,,,,,,48.8478924,2.2711192000000002
890,10890,Clinique Rémy de Gourmont,,,,,,,,,,,48.8776703,2.3764909
891,10891,Clinique SSR Supervaltech,,,,,,,,,,,42.72692979999999,2.8463947999999997
892,10892,Clinique Saint Luc,Avenue de Herringen,,,,,,,,,,48.358439700000005,5.6926172
893,10893,Clinique Saint-Amé,,,,,,+33 3 74 82 17 17,,,yes,,50.357501299999996,3.0575077
894,10894,Clinique Saint-André,,,,,,,,,,,48.660892,6.159924
895,10895,Clinique Saint-Antoine,,,,,,,,,,,49.458196,1.1067851999999998
896,10896,Clinique Saint-Antoine,,,,,,,,,,,43.702135999999996,7.262422999999999
897,10897,Clinique Saint-Charles,,,,,,,,,no,,45.770126399999995,4.8265996
898,10898,Clinique Saint-Charles,,,,,,,,,,,46.563421000000005,0.368458
899,10899,Clinique Saint-Christophe,,,,,,+33 8 26 39 03 26,,,,,43.463637,5.3974437
900,10900,Clinique Saint-Clément,Avenue de Saint-Sauveur,,,,,,,,,,43.7081756,3.8319862999999996
901,10901,Clinique Saint-Exupéry,,,,,,,,,,,43.57672410000001,1.4844968
902,10902,Clinique Saint-François,,,,,,,,,,,46.815244,1.6979389999999999
903,10903,Clinique Saint-Germain,Rue de la Baronne Gérard,,,,,,,,,,48.897524100000005,2.0837106
904,10904,Clinique Saint-Germain,,,,,,,,,,,45.1681269,1.5384294
905,10905,Clinique Saint-Jean,,,,,,,,,,,49.1154253,-1.0693093999999999
906,10906,Clinique Saint-Jean,,,,,,,,,,,45.7377636,4.8699667
907,10907,Clinique Saint-Jean,,,,,,+33 4 92 13 53 13,,,yes,,43.6609816,7.1358562
908,10908,Clinique Saint-Jean de Dieu,,,,,,,,,,,48.8487275,2.3175725
909,10909,Clinique Saint-Jean l'Ermitage,,,,,,+33 826 30 77 77,,,,,48.558336100000005,2.6410049
910,10910,Clinique Saint-Joseph,,,,,,,,,no,,48.42875,0.0768697
911,10911,Clinique Saint-Joseph,,,,,,+33 5 45 38 67 00,,,no,,45.6491127,0.1468162
912,10912,Clinique Saint-Louis,,,,,,,,,,,48.9307973,2.0370923999999997
913,10913,Clinique Saint-Louis,,,,,,+33 4 67 81 68 00,,,yes,,43.9328248,3.701803
914,10914,Clinique Saint-Luc,,,,,,+33 3 88 47 41 41,,,limited,,48.4820381,7.2235955
915,10915,Clinique Saint-Luc,,,,,,,,,,,43.723258799999996,7.280297
916,10916,Clinique Saint-Martin,,,,,,+33540130267,,,,,44.789953499999996,-0.630965
917,10917,Clinique Saint-Martin,,,,,,+33 4 98 00 31 00,,,,,43.136013399999996,5.877049700000001
918,10918,Clinique Saint-Martin,,,,,,,,,,,47.6343235,6.139574099999999
919,10919,Clinique Saint-Michel,,,,,,+33 8 26 30 03 16,,,yes,,42.617115000000005,2.417528
920,10920,Clinique Saint-Michel et Sainte-Anne,Rue de Kerjestin,,,,,+33298539853,,,,,47.9817672,-4.1288001
921,10921,Clinique Saint-Orens,,,,,,+33 8 26 39 33 33,,,,,43.543100200000005,1.5401790000000002
922,10922,Clinique Saint-Pierre,,,,,,+33 8 26 30 26 26,,,yes,,42.695153399999995,2.865243
923,10923,Clinique Saint-Privat,,,,,,+33 4 67 35 46 00,,,yes,,43.366516499999996,3.2562979
924,10924,Clinique Saint-Roch,,,,,,,,,,,50.188071,3.2443032000000005
925,10925,Clinique Saint-Roch Mont Fleuri,,,,,,,,,,,43.3000461,5.503711099999999
926,10926,Clinique Saint-Salvadou,,,,,,,,,,,43.911944399999996,2.1684091
927,10927,Clinique Saint-Vincent,,,,,,,,,,,47.242675899999995,5.9793155
928,10928,Clinique Saint-Yves,,,,,,,,,no,,48.101054299999994,-1.6619591
929,10929,Clinique Sainte-Anne,,,,,,+33 5 57 98 05 10,,,,,44.5499217,-0.23851689999999998
930,10930,Clinique Sainte-Anne,,,,,,+33 3 88 45 81 81,,,,,48.61561210000001,7.7868735000000004
931,10931,Clinique Sainte-Barbe,,,,,,,,,,,44.0535232,2.1579938999999997
932,10932,Clinique Sainte-Isabelle,,,,,,,,,,,48.8903229,2.2699526000000003
933,10933,Clinique Sainte-Marguerite,,,,,,,,,,,43.114927,6.1232379
934,10934,Clinique Sainte-Marie,,,,,,,,,,,14.617875699999999,-61.0847495
935,10935,Clinique Sainte-Marie,,,,,,+33 3 27 73 57 35,,,,,50.167551,3.2388619
936,10936,Clinique Sainte-Marie,,,,,,+33 8 26 30 95 95,,,yes,,49.074047799999995,2.0746822
937,10937,Clinique Sainte-Odile,,,,,,,,,,,48.8183157,7.7929924
938,10938,Clinique Santa-Maria,,,,,,,,,,,43.689403999999996,7.241314999999999
939,10939,Clinique Solisana,Chemin du Liebenberg,,,,,,,,,,47.916296200000005,7.1945559999999995
940,10940,Clinique St Nabor,Rue des Généraux Altmayer,,,,,+33 3 87 29 41 49,,,,,49.1220886,6.7226395000000005
941,10941,Clinique St Roch,,,,,,,,,no,,50.733059999999995,3.11504
942,10942,Clinique Stella,Place du Château,,,,,+33 4 99 63 63 63,,,,,43.7172175,4.1031602
943,10943,Clinique Tessier,,,,,,,,,,,50.360071999999995,3.499023
944,10944,Clinique Tivoli,,,,,,+33 5 56 11 60 00,,,,,44.857141,-0.587029
945,10945,Clinique Toulouse Lautrec,Rue Jacques Monod,,,,,+33 8 26 39 99 41,,,,,43.928303,2.1809047
946,10946,Clinique Toutes Aures,Avenue des Savels,,,,,,,,,,43.824205299999996,5.7813676
947,10947,Clinique Valfleur,Route d'Enco de Botte,,,,,+33 4 91 93 91 95,,,,,43.3156196,5.4762047
948,10948,Clinique Verdeau-Pailles,,,,,,+33 4 68 10 87 55,,,,,43.218576,2.399145
949,10949,Clinique Vert-côteau,Avenue des Caillols,,,,,,,,,,43.3034631,5.4312768
950,10950,Clinique Villa Magali,,,,,,,,,,,43.1207061,6.122659099999999
951,10951,Clinique Villa Marie-Louise,,,,,,,,,,,48.9072593,2.2530762
952,10952,Clinique Villa des Roses,,,,,,,,,,,45.752074,4.802158
953,10953,Clinique Villette,,,,,,,,,no,,51.03266,2.3951515
954,10954,Clinique d'Addictologie,,,,,,,,,,,48.6291388,-3.2990884
955,10955,Clinique d'Alembert,Rue d'Alembert,,,,,,,,,,45.181779,5.7099707
956,10956,Clinique d'Argonay,,,,,,,,,,,45.9492746,6.1504607
957,10957,Clinique d'Occitanie,Avenue Bernard IV,,,,,+33 8 26 30 88 88,,,yes,,43.4650052,1.3368924999999998
958,10958,Clinique d'Yveline,,,,,,,,,,,48.6627711,1.8668421000000002
959,10959,Clinique de Bercy,Quai de Bercy,,,,,,,,,,48.822884,2.397936
960,10960,Clinique de Bruay-la-Buissière,,,,,,,,,yes,,50.4785021,2.5507197999999995
961,10961,Clinique de Castelviel,,,,,,+33 5 62 22 90 00,,,,,43.6772536,1.5142652
962,10962,Clinique de Champagne,,,,,,,,,,,48.306723299999994,4.0524814
963,10963,Clinique de Chaumont,,,,,,+33 8 25 16 34 34,,,,,48.1192791,5.1419127
964,10964,Clinique de Clémentville,,,,,,,,,,,43.612592299999996,3.8514487
965,10965,Clinique de Cognac,,,,,,,,,no,,45.683983399999995,-0.2974184
966,10966,Clinique de Convalescence Centre Vendée,Rue de la Grotte,,,,,,,,,,46.7705026,-1.2327924
967,10967,Clinique de Domont,Route de Domont,,,,,,,,,,49.0339843,2.3432103
968,10968,Clinique de Fontaine,,,,,,,,,,,47.343832,5.016788
969,10969,Clinique de Gascogne,,,,,,+33 8 26 39 99 04,,,,,43.6452265,0.5983724
970,10970,Clinique de Girardin,,,,,,,,,,,48.965970500000005,2.3032912
971,10971,Clinique de Miremont,,,,,,,,,,,43.2161624,2.513541
972,10972,Clinique de Montargis,,,,,,,,,,,48.004445000000004,2.732894
973,10973,Clinique de Montévrain,Route de Provins,,,,,,,,,,48.854457200000006,2.7605444
974,10974,Clinique de Rééducation et de Réadaptation Fonctionnelle du Docteur Ster,Avenue de Saint-Sauveur,,,,,,,,,,43.7094138,3.8330427000000005
975,10975,Clinique de Saclas,,,,,,,,,,,48.356473799999996,2.1278799999999998
976,10976,Clinique de Saint-Omer,,,,,,,,,no,,50.7301911,2.2668852999999998
977,10977,Clinique de Tournan,,,,,,+33 8 25 16 42 42,,,yes,,48.742273,2.758603
978,10978,Clinique de l'Anjou,Rue de l'Hirondelle,,,,,+33 2 41 44 71 71,,,yes,,47.4440883,-0.5400762
979,10979,Clinique de l'Archette,,,,,,,,,,,47.8584391,1.9071639
980,10980,Clinique de l'Escrebieux,,,,,,,,,,,50.3752084,2.9999075
981,10981,Clinique de l'Espérance,Rue de la Borderie,,,,,,,,,,48.1159216,-1.6756148000000002
982,10982,Clinique de l'Essonne,Boulevard des Champs-Élysées,,,,,+33 1 60 87 87 10,,,,,48.638166600000005,2.4254972
983,10983,Clinique de l'Estrée,,,,,,+33 1 49 71 71 71,,,yes,,48.955338,2.3678719
984,10984,Clinique de l'Europe,Boulevard de l'Europe,,,,,+33 2 32 18 10 00,,,yes,,49.4251636,1.0845292
985,10985,Clinique de l'Iroise,,,,,,,,,,,48.4365652,-4.5028251
986,10986,Clinique de l'Oseraie,,,,,,+33 1 34 20 65 90,,,,,49.075781,2.0743364
987,10987,Clinique de l'Union,,,,,,+33 5 61 37 81 81,,,yes,,43.6505316,1.5127256000000002
988,10988,Clinique de l'Yvette,,,,,,,,,,,48.6889348,2.3022097
989,10989,Clinique de l'Étang de l'Olivier,Rue Roger Carpentier,,,,,+33 4 42 47 60 00,,,yes,,43.5087833,4.9914354
990,10990,Clinique de la Brière,Route de Mesquer,,,,,,,,,,47.3340105,-2.4328220000000003
991,10991,Clinique de la Cerisaie,Rue de l'Atlantique,,,,,+33 2 96 71 31 00,,,,,48.4764296,-2.7333051
992,10992,Clinique de la Châtaigneraie,,,,,,,,,,,45.7512977,3.0750002999999997
993,10993,Clinique de la Compassion,,,,,,+33 3 25 87 59 52,,,,,47.866054,5.3366377
994,10994,Clinique de la Croix Blanche,,,,,,,,,,,45.9401239,2.1717644
995,10995,Clinique de la Côte d'Opale,,,,,,,,,,,50.723029100000005,1.6422898000000001
996,10996,Clinique de la Côte d’Émeraude,,,,,,+33 2 23 52 20 20,,,,,48.625786,-1.9841220000000002
997,10997,Clinique de la Jonquière,,,,,,,,,,,48.8933637,2.3245692000000004
998,10998,Clinique de la Maye,,,,,,+33 1 39 23 33 33,,,,,48.8165033,2.1413027000000002
999,10999,Clinique de la Miotte,Avenue de la Miotte,,,,,,,,no,,47.64309229999999,6.863238099999999
1000,11000,Clinique de la Miséricorde,,,,,,+33 2 31 38 50 50,,,limited,,49.184658899999995,-0.3672709
1001,11001,Clinique de la Pinède,,,,,,,,,,,42.723093299999995,2.8474265
1002,11002,Clinique de la Plaine,Boulevard Étienne Clémentel,,,,,,,,,,45.8024732,3.1088346000000002
1003,11003,Clinique de la Porte Verte,,,,,,,,,,,48.817988299999996,2.1414646
1004,11004,Clinique de la Sauvegarde,Avenue David Ben Gourion,,,,,+33 4 72 17 26 26,,,yes,,45.7886253,4.7882807000000005
1005,11005,Clinique de la Toussaint,,,,,,,,,,,48.5868599,7.7445113
1006,11006,Clinique de la Victoire,,,,,,,,,,,50.716880200000006,3.1565352000000004
1007,11007,Clinique de rééducation fonctionnelle Fontfroide,,,,,,,,,,,43.639496799999996,3.8302221
1008,11008,Clinique dentaire de la Caisse Primaire d'Assurance Maladie de Meurthe-et-Moselle,,,,,,+33 3 83854978,,,,,48.688394,6.178121599999999
1009,11009,Clinique des 6 Lacs,,,,,,,,,,,45.7744789,3.0606769
1010,11010,Clinique des Augustines,,,,,,,,,,,47.811152,-2.383901
1011,11011,Clinique des Buttes-Chaumont,,,,,,,,,,,48.8767015,2.3849418
1012,11012,Clinique des Charmilles,,,,,,,,,,,48.592960999999995,2.2486759999999997
1013,11013,Clinique des Cèdres,,,,,,,,,,,45.1620068,1.5005194
1014,11014,Clinique des Cèdres,,,,,,+33 8 25 56 56 38,,,yes,,45.148252,5.722977200000001
1015,11015,Clinique des Cèdres,,,,,,+33 8 26 96 31 31,,,yes,,43.6605064,1.3087452
1016,11016,Clinique des Cévennes,Avenue Ferdinand Janvier,,,,,+33 4 75 69 21 00,,,,,45.2611374,4.6680410000000006
1017,11017,Clinique des Côtes du Rhône,Rue Fernand Léger,,,,,+33 4 74 29 28 28,,,yes,,45.3712944,4.812444599999999
1018,11018,Clinique des Franciscaines,,,,,,+33 1 30 97 33 33,,,yes,,48.794019,2.1407267000000005
1019,11019,Clinique des Landes,Rue Frédéric Joliot-Curie,,,,,,,,,,43.871193,-0.485518
1020,11020,Clinique des Ormeaux,,,,,,+33 2 32 74 32 74,,,yes,,49.487249299999995,0.1371272
1021,11021,Clinique des Oyats,,,,,,,,,,,50.941802100000004,1.8949535
1022,11022,Clinique des Quatre Saisons,,,,,,,,,,,43.30107720000001,5.5029729000000005
1023,11023,Clinique des Tournelles,Rue des Tournelles,,,,,,,,,,48.77776,2.336205
1024,11024,Clinique des Émailleurs,Rue Victor Schoelcher,,,,,,,,no,,45.815653000000005,1.2278838
1025,11025,Clinique du Bocage,Rue du Fort,,,,,+33 3 27 62 52 52,,,,,50.2472591,3.9583027000000004
1026,11026,Clinique du Bois d'Amour,,,,,,,,,,,48.9132929,2.4599881000000003
1027,11027,Clinique du Château,,,,,,,,,,,48.8430357,2.1953791000000002
1028,11028,Clinique du Château de Florans,,,,,,+33 4 42 95 75 00,,,no,,43.716986799999994,5.311384599999999
1029,11029,Clinique du Croisé Laroche,Rue de la Rianderie,,,,,,,,,,50.665876000000004,3.1016755000000003
1030,11030,Clinique du Cèdre,Rue de la Haie,,,,,+33 2 35 59 59 59,,,yes,,49.4641566,1.1112002
1031,11031,Clinique du Diaconat,,,,,,,,,,,48.06625220000001,7.345989599999999
1032,11032,Clinique du Diaconat-Fonderie,,,,,,+33 8 25 12 75 75,,,yes,,47.741327399999996,7.3313546
1033,11033,Clinique du Diaconat-Roosevelt,,,,,,+33 3 89 32 55 00,,,yes,,47.7488003,7.330952000000001
1034,11034,Clinique du Docteur Guillard,,,,,,,,,,,49.0463011,-1.4410158000000002
1035,11035,Clinique du Domaine de Vontes,,,,,,,,,,,47.2777935,0.8021488
1036,11036,Clinique du Golfe,,,,,,,,,,,47.6468299,-2.7298984
1037,11037,Clinique du Golfe,,,,,,,,,,,41.9140503,8.728634399999999
1038,11038,Clinique du Golfe Gasso-Saint-Tropez,Rond-Point du Général Diego Brosset,,,,,,,,,,43.249472600000004,6.571280099999999
1039,11039,Clinique du Grand Large,,,,,,+33 4 78 49 05 60,,,yes,,45.771074,4.9706617
1040,11040,Clinique du Grand Large,,,,,,,,,,,48.419931,-4.490986599999999
1041,11041,Clinique du Grand Pré,,,,,,,,,,,45.799617,3.0412627
1042,11042,Clinique du Grand Stade,,,,,,,,,,,48.9261608,2.3663483
1043,11043,Clinique du Grésivaudan,Avenue des Maquis du Grésivaudan,,,,,,,,,,45.2049242,5.7473691
1044,11044,Clinique du Littoral,,,,,,,,,,,50.415433,1.661517
1045,11045,Clinique du Manoir du Berry,,,,,,,,,,,46.4867471,2.004285
1046,11046,Clinique du Mas de Rochet,,,,,,+33 4 67 33 10 33,,,,,43.626544700000004,3.9061366
1047,11047,Clinique du Millénaire,Boulevard Pénélope,,,,,+33 8 26 88 88 83,,,yes,,43.601158899999994,3.913514
1048,11048,Clinique du Mont Ventoux,,,,,,,,,,,44.0505059,5.0365117
1049,11049,Clinique du Mousseau,,,,,,+33 1 60 90 10 10,,,yes,,48.6302598,2.4496662000000002
1050,11050,Clinique du Méridien,,,,,,,,,,,43.550379299999996,6.988270299999999
1051,11051,Clinique du Palais,Avenue Chiris,,,,,+33 8 25 10 10 06,,,,,43.657580200000005,6.929753999999999
1052,11052,Clinique du Parc,,,,,,,,,no,,47.226724299999994,-1.5620537
1053,11053,Clinique du Parc,,,,,,+33 4 77 92 22 22,,,yes,,45.4774615,4.3685640999999995
1054,11054,Clinique du Parc,,,,,,+33 4 67 33 13 31,,,yes,,43.6361613,3.8923602999999996
1055,11055,Clinique du Parc,,,,,,+33 3 85 86 56 56,,,,,46.9516618,4.2937957
1056,11056,Clinique du Parc Impérial,,,,,,+33 4 92 07 75 75,,,yes,,43.703348999999996,7.251581
1057,11057,Clinique du Parc Saint-Lazare,,,,,,,,,,,49.415089,2.0978122000000003
1058,11058,Clinique du Parc de Belleville,,,,,,,,,,,48.8708909,2.3885961
1059,11059,Clinique du Parc de Vanves,Avenue du Général de Gaulle,,,,,+33 1 41 46 75 75,,,,,48.820273,2.279198
1060,11060,Clinique du Parisis,,,,,,,,,no,,48.973609,2.1985259999999998
1061,11061,Clinique du Perreux,,,,,,,,,,,48.8527859,2.5082315
1062,11062,Clinique du Pic Saint-Loup,Avenue de Saint-Sauveur,,,,,,,,,,43.7070597,3.831519
1063,11063,Clinique du Pic Saint-Loup (extension),,,,,,,,,,,43.7072778,3.8319818
1064,11064,Clinique du Pont de Chaume,Avenue Marcel Unal,,,,,+33 5 63 92 82 82,,,yes,,44.0076711,1.3786079
1065,11065,Clinique du Pré,,,,,,,,,,,42.6300185,2.9473543999999996
1066,11066,Clinique du Pré,,,,,,,,,,,48.0185667,0.1622541
1067,11067,Clinique du Pré Saint-Gervais,,,,,,,,,,,48.8851864,2.4011061000000002
1068,11068,Clinique du Relais,,,,,,+33 5 65 30 97 97,,,,,44.4882168,1.3536961
1069,11069,Clinique du Renaison,,,,,,+33 8 26 46 45 00,,,yes,,46.033154700000004,4.0511434
1070,11070,Clinique du Saint-Coeur,,,,,,+33 8 26 39 99 32,,,,,47.7974338,1.0645038
1071,11071,Clinique du Sud,,,,,,+33 8 26 30 04 11,,,,,43.219478499999994,2.3920574
1072,11072,Clinique du Val d'Estreilles,,,,,,,,,,,43.5944813,6.924032
1073,11073,Clinique du Val d'Ouest,,,,,,,,,yes,,45.769318299999995,4.7815874
1074,11074,Clinique du Val-de-Sambre,,,,,,,,,,,50.293364700000005,3.9772784
1075,11075,Clinique du Vallespir,,,,,,+33 4 68 87 12 55,,,yes,,42.4909118,2.7538272999999998
1076,11076,Clinique du Valois,,,,,,+33 3 44 27 35 00,,,,,49.196853000000004,2.571872
1077,11077,Clinique du Virval,,,,,,,,,,,50.942163,1.8960232
1078,11078,Clinique du Vivarais,,,,,,,,,,,44.612258000000004,4.3905623
1079,11079,Clinique gérontologique Les Bateliers,,,,,,,,,,,50.6471016,3.0637319
1080,11080,Clinique l'Émeraude,Traverse de la Seigneurie,,,,,+33 8 26 28 13 13,,,,,43.241820399999995,5.4082402
1081,11081,Clinique les Eaux Claires,,,,,,+33 5 90 97 62 62,,,yes,,16.2414858,-61.5872835
1082,11082,Clinique les Oliviers,,,,,,,,,,,43.728797,4.1718318
1083,11083,Clinique les Sources,,,,,,,,,,,43.7408006,7.2773923
1084,11084,Clinique mutualiste Arnaud Duben,Avenue du Docteur Schweitzer,,,,,+33 5 56 46 56 46,,,yes,,44.806551899999995,-0.612368
1085,11085,Clinique mutualiste La Sagesse,Place Saint-Guénolé,,,,,,,,,,48.1015989,-1.7120914
1086,11086,Clinique mutualiste du Médoc,,,,,,+33 5 56 73 10 00,,,yes,,45.303574100000006,-0.937342
1087,11087,Clinique médicale de Cardio Pneumologie,,,,,,,,,,,45.794774600000004,3.0519695
1088,11088,Clinique médicale et pédagogique Jean Sarrailh,,,,,,,,,,,43.7010067,-0.2660697
1089,11089,Clinique psychiatrique Korian Saint-Maurice,Rue de Limoges,,,,,,,,,,46.000614,1.4700799999999998
1090,11090,Clinique thermale des Nouvellez Eaux Vives,,,,,,,,,,,16.0456854,-61.687479700000004
1091,11091,Clinique Émilie de Vialar,,,,,,,,,,,45.7569395,4.8723498
1092,11092,Cliniques des Aubépines,Rue de la Providence,,,,,+33 2 35 06 92 00,,,no,,49.898950299999996,1.0762047
1093,11093,Colisée Clinique Avicenne,Rue de Schwandorf,,,,,+33 5 57 50 83 00,,,no,,44.9469331,-0.24696079999999998
1094,11094,Complexe Hospitalier Spécialisé de Jury,,,,,,,,,,,49.0778365,6.2668952
1095,11095,Consultation Pathologies Professionnelles,,,,,,,,,no,,50.6126735,3.0374478
1096,11096,Croix-Rouge Française,,,,,,,,,,,48.8347987,2.2408928
1097,11097,Croix-Rouge Française - Ambulances,,,,,,,,,,,47.212423799999996,-1.5724097
1098,11098,Croix-Rouge française,,,,,,,,,no,,45.736333,4.8710304
1099,11099,Croix-Rouge française FAM Professeur Marc Gentilini,Rue des Renvers,,,,,,,,,,48.08397,3.280457
1100,11100,Dentiste,,,,,,,,,no,,47.2676126,0.8364604999999999
1101,11101,Dentistes,,,,,,,,,,,47.2431103,0.695714
1102,11102,Dispensaire,,,,,,,,,,,14.469004,-60.922638
1103,11103,Dispensaire,,,,,,,,,,,15.864397899999998,-61.584080500000006
1104,11104,Dispensaire,Rue Collignon,,,,,,,,,,14.544986999999999,-60.83982220000001
1105,11105,Dispensaire,,,,,,,,,,,14.680575,-60.941798999999996
1106,11106,Dispensaire,,,,,,,,,,,16.2343661,-61.7901557
1107,11107,Dispensaire,,,,,,,,,,,16.3039317,-61.074108200000005
1108,11108,Dispensaire,,,,,,,,,,,16.3316706,-61.3506267
1109,11109,Dispensaire,,,,,,,,,,,14.876326999999998,-61.1448
1110,11110,Dispensaire,,,,,,,,,,,16.379225199999997,-61.488027100000004
1111,11111,Dispensaire de Bourail,,,,,,,,,,,-21.5705662,165.4979853
1112,11112,Dispensaire de Canala,,,,,,,,,,,-21.5208408,165.9627609
1113,11113,Dispensaire de Népoui,,,,,,,,,,,-21.329722399999998,164.9965771
1114,11114,Dispensaire de Poindimié,,,,,,,,,,,-20.936806100000002,165.33865749999998
1115,11115,Dispensaire de Ponérihouen,,,,,,,,,,,-21.071476,165.4008922
1116,11116,Dispensaire de Pouébo,,,,,,,,,,,-20.392083300000003,164.5810332
1117,11117,Dispensaire de Touho,,,,,,,,,,,-20.780676500000002,165.226673
1118,11118,Domaine de Hauterive,Rue Dumune,,,,,+33 5 57 77 46 33,,,,,44.84781470000001,-0.5269908
1119,11119,Domaine des Fossés,,,,,,+33 5 46 48 75 75,,,,,45.4593987,-0.4347638
1120,11120,Domaine du Grand-Mesnil,,,,,,,,,,,48.6972123,2.1724049
1121,11121,Dracy santé : Centre Orthopédique Médico Chirurgical de Dracy-Le Fort,,,,,,,,,,,46.797194700000006,4.7791449
1122,11122,EHPAD,,,,,,,,,,,47.172484600000004,0.2310038
1123,11123,EHPAD,,,,,,,,,no,,45.208436999999996,1.6895818999999999
1124,11124,EHPAD Hospitalor,,,,,,,,,no,,48.825459,6.5068150000000005
1125,11125,EHPAD La Madeleine,,,,,,,,,,,44.8474219,0.4800439
1126,11126,EHPAD La Roselière,,,,,,,,,no,,50.93717720000001,1.8872664000000001
1127,11127,EHPAD Les Hauts Vents,,,,,,,,,,,48.7398473,-0.5757359999999999
1128,11128,EHPAD du Louhannais,,,,,,,,,no,,46.628603999999996,5.224489
1129,11129,EPS Barthélemy Durand,Avenue du 8 Mai 1945,,,,,,,,,,48.441273200000005,2.1556687
1130,11130,EPS Vallée de la Blanche,Route de St Pons,,,,,+33 4 92 30 94 94,,,,,44.353128399999996,6.3594363
1131,11131,EPSM,,,,,,,,,,,50.76703,2.731553
1132,11132,EPSM de l'Agglomération Lilloise Lommelet,,,,,,,,,no,,50.6718799,3.0498251
1133,11133,EPSMR Hôpital psychiatrique,,,,,,,,,no,,-21.054966699999998,55.708636600000006
1134,11134,EPSN de Fresnes,,,,,,,,,,,48.764665,2.3197912
1135,11135,Espace Perréal,,,,,,+33 4 67 35 76 08,,,,,43.3443946,3.2298944
1136,11136,Etablissement Public de Santé Mentale,,,,,,,,,,,49.1755521,-0.376842
1137,11137,Etablissement Public de Santé Mentale de la Vallée de l'Arve,,,,,,,,,,,46.0625086,6.3231638
1138,11138,Etablissement Public de Santé de Lomagne,,,,,,,,,,,43.8588815,0.6602321
1139,11139,Etablissement de soins de suite Les Broussailles,,,,,,,,,,,49.8245643,0.7048432
1140,11140,Fondation Bon Sauveur,,,,,,,,,,,49.5997575,-1.6048023
1141,11141,Fondation Hospitalière Sainte-Marie,,,,,,,,,,,48.8291346,2.3135304
1142,11142,Fondation Jacqueline Mallet,Route de Gressey,,,,,,,,,,48.8259979,1.6349548
1143,11143,Fondation Lenval - Hôpital pour Enfants,Avenue de la Californie,,,,,+33 4 92 03 03 92,,,yes,,43.689431,7.241303
1144,11144,Fondation Père Favron,,,,,,,,,,,-21.0570261,55.7099922
1145,11145,Fondation Serge Dassault,,,,,,,,,,,48.5534238,2.4158503
1146,11146,Fondation ophtalmologique Adolphe de Rothschild,,,,,,+33 1 48 03 65 65,,,yes,,48.878527000000005,2.3781441
1147,11147,Foyer Bois-des-Saules,,,,,,,,,no,,48.797268599999995,1.9594596000000002
1148,11148,Foyer d'accueil médicalisé - Les Hauts de Laurède,,,,,,,,,,,43.315132,1.526805
1149,11149,Foyer de Vie,,,,,,,,,,,42.979828000000005,-0.607586
1150,11150,Foyer du Comtal,,,,,,,,,,,43.226061200000004,0.8630667999999999
1151,11151,Foyer d’Accueil Médicalisé Les Cèdres,,,,,,,,,,,47.971570899999996,0.0955806
1152,11152,Grand Hôpital de l'Est Francilien - Site de Marne-la-Vallée,,,,,,+33 1 64 77 64 77,,,yes,,48.8514727,2.7708885
1153,11153,Groupe Hospitalier Les cheminots,,,,,,,,,no,,48.6547644,2.4078747000000003
1154,11154,Groupe Hospitalier Mutualiste de Grenoble,,,,,,+33 4 76 70 70 00,,,yes,,45.182613,5.7098282
1155,11155,Groupe Hospitalier Paul Guiraud,,,,,,,,,no,,48.7865659,2.2520041
1156,11156,Groupe Hospitalier Sud Ardennes,,,,,,+33 3 24 38 66 66,,,yes,,49.5117786,4.3608400000000005
1157,11157,Groupe de radiothérapie et d'oncologie des Pyrénées,,,,,,+33 5 59 92 72 75,,,,,43.303957700000005,-0.3637498
1158,11158,Groupe hospitalier Carnelle Porte de l'Oise - Site Les Oliviers,,,,,,,,,,,49.145808200000005,2.3079228
1159,11159,Groupe hospitalier Carnelle Porte de l'Oise - Site de Beaumont,,,,,,+33 1 39 37 15 20,,,yes,,49.145303000000006,2.289071
1160,11160,Groupe hospitalier Les Portes du Sud,,,,,,+33 4 72 89 80 00,,,yes,,45.688612400000004,4.8654574
1161,11161,Groupe hospitalier Pellegrin,,,,,,+33 5 56 79 56 79,,,yes,,44.8300528,-0.6040555000000001
1162,11162,Groupe hospitalier Sud Ardennes - Site de Vouziers,,,,,,+33 3 24 30 71 00,,,yes,,49.3954206,4.7010643
1163,11163,Groupe hospitalier intercommunal Le Raincy-Montfermeil,,,,,,+33 1 41 70 80 00,,,yes,,48.8993586,2.5702375
1164,11164,Groupe thérapeutique Marie Duboccage,Rue Marie Duboccage,,,,,,,,no,,49.428789,1.0872896
1165,11165,Groupement Hospitalier Intercommunal du Vexin - Site de Magny,,,,,,+33 1 34 79 44 44,,,yes,,49.1544428,1.7845901999999998
1166,11166,Gynécologie,,,,,,,,,,,47.94976,-0.538935
1167,11167,HDJ Donald Winnicott,Boulevard du Rosais,,,,,,,,,,48.625930600000004,-2.0097163
1168,11168,HIA Sainte-Anne - Site L'Oratoire,,,,,,,,,,,43.14764,5.8924082
1169,11169,Henri Bazire,,,,,,,,,,,45.346948600000005,5.6579692999999995
1170,11170,Hopital Albert Clarac,,,,,,+33 5 96 59 20 00,,,,,14.6139791,-61.06823910000001
1171,11171,Hopital Beaujon,Boulevard du Général Leclerc,,,,,+33 1 40 87 50 00,,,yes,,48.9072632,2.3119859
1172,11172,Hopital Cardiologique,,,,,,,,,,,44.785743,-0.661033
1173,11173,Hopital Communal de Puteaux,,,,,,,,,no,,48.8782481,2.2419341
1174,11174,Hopital Gériartrique intercommunal Neuville-Fontaines,,,,,,,,,,,45.8685476,4.847910400000001
1175,11175,Hopital Le Parc de Taverny,,,,,,,,,no,,49.0284081,2.2322951
1176,11176,Hopital Local,,,,,,,,,,,47.3222409,-2.0799893
1177,11177,Hopital Local,,,,,,,,,,,47.234053,-0.43083999999999995
1178,11178,Hopital Local de Joyeuse,,,,,,,,,no,,44.478747999999996,4.239483
1179,11179,Hopital Local de Villeneuve de Berg,,,,,,,,,,,44.5621146,4.5006794999999995
1180,11180,Hopital Louis Lareng,,,,,,,,,,,43.613384,1.400472
1181,11181,Hopital Maritime Vancauwenberghe,,,,,,,,,,,51.0672617,2.4836370999999997
1182,11182,Hopital Paula Thavoavianon,,,,,,,,,,,-20.5600782,164.2806449
1183,11183,Hopital Privé Saint-Paul,Route de la Madeleine,,,,,+594 594 39 03 00,,,,,4.9143439,-52.321061799999995
1184,11184,Hopital Psychiatrique,,,,,,,,,no,,48.058963299999995,-0.7810669
1185,11185,Hopital Psychiatrique,,,,,,,,,,,43.5496717,6.4439416
1186,11186,Hopital Saint-Honoré,,,,,,+33 5 46 09 20 01,,,no,,46.199861999999996,-1.366578
1187,11187,Hopital St. André,,,,,,,,,,,49.154995299999996,6.802719500000001
1188,11188,Hopital d'Auxonne,Rue du Château,,,,,,,,,,47.1927874,5.3853017
1189,11189,Hopital d'Enfants,Rue Bertin,,,,,,,,,,-20.8882797,55.44984960000001
1190,11190,Hopital de Pédiatrie et de Rééducation de Bullion,,,,,,+33 1 34 85 43 00,,,,,48.63571629999999,2.0093661
1191,11191,Hopital de Tadine,,,,,,,,,,,-21.5470001,167.88416809999998
1192,11192,Hopital de jour,,,,,,,,,,,47.685734000000004,6.488801400000001
1193,11193,Hopital intercommunal Sèvre et Loire,,,,,,,,,,,47.1782856,-1.4929963
1194,11194,Hopital local,,,,,,,,,no,,46.033598,4.300491
1195,11195,Hopital local de Malestroit,,,,,,,,,,,47.806732700000005,-2.3836277000000003
1196,11196,Hopital local départemental,,,,,,,,,,,43.3951868,6.3164952
1197,11197,Hopital local départemental,,,,,,,,,,,43.3765671,6.2991144
1198,11198,Hopital phsychatrique du Prés Poitiers,,,,,,,,,,,46.9835813,3.118671
1199,11199,Hoptial Raymond Doui Nebayes de Poindimié,,,,,,15,,,,,-20.9371318,165.3370857
1200,11200,Hospice,,,,,,,,,,,48.23251,7.3665259999999995
1201,11201,Hospices de Beaune,,,,,,+33 3 80 24 44 44,,,yes,,47.031585799999995,4.8340501
1202,11202,Hôpial privé du Vert-Galant,,,,,,+33 1 86 86 93 00,,,yes,,48.94034310000001,2.5719987
1203,11203,Hôpital,,,,,,,,,,,47.8481683,-0.9574501
1204,11204,Hôpital,,,,,,,,,,,46.936393,5.875368
1205,11205,Hôpital,,,,,,,,,,,-16.7281783,-151.4452439
1206,11206,Hôpital,,,,,,,,,,,46.899990100000004,5.7754542
1207,11207,Hôpital Adélaïde Hautval,Rue du Haut du Roy,,,,,,,,,,48.9980523,2.4069404999999997
1208,11208,Hôpital Albert Chenevier,rue de Mesly,,,,,+33 1 49 81 31 31,,,,,48.790432,2.4606802000000005
1209,11209,Hôpital Ambroise Paré,,,,,,+33 1 49 09 50 00,,,yes,,48.8475878,2.2335323
1210,11210,Hôpital André Breton - CH Haute Marne,,,,,,,,,,,48.6354217,4.956502700000001
1211,11211,Hôpital André Fourrier,,,,,,,,,,,50.609471299999996,3.0339572999999995
1212,11212,Hôpital Antoine Béclère,,,,,,+33 1 45 37 44 44,,,yes,,48.786716399999996,2.2542076
1213,11213,Hôpital Armand-Trousseau,,,,,,+33 1 44 73 74 75,,,yes,,48.84294129999999,2.4053966
1214,11214,Hôpital Arthur Gardiner,Rue Henri Dunant,,,,,+33 2 99 16 88 88,,,,,48.6330028,-2.0650436
1215,11215,Hôpital Asselin-Hédelin,,,,,,+33 2 35 95 73 00,,,,,49.618243,0.7434611
1216,11216,Hôpital Avicenne,,,,,,+33 1 48 95 55 55,,,yes,,48.9129616,2.4255185
1217,11217,Hôpital Beauregard Vert Coteau,,,,,,+33 4 91 12 34 56,,,yes,,43.31477279999999,5.4102679
1218,11218,Hôpital Bel-Air,,,,,,+33 3 82 55 82 55,,,yes,,49.374165500000004,6.1476614000000005
1219,11219,Hôpital Belle-Isle,,,,,,,,,,,49.122888700000004,6.1696960999999995
1220,11220,Hôpital Bellevue,,,,,,,,,,,45.4101036,4.3880710999999994
1221,11221,Hôpital Bellier,,,,,,,,,,,47.2223404,-1.5234372
1222,11222,Hôpital Bichat-Claude Bernard,,,,,,+33 1 40 25 80 80,,,yes,,48.899219,2.3309037
1223,11223,Hôpital Bicêtre,,,,,,+33 1 45 21 21 21,,,yes,,48.8097787,2.3496348
1224,11224,Hôpital Bretonneau,,,,,,,,,,,48.8900111,2.3294943999999997
1225,11225,Hôpital Bretonneau,,,,,,+33 2 47 47 47 47,,,yes,,47.3899874,0.6700471
1226,11226,Hôpital Broca,,,,,,,,,,,48.8349191,2.3466047999999997
1227,11227,Hôpital C.J. Ruivet,,,,,,,,,no,,45.906005,5.1944669999999995
1228,11228,Hôpital Calmette,,,,,,,,,,,49.502260799999995,0.1218362
1229,11229,Hôpital Casanova,,,,,,+33 1 42 35 61 40,,,no,,48.930031899999996,2.3598807999999996
1230,11230,Hôpital Central,,,,,,,,,yes,,48.6835554,6.1916791
1231,11231,Hôpital Charles Haby,,,,,,+33 3 89 74 78 00,,,yes,,47.9076029,7.2165705
1232,11232,Hôpital Charles Nicolle,Rue de Germont,,,,,+33 2 32 88 89 90,,,yes,,49.441373600000006,1.1124593999999999
1233,11233,Hôpital Charles Perrens,,,,,,,,,,,44.8264536,-0.6014311
1234,11234,Hôpital Chastaingt,,,,,,,,,,,45.8297214,1.2867302999999999
1235,11235,Hôpital Civil,,,,,,+33 3 88 11 67 68,,,,,48.577647999999996,7.7456976
1236,11236,Hôpital Claude Huriez,Rue Michel Polonovski,,,,,,,,,,50.610997499999996,3.0337405
1237,11237,Hôpital Claudius Regaud,,,,,,,,,,,48.8435241,2.3438835
1238,11238,Hôpital Clemenceau,,,,,,,,,no,,49.1874745,-0.34509650000000003
1239,11239,Hôpital Clocheville,Boulevard Béranger,,,,,+33 2 47 47 60 99,,,yes,,47.3893152,0.6809897
1240,11240,Hôpital Clémenceau,,,,,,+33 4 94 08 86 86,,,no,,43.131766999999996,6.015550900000001
1241,11241,Hôpital Cochin,Rue du Faubourg Saint-Jacques,,,,,+33 1 58 41 41 41,,,yes,,48.8381314,2.3418004
1242,11242,Hôpital Coeur du Bourbonnais,,,,,,,,,,,46.30940379999999,3.2851591
1243,11243,Hôpital Corentin Celton,,,,,,+33 1 58 00 40 00,,,no,,48.8273989,2.2779506
1244,11244,Hôpital Corsin,,,,,,,,,,,46.3058934,4.6017684999999995
1245,11245,Hôpital Croix Saint-Simon,,,,,,+33 1 44 64 16 00,,,yes,,48.8532034,2.4084733
1246,11246,Hôpital Delafontaine,,,,,,+33 1 42 35 61 40,,,yes,,48.936432399999994,2.37672
1247,11247,Hôpital Dieudonné Collomp,,,,,,+33 4 92 73 21 00,,,no,,44.0425217,5.6316388
1248,11248,Hôpital Dupuytren,,,,,,,,,,,48.6776477,2.4142472
1249,11249,Hôpital Dupuytren 2,,,,,,+33 5 55 05 55 55,,,,,45.8134098,1.236032
1250,11250,Hôpital Départemental de Felleries-Liessies,,,,,,,,,,,50.134026500000004,4.0838518
1251,11251,Hôpital Désandrouins,Avenue d'Étain,,,,,+33 3 29 83 84 85,,,,,49.161784499999996,5.418496299999999
1252,11252,Hôpital Elisée Charra Lamastre,,,,,,,,,,,44.9890919,4.5790189
1253,11253,Hôpital Ernée,,,,,,,,,,,48.2960263,-0.9234228999999999
1254,11254,Hôpital Européen Georges Pompidou,,,,,,+33 1 56 09 20 00,,,yes,,48.8395572,2.2720487
1255,11255,Hôpital Européen de Paris,,,,,,+33 1 48 39 45 00,,,yes,,48.9058469,2.388314
1256,11256,Hôpital Fauquet,Rue Lechaptois,,,,,+33 2 35 39 36 36,,,yes,,49.5676339,0.4670689
1257,11257,Hôpital Femme-Mère-Enfant,,,,,,+33 8 25 08 25 69,,,yes,,45.746646999999996,4.900663
1258,11258,Hôpital Femme-Mère-Enfant,,,,,,,,,yes,,47.723494200000005,7.3398922
1259,11259,Hôpital Fernand Lafont,,,,,,,,,,,44.903877,4.421318
1260,11260,Hôpital Fernand Widal,,,,,,,,,,,48.882254100000004,2.3587960999999997
1261,11261,Hôpital Flaubert,,,,,,,,,,,49.500913700000005,0.1131114
1262,11262,Hôpital Foch,,,,,,+33 8 26 20 72 20,,,yes,,48.8717384,2.2215922000000004
1263,11263,Hôpital François Mitterrand,,,,,,+33 3 80 29 30 31,,,yes,,47.318799600000006,5.0732932
1264,11264,Hôpital François de Daillon,Chemin des Bichousières,,,,,+33243484848,,,,,47.649052399999995,0.1560477
1265,11265,Hôpital Félix Maréchal,Rue Xavier Roussel,,,,,+33 3 87 55 78 00,,,,,49.129455,6.1365274
1266,11266,Hôpital Garderose,,,,,,,,,,,44.8986177,-0.2282571
1267,11267,Hôpital Garonne,,,,,,+33 5 61 77 66 11,,,,,43.6155744,1.4000801999999999
1268,11268,Hôpital George Sand,,,,,,+33 4 94 11 30 00,,,yes,,43.109724799999995,5.8707645
1269,11269,Hôpital Georges Clemenceau,Rue Georges Clemenceau,,,,,+33 1 69 23 20 20,,,,,48.5230635,2.4311898
1270,11270,Hôpital Général,,,,,,,,,,,16.235584,-61.52866949999999
1271,11271,Hôpital Haut-Lévêque,,,,,,+33 5 56 79 56 79,,,yes,,44.7866831,-0.6638722
1272,11272,Hôpital Henri Dunant,,,,,,,,,,,48.8397367,2.2586310000000003
1273,11273,Hôpital Henri Ey,Avenue de la Porte de Choisy,,,,,,,,,,48.818569399999994,2.3643647999999997
1274,11274,Hôpital Henri Gastaut,,,,,,,,,,,43.2617279,5.4131985
1275,11275,Hôpital Henry Gabrielle,,,,,,,,,no,,45.6884114,4.791786599999999
1276,11276,Hôpital Hôtel-Dieu Saint-Jacques,,,,,,,,,,,43.599377200000006,1.4376271999999999
1277,11277,Hôpital Intercommunal Baugeois la Vallée,,,,,,,,,,,47.5368679,-0.1057729
1278,11278,Hôpital Intercommunal de la Presqu'ile Guérande,,,,,,,,,,,47.324484000000005,-2.4241921000000004
1279,11279,Hôpital Jacques Monod,,,,,,+33 2 32 73 32 32,,,yes,,49.524058600000004,0.187069
1280,11280,Hôpital Jean Bouveri,,,,,,+33 3 85 67 60 60,,,yes,,46.6472573,4.3307069
1281,11281,Hôpital Jean Jaurès,,,,,,,,,no,,48.8870313,2.393051
1282,11282,Hôpital Jean Rebeyrol,,,,,,,,,,,45.8128501,1.2323232
1283,11283,Hôpital Jean Rebeyrol (annexe),,,,,,,,,,,45.8134905,1.2318965
1284,11284,Hôpital Jean Solinhac,Rue Sœur Marie Caton,,,,,,,,,,44.528823100000004,2.7606403
1285,11285,Hôpital Jean Verdier,,,,,,+33 1 48 02 66 66,,,yes,,48.908936700000005,2.4869095000000003
1286,11286,Hôpital Joseph Ducuing,,,,,,+33 5 61 77 34 00,,,yes,,43.5959376,1.4287954999999999
1287,11287,Hôpital La Collégiale,,,,,,,,,,,48.8388592,2.3531714
1288,11288,Hôpital La Roche-Guyon,,,,,,,,,,,49.080082899999994,1.6269311000000002
1289,11289,Hôpital Lamentin Bourg,,,,,,0596 48 88 00,,,,,14.615886199999998,-60.9998505
1290,11290,Hôpital Lapeyronie,Avenue du Doyen Gaston Giraud,,,,,+33 4 67 33 67 33,,,yes,,43.62880870000001,3.8506565999999998
1291,11291,Hôpital Lariboisière,,,,,,+33 1 49 95 65 65,,,yes,,48.88368079999999,2.3513857000000002
1292,11292,Hôpital Larrey,,,,,,+33 5 61 77 22 33,,,,,43.554193299999994,1.4564825000000001
1293,11293,Hôpital Le Corbusier,Rue Robert Plotton,,,,,,,,,,45.3870047,4.2899194000000005
1294,11294,Hôpital Le Jeune,,,,,,,,,,,48.429644700000004,-4.6198441
1295,11295,Hôpital Le Montaigu,,,,,,,,,no,,43.0835201,0.07922710000000001
1296,11296,Hôpital Le Pratel,Rue du Pratel,,,,,+33 2 97 56 41 41,,,yes,,47.670372799999996,-2.9810555
1297,11297,Hôpital Les Poêles,Rue Jean Gasté,,,,,,,,,,48.8420045,-1.2233824
1298,11298,Hôpital Local,Rue Saint Gilles,,,,,,,,,,47.207980600000006,-0.7258084
1299,11299,Hôpital Local,,,,,,,,,,,46.8327175,5.7089336
1300,11300,Hôpital Local Pierre Delaroche,,,,,,,,,,,47.0915055,-1.2919007
1301,11301,Hôpital Local Saint-Félicien,,,,,,,,,,,45.0863133,4.6294135
1302,11302,Hôpital Local de Breteuil,,,,,,+33 2 32 34 78 34,,,,,48.8370107,0.9224111999999999
1303,11303,Hôpital Local de Châteauneuf,,,,,,,,,,,45.597259,-0.059052
1304,11304,Hôpital Local de Saint-Laurent-sur-Saône,,,,,,,,,,,46.308262799999994,4.8421404
1305,11305,Hôpital Local du Pays de Gex,,,,,,,,,,,46.3231526,6.0587928
1306,11306,Hôpital Louis Domergue,,,,,,+33 5 96 66 46 00,,,yes,,14.7359256,-60.966580099999995
1307,11307,Hôpital Louis Mourier,Rue des Renouillers,,,,,+33 1 47 60 61 62,,,yes,,48.9228793,2.2341363
1308,11308,Hôpital Lozère,,,,,,+33 4 66 49 49 49,,,yes,,44.522745,3.4885982
1309,11309,Hôpital Léon Schwartzenberg,,,,,,,,,,,50.2520126,3.6273875
1310,11310,Hôpital Léopold Bellan,Rue Raymond Losserand,,,,,+33 1 40 48 68 68,,,no,,48.8292627,2.310694
1311,11311,Hôpital Maillot,,,,,,+33 3 82 47 50 00,,,yes,,49.25958120000001,5.9335356
1312,11312,Hôpital Maison-Blanche,,,,,,,,,,,48.8740456,2.3799902000000004
1313,11313,Hôpital Mangot Vulcin,,,,,,0596 48 88 00,,,,,14.6306272,-60.9893319
1314,11314,Hôpital Marin de Hendaye,,,,,,,,,,,43.3756776,-1.7624667
1315,11315,Hôpital Maritime de Berck,,,,,,,,,,,50.400538299999994,1.5558299999999998
1316,11316,Hôpital Max Fourestier,,,,,,+33 1 47 69 65 65,,,yes,,48.91210039999999,2.2232152999999997
1317,11317,Hôpital Michel Fontan,,,,,,,,,,,50.6103432,3.0288356
1318,11318,Hôpital Militaire Lyautey,,,,,,,,,,,48.5524778,7.7660215
1319,11319,Hôpital Morvan,,,,,,+33 2 98 22 33 33,,,yes,,48.3921105,-4.486941000000001
1320,11320,Hôpital Mère-Enfant de l'Est Parisien,,,,,,,,,,,48.8647056,2.3819128
1321,11321,Hôpital National de Saint-Maurice,,,,,,,,,no,,48.8201573,2.4343033
1322,11322,Hôpital Necker Enfants Malades,,,,,,+33 1 44 49 40 00,,,yes,,48.8453521,2.3171962
1323,11323,Hôpital Nord,Avenue Albert Raimond,,,,,+33 4 77 82 80 00,,,yes,,45.481846600000004,4.3586523
1324,11324,Hôpital Nord,Chemin des Bourrely,,,,,+33 4 91 38 00 00,,,yes,,43.37747529999999,5.363247900000001
1325,11325,Hôpital Nord 92,,,,,,,,,,,48.9343486,2.3272022
1326,11326,Hôpital Nord Franche-Comté,Route de Moval,,,,,+33 3 84 98 20 20,,,yes,,47.577030900000004,6.8705718
1327,11327,Hôpital Nord Franche-Comté Site du Mittan,,,,,,,,,,,47.525842100000006,6.7893311
1328,11328,Hôpital Nord Guillaume et René Laennec,Bd professeur Jacques-Monod - Saint-Herblain,,,,,+33 3 32 08 33 33,,,no,,47.2367509,-1.6378511999999998
1329,11329,Hôpital Nord-Ouest Grandris Haute Azergues,Rue de l'Hôpital,,,,,+33474030258,,,,,46.0420368,4.4768516
1330,11330,Hôpital Pasteur,,,,,,+33 3 89 12 40 00,,,yes,,48.0777161,7.3346617
1331,11331,Hôpital Pasteur,,,,,,+33 2 33 20 70 70,,,yes,,49.6386482,-1.6142956
1332,11332,Hôpital Paul Brousse,avenue Paul-Vaillant-Couturier,,,,,,,,,,48.79607070000001,2.360105
1333,11333,Hôpital Paul Coste-Floret,,,,,,,,,,,43.593257799999996,3.0802511000000004
1334,11334,Hôpital Paule de Viguier,,,,,,,,,yes,,43.607883,1.40309
1335,11335,Hôpital Pierre Briquet,,,,,,+33 3 26 70 37 37,,,,,48.968944,4.3629945
1336,11336,Hôpital Pierre Bérégovoy,Avenue Patrick Guillot,,,,,+33 3 86 93 70 00,,,yes,,46.9760748,3.1237136000000003
1337,11337,Hôpital Pierre Grouès,Rue Maurin,,,,,+33 4 92 80 80 20,,,,,44.388071999999994,6.649575
1338,11338,Hôpital Pierre Hurabielle,,,,,,,,,,,49.3498629,0.8136186
1339,11339,Hôpital Pierre Janet,Rue de Tourneville,,,,,,,,,,49.5026005,0.1242104
1340,11340,Hôpital Pierre Rouquès - Les Bluets,,,,,,,,,,,48.8428887,2.4059156
1341,11341,Hôpital Pitié-Salpêtrière,,,,,,+33 1 42 16 00 00,,,yes,,48.8358526,2.3690661
1342,11342,Hôpital Pontchaillou,Rue Henri Le Guilloux,,,,,+33 2 99 28 43 21,,,yes,,48.121012,-1.6992917
1343,11343,Hôpital Privé Armand Brillard,,,,,,+33 1 86 86 12 12,,,yes,,48.832858200000004,2.4725762000000002
1344,11344,Hôpital Privé Cannes Oxford,Boulevard d'Oxford,,,,,,,,,,43.56473629999999,7.027766199999999
1345,11345,Hôpital Privé La Louvière,,,,,,+33826307000,,,no,,50.646060799999994,3.0856967999999996
1346,11346,Hôpital Privé Pays de Savoie,Avenue Pierre Mendès France,,,,,,,,yes,,46.1877616,6.2232712
1347,11347,Hôpital Privé Résidence du Parc,Rue Gaston Berger,,,,,,,,,,43.271445,5.414905
1348,11348,Hôpital Privé Saint-Adrien,La Rocade de Zéphir,,,,,,,,,,4.9387834999999995,-52.3057589
1349,11349,Hôpital Privé Saint-Gabriel (ancienne Clinique Véronique),Route de Baduel,,,,,+594 594 28 10 10,,,,,4.9337879000000004,-52.307800799999995
1350,11350,Hôpital Privé Sainte-Marie,,,,,,,,,,,46.7973733,4.8560393
1351,11351,Hôpital Privé d'Antony,,,,,,,,,,,48.7559779,2.3055912
1352,11352,Hôpital Privé de Marne La Vallée,rue Léon Menu,,,,,,,,,,48.839017999999996,2.538282
1353,11353,Hôpital Privé de la Loire,,,,,,+33 8 26 30 42 42,,,yes,,45.4286656,4.4176585
1354,11354,Hôpital Privé des Côtes d'Armor,,,,,,,,,,,48.5498196,-2.7886417999999997
1355,11355,Hôpital Privé des Peupliers,,,,,,,,,,,48.822924,2.3510578
1356,11356,Hôpital Privé d’Ambérieu,,,,,,+33 4 74 38 95 95,,,yes,,45.9803924,5.3520757
1357,11357,Hôpital Prosper Chubert,Boulevard du Général Guillaudot,,,,,+33 2 97 01 41 41,,,yes,,47.663796399999995,-2.7458378
1358,11358,Hôpital Psychiatrique,,,,,,,,,,,44.9248018,2.4105714
1359,11359,Hôpital Psychiatrique,,,,,,,,,,,47.962441299999995,0.16276559999999998
1360,11360,Hôpital Psychiatrique Erasme,Avenue Armand Guillebaud,,,,,,,,no,,48.7454154,2.3152345000000003
1361,11361,Hôpital Psychiatrique Gérard Marchant,,,,,,,,,,,43.5584155,1.4160747999999999
1362,11362,Hôpital Psychiatrique Marius Lacroix,,,,,,+33 5 46 45 50 50,,,,,46.1722362,-1.1366521
1363,11363,Hôpital Psychiatrique Philippe Pinel,Route de Paris,,,,,+33 3 22 53 46 46,,,yes,,49.8679814,2.2780982999999995
1364,11364,Hôpital Psychiatrique Saint-Jean-de-Dieu,,,,,,,,,,,45.720397,4.8542084
1365,11365,Hôpital Psychiatrique Simone Veil,,,,,,,,,,,49.0021839,2.2700557999999997
1366,11366,Hôpital Psychiatrique de Bohars,,,,,,,,,,,48.4354761,-4.5034585
1367,11367,Hôpital Psychiatrique de Plouguernevel,,,,,,,,,no,,48.24297979999999,-3.2586338
1368,11368,Hôpital Purpan,,,,,,+33 5 61 77 22 33,,,yes,,43.6056499,1.4033805
1369,11369,Hôpital Rangueil,,,,,,+33 5 61 77 22 33,,,yes,,43.5626602,1.4533313
1370,11370,Hôpital Raymond Poincaré,Boulevard Raymond Poincaré,,,,,+33 1 47 10 79 00,,,no,,48.8407196,2.1703843
1371,11371,Hôpital Reine Hortense,,,,,,,,,,,45.689273799999995,5.916793900000001
1372,11372,Hôpital René-Muret,,,,,,+33 1 41 52 59 99,,,,,48.9363765,2.5080953
1373,11373,Hôpital Richaud,,,,,,,,,,,48.8080214,2.1349204
1374,11374,Hôpital Robert Debré,,,,,,+33 1 40 03 20 00,,,yes,,48.8786021,2.4027525
1375,11375,Hôpital Robert Pax,,,,,,+33 3 87 27 33 10,,,yes,,49.1004407,7.096491499999999
1376,11376,Hôpital Robert-Schuman,,,,,,,,,,,49.1228316,6.2410797
1377,11377,Hôpital Rothschild,,,,,,,,,no,,48.842987799999996,2.3973391
1378,11378,Hôpital Saint Romain de Colbosc,,,,,,,,,,,49.5257031,0.3632141
1379,11379,Hôpital Saint-André,,,,,,+33 5 56 79 56 79,,,yes,,44.832981,-0.578968
1380,11380,Hôpital Saint-Antoine,,,,,,,,,,,44.0719399,7.257695200000001
1381,11381,Hôpital Saint-Antoine,,,,,,,,,,,45.500276,6.061911
1382,11382,Hôpital Saint-Antoine,,,,,,+33 1 49 28 20 00,,,yes,,48.8469807,2.3817305
1383,11383,Hôpital Saint-Camille,,,,,,+33 1 49 83 10 10,,,yes,,48.832722600000004,2.5277132
1384,11384,Hôpital Saint-Jacques,,,,,,,,,,,48.8408596,2.3084797000000004
1385,11385,Hôpital Saint-Jacques,,,,,,,,,,,49.2464724,1.394938
1386,11386,Hôpital Saint-Jacques,,,,,,+33 3 87 05 02 00,,,,,48.813849499999996,6.7211484
1387,11387,Hôpital Saint-Jacques,,,,,,+33 4 66 49 52 00,,,,,44.5658044,3.2920038999999996
1388,11388,Hôpital Saint-Jacques,,,,,,+33 3 89 37 71 00,,,no,,47.81344489999999,7.0968039
1389,11389,Hôpital Saint-Jacques,,,,,,,,,,,47.23488629999999,6.0183960999999995
1390,11390,Hôpital Saint-Jacques,,,,,,,,,,,48.494854600000004,7.4622773
1391,11391,Hôpital Saint-James,,,,,,+33 2 33 89 89 00,,,,,48.52499,-1.33065
1392,11392,Hôpital Saint-Joseph,Rue Raymond Losserand,,,,,+33 1 44 12 33 33,,,yes,,48.8292274,2.3088214
1393,11393,Hôpital Saint-Joseph,,,,,,+33 3 87 98 76 00,,,yes,,49.04609620000001,7.422450099999999
1394,11394,Hôpital Saint-Joseph,,,,,,+33 4 91 80 65 00,,,yes,,43.276256,5.392191
1395,11395,Hôpital Saint-Joseph,,,,,,+33 3 87 97 32 00,,,no,,48.9981776,7.025960700000001
1396,11396,Hôpital Saint-Julien,,,,,,,,,,,48.687551299999996,6.1930184
1397,11397,Hôpital Saint-Julien,Rue Guillaume Lecointe,,,,,+33 2 32 88 64 00,,,yes,,49.4206819,1.0580186000000003
1398,11398,Hôpital Saint-Louis,,,,,,+33 1 42 49 49 49,,,yes,,48.8758244,2.3682379
1399,11399,Hôpital Saint-Loup,,,,,,,,,,,45.7205623,3.3431024
1400,11400,Hôpital Saint-Loup,Boulevard des Hellènes,,,,,+33 4 67 46 57 57,,,,,43.2990653,3.4831225
1401,11401,Hôpital Saint-Maur,,,,,,,,,,,44.256147999999996,6.924486
1402,11402,Hôpital Saint-Michel,,,,,,,,,,,49.0361969,1.1428211000000001
1403,11403,Hôpital Saint-Nicolas,,,,,,+33 3 87 23 24 25,,,yes,,48.7280299,7.052090700000001
1404,11404,Hôpital Saint-Nicolas,,,,,,,,,,,43.803538200000006,4.6617994000000005
1405,11405,Hôpital Saint-Nicolas,Rue d'Anthouard,,,,,+33 3 29 83 84 85,,,,,49.1547591,5.380071599999999
1406,11406,Hôpital Saint-Philibert,,,,,,+33 3 20 22 50 50,,,yes,,50.6504396,2.972467
1407,11407,Hôpital Saint-Roch,,,,,,,,,,,43.129427,5.9206650000000005
1408,11408,Hôpital Saint-Thomas de Villeneuve,Rue du Docteur Haicault,,,,,+33 2 99 43 71 40,,,no,,47.839548,-1.6815240000000002
1409,11409,Hôpital Saint-Vincent de Paul,,,,,,+33 3 20 87 48 48,,,yes,,50.62103870000001,3.0774672
1410,11410,Hôpital Saint-Yves,,,,,,,,,,,-37.796850899999995,77.5713988
1411,11411,Hôpital Sainte-Anne,Place Jean Bérain,,,,,+33 3 29 91 81 81,,,,,48.8891698,5.5404304
1412,11412,Hôpital Sainte-Anne,,,,,,,,,,,43.132958200000004,5.9324498
1413,11413,Hôpital Sainte-Anne,Rue Cabanis,,,,,,,,,,48.8302805,2.3367667
1414,11414,Hôpital Sainte-Blandine,,,,,,,,,,,49.1132402,6.1810615
1415,11415,Hôpital Sainte-Croix,,,,,,+33 3 81 84 70 00,,,no,,47.3529301,6.3587034000000004
1416,11416,Hôpital Sainte-Marguerite,,,,,,,,,,,43.2614623,5.4100434
1417,11417,Hôpital Sainte-Musse,,,,,,+33 4 94 14 50 00,,,yes,,43.1248111,5.9751209
1418,11418,Hôpital Sainte-Périne - Rossini - Chardon Lagache,,,,,,,,,,,48.844362200000006,2.2662132
1419,11419,Hôpital Sainte-Périne - Rossini - Chardon-Lagache,,,,,,,,,,,48.847114700000006,2.2690387000000003
1420,11420,Hôpital Salvator,,,,,,,,,,,43.264137100000006,5.4101894999999995
1421,11421,Hôpital Simone Veil,,,,,,+33 1 34 06 60 00,,,yes,,48.9992125,2.2707674
1422,11422,Hôpital Simone Veil - Site Avenue Charles de Gaulle,,,,,,,,,,,48.9829514,2.3283424
1423,11423,Hôpital Stell,,,,,,,,,no,,48.8754169,2.187682
1424,11424,Hôpital Suburbain du Bouscat,,,,,,+33 5 56 42 49 49,,,,,44.8674841,-0.617592
1425,11425,Hôpital Sud,,,,,,+33 4 76 76 75 75,,,yes,,45.148762,5.7294184999999995
1426,11426,Hôpital Sud,Boulevard de Bulgarie,,,,,+33 2 99 28 43 21,,,yes,,48.0836164,-1.6548053
1427,11427,Hôpital Taillegrain - Centre de gérontologie des Prés Fichaux,,,,,,,,,,,47.0932794,2.3986409
1428,11428,Hôpital Tarnier,,,,,,,,,,,48.8411921,2.3361967999999997
1429,11429,Hôpital Tenon,,,,,,+33 1 56 01 70 00,,,yes,,48.8674441,2.4008345
1430,11430,Hôpital Thermal,,,,,,+33 5 58 91 48 11,,,no,,43.706756,-1.0525959999999999
1431,11431,Hôpital Trousseau,,,,,,+33 2 47 47 47 47,,,yes,,47.3460862,0.7095139
1432,11432,Hôpital Val-du-Madon,,,,,,,,,,,48.2826266,6.1353824999999995
1433,11433,Hôpital Vaugirard - Gabriel Pallez,,,,,,,,,,,48.834351899999994,2.2933301
1434,11434,Hôpital Xavier Arnozan,,,,,,,,,,,44.7970631,-0.6618754
1435,11435,Hôpital Yves Lanco,,,,,,,,,,,47.344715,-3.1628124
1436,11436,Hôpital cardio-vasculaire et pneumologique Louis Pradel,,,,,,,,,,,45.7481707,4.900343
1437,11437,Hôpital clinique du Pays des Hautes Falaises,,,,,,+33 2 35 10 90 00,,,yes,,49.74526029999999,0.38520229999999994
1438,11438,Hôpital d'Instruction des Armées Bégin,,,,,,,,,,,48.8454536,2.4274663
1439,11439,Hôpital d'Instruction des Armées Clermont-Tonnerre,,,,,,+33 2 98 43 70 00,,,yes,,48.3921809,-4.4930977
1440,11440,Hôpital d'Instruction des Armées Percy,,,,,,+33 1 41 46 60 00,,,yes,,48.8152635,2.2535472999999997
1441,11441,Hôpital d'Instruction des Armées Robert Picqué,,,,,,,,,,,44.801537599999996,-0.5752227
1442,11442,Hôpital d'instruction des armées Desgenettes,,,,,,+33 4 72 36 60 00,,,yes,,45.741746899999995,4.8886294
1443,11443,Hôpital d'instruction des armées Laveran,,,,,,+33 4 91 61 70 00,,,yes,,43.3262881,5.4137368
1444,11444,Hôpital d'instruction des armées Legouest,,,,,,+33 3 87 56 46 46,,,yes,,49.113772499999996,6.1869794
1445,11445,Hôpital d'instruction des armées Sainte-Anne,,,,,,+33 4 83 16 20 10,,,yes,,43.1335565,5.9280379
1446,11446,Hôpital de Afareaitu,,,,,,,,,,,-17.5495199,-149.79019219999998
1447,11447,Hôpital de Afareaitu,,,,,,,,,,,-17.5496964,-149.7897724
1448,11448,Hôpital de Beaujeu,,,,,,,,,yes,,46.153011,4.5900099999999995
1449,11449,Hôpital de Bois-Guillaume,,,,,,,,,,,49.466802799999996,1.1169803999999999
1450,11450,Hôpital de Carentoir,,,,,,+33 2 99 08 81 82,,,,,47.818589,-2.133844
1451,11451,Hôpital de Casteljaloux,,,,,,+33 5 53 20 34 50,,,,,44.312192700000004,0.0767588
1452,11452,Hôpital de Chevilly-Larue,,,,,,,,,,,48.7707848,2.3338400000000004
1453,11453,Hôpital de Cimiez,,,,,,,,,,,43.720498,7.272333000000001
1454,11454,Hôpital de Dannemarie,,,,,,,,,,,47.630311999999996,7.123663900000001
1455,11455,Hôpital de Err,,,,,,,,,,,42.4414979,2.0298131
1456,11456,Hôpital de Fleyriat,,,,,,+33 4 74 45 46 47,,,yes,,46.2220408,5.2133945
1457,11457,Hôpital de Hautepierre,,,,,,+33 3 88 11 67 68,,,yes,,48.5933409,7.7032993
1458,11458,Hôpital de Houdan,,,,,,+33 1 30 46 18 00,,,,,48.7925473,1.5996546
1459,11459,Hôpital de Janzé,,,,,,,,,,,47.963712799999996,-1.4989755
1460,11460,Hôpital de Joeuf,,,,,,,,,no,,49.22484,6.01192
1461,11461,Hôpital de Joinville,,,,,,+33 3 25 04 30 30,,,no,,48.4388144,5.1369137
1462,11462,Hôpital de Jouars-Pontchartrain,,,,,,,,,no,,48.8049112,1.9029093000000001
1463,11463,Hôpital de Jour,,,,,,,,,,,44.504799,0.161555
1464,11464,Hôpital de Jour,,,,,,,,,,,43.710122999999996,-0.840015
1465,11465,Hôpital de Jour,,,,,,,,,,,46.7817029,4.850047099999999
1466,11466,Hôpital de Jour Aubignane,Avenue Roger Salengro,,,,,+33 4 42 03 64 64,,,,,43.296077000000004,5.568725
1467,11467,Hôpital de Jour Baudin,,,,,,,,,,,45.8197975,1.2472758
1468,11468,Hôpital de Jour Halloran,Avenue de Noès,,,,,+33 5 56 45 71 34,,,,,44.8121717,-0.6417283
1469,11469,Hôpital de Jour Henri Ey,,,,,,,,,,,45.779051200000005,3.0745409
1470,11470,Hôpital de Jour Lewis Carroll,,,,,,,,,,,48.960588,4.36499
1471,11471,Hôpital de Kahani,Kahani,,,,,+262 2 69 62 40 78,,,,,-12.826017,45.1320365
1472,11472,Hôpital de La Loupe,,,,,,,,,,,48.4661271,1.0091123
1473,11473,Hôpital de Mauléon,,,,,,,,,,,43.2179414,-0.8899465
1474,11474,Hôpital de Mortain,,,,,,,,,,,48.6465588,-0.940125
1475,11475,Hôpital de Moze Saint-Agrève,,,,,,,,,no,,45.007866899999996,4.3988885
1476,11476,Hôpital de Nontron,,,,,,,,,,,45.5284327,0.6651463000000001
1477,11477,Hôpital de Petite-Terre en projet,Rue des Jardins,,,,,,,,,,-12.796230099999999,45.27799520000001
1478,11478,Hôpital de Prades,,,,,,,,,,,42.626969700000004,2.4176954
1479,11479,Hôpital de Quintin,Rue de la Corderie,,,,,,,,,,48.406811499999996,-2.9161755
1480,11480,Hôpital de Ribeauville,Rue du Château,,,,,,,,,,48.1972964,7.3156569000000005
1481,11481,Hôpital de Ribérac,,,,,,,,,,,45.2448715,0.3405591
1482,11482,Hôpital de Riez,,,,,,,,,,,43.818637,6.089773999999999
1483,11483,Hôpital de Rouelles,,,,,,,,,,,49.5197964,0.1594365
1484,11484,"Hôpital de Réadaptation, de Rééducation et d'Addictologie du CHU de Nîmes",Route de Carnon,,,,,,,,,,43.550779600000006,4.117068
1485,11485,Hôpital de Saint-Avold,Rue Ambroise Paré,,,,,+33 3 87 91 14 44,,,yes,,49.11233970000001,6.7237857000000005
1486,11486,Hôpital de Saint-Jean-de-Luz,,,,,,,,,,,43.3921872,-1.6538348000000003
1487,11487,Hôpital de Saint-Joseph,,,,,,,,,,,-21.380582,55.61851600000001
1488,11488,Hôpital de Saint-Pierre,,,,,,,,,,,14.7413187,-61.175197999999995
1489,11489,Hôpital de Saint-Pierre-et-Miquelon,,,,,,,,,,,46.773381,-56.1731282
1490,11490,Hôpital de Sainte-Foy les Lyon,,,,,,,,,,,45.7322808,4.7953525
1491,11491,Hôpital de Sainte-Maure,,,,,,,,,,,47.1068794,0.6102805
1492,11492,Hôpital de Soultz,,,,,,,,,,,47.8911597,7.2240827
1493,11493,Hôpital de Taravao,,,,,,,,,yes,,-17.731838600000003,-149.30408930000002
1494,11494,Hôpital de Ville-Évrard,,,,,,,,,,,48.8615698,2.5428806
1495,11495,Hôpital de jour,,,,,,,,,,,45.352273,5.612904
1496,11496,Hôpital de jour La Planquette,,,,,,,,,,,43.772386100000006,1.6831226000000001
1497,11497,Hôpital de jour Le Pont du Cens,,,,,,,,,,,47.2460029,-1.5758071000000002
1498,11498,Hôpital de jour Léopold Bellan,Rue de l'Aqueduc,,,,,+33 1 53 26 22 22,,,,,48.8804485,2.3599542000000002
1499,11499,Hôpital de jour Pierre Thalbot,,,,,,+33 2 97 02 39 39,,,,,47.81200020000001,-3.260296
1500,11500,Hôpital de jour de psychothérapie pour adultes,Rue Saint-Jean,,,,,,,,,,47.1723325,0.24806460000000002
1501,11501,Hôpital de jour pour adultes Guillaume Régnier,,,,,,,,,,,48.1303125,-1.6583759999999999
1502,11502,Hôpital de jour pour enfants,,,,,,,,,no,,46.2027968,5.2198005
1503,11503,Hôpital de l'Arbresle,,,,,,,,,,,45.840284000000004,4.6177859
1504,11504,Hôpital de l'Archet,,,,,,+33 4 92 03 77 77,,,,,43.6984334,7.2246372999999995
1505,11505,Hôpital de l'Est Parisien,,,,,,+33 1 86 86 35 35,,,yes,,48.929156,2.4961132999999998
1506,11506,Hôpital de la Cavale Blanche,Boulevard Tanguy Prigent,,,,,+33 2 98 22 33 33,,,yes,,48.402040899999996,-4.5324114
1507,11507,Hôpital de la Charité,,,,,,,,,no,,45.4330427,4.3922718000000005
1508,11508,Hôpital de la Conception,,,,,,,,,,,43.2893588,5.3931922
1509,11509,Hôpital de la Croix-Rousse,,,,,,+33 8 25 08 25 69,,,yes,,45.783448799999995,4.8329035000000005
1510,11510,Hôpital de la Grave,,,,,,,,,,,43.599676200000005,1.4303267
1511,11511,Hôpital de la Musse,,,,,,,,,,,49.0047771,1.0833964
1512,11512,Hôpital de la Robertsau,,,,,,,,,,,48.601563399999996,7.792329700000001
1513,11513,Hôpital de la Rochefoucauld,,,,,,,,,,,48.832118200000004,2.3308266
1514,11514,Hôpital de la Tauvrais,,,,,,,,,no,,48.1382451,-1.6591284
1515,11515,Hôpital de la Timone,,,,,,+33 4 91 38 00 00,,,yes,,43.2900718,5.406542099999999
1516,11516,Hôpital des Charpennes,Rue Gabriel Péri,,,,,+33 825 08 25 69,,,no,,45.771367299999994,4.864343
1517,11517,Hôpital des Collines Vendéennes,,,,,,,,,,,46.646204700000006,-0.7412164000000001
1518,11518,Hôpital des Diaconnesses,,,,,,,,,,,48.844216700000004,2.3904217
1519,11519,Hôpital des Gardiens de la Paix,,,,,,,,,,,48.8388066,2.358811
1520,11520,Hôpital des Prés Bosgers,Rue des Artisans,,,,,+33 2 99 89 51 51,,,,,48.6829551,-1.8677905
1521,11521,Hôpital du Bon-Sauveur,,,,,,,,,,,49.375978100000005,-1.4251354999999999
1522,11522,Hôpital du Cluzeau,,,,,,,,,,,45.813126200000006,1.241142
1523,11523,Hôpital du Creusot - Site Foch,,,,,,+33 3 85 77 20 00,,,yes,,46.8052968,4.447158900000001
1524,11524,Hôpital du Creusot - Site Harfleur,,,,,,+33 3 85 77 74 00,,,no,,46.796005799999996,4.4532680000000004
1525,11525,Hôpital du Croisic,,,,,,,,,,,47.2915643,-2.5164602000000005
1526,11526,Hôpital du Gier - Site Pinay,Rue Laurent Charles,,,,,+33 4 77 31 19 19,,,no,,45.4701889,4.5199099
1527,11527,Hôpital du Hasenrain,Avenue d'Altkirch,,,,,+33 3 89 64 64 64,,,,,47.7356555,7.3314851999999995
1528,11528,Hôpital du Haut Limousin,,,,,,,,,,,46.123218900000005,1.06049
1529,11529,Hôpital du Haut-Anjou,,,,,,+33 2 43 09 33 33,,,yes,,47.826015600000005,-0.7013010999999999
1530,11530,Hôpital du Jour,,,,,,,,,,,48.889217200000004,2.1977349999999998
1531,11531,Hôpital du Jour - Centre Médico-Psychologique,,,,,,,,,,,48.891833399999996,2.1890377
1532,11532,Hôpital du Mas Careiron,,,,,,+33 4 66 62 69 00,,,,,44.007189000000004,4.4066778
1533,11533,Hôpital du Pays Dunois,Rue de l'Hôpital,,,,,+33 3 85 28 91 10,,,yes,,46.2890007,4.306478599999999
1534,11534,Hôpital du Pays d’Autan,Avenue de la Montagne Noire,,,,,+33 5 63 71 63 71,,,yes,,43.565151799999995,2.2590315
1535,11535,Hôpital du Perray,,,,,,,,,no,,48.657201,2.309312
1536,11536,Hôpital du Porzou,,,,,,+33 2 98 50 30 30,,,yes,,47.86603220000001,-3.9026004000000003
1537,11537,Hôpital du Scorff,Avenue de Choiseul,,,,,+33 2 97 06 90 90,,,yes,,47.7538225,-3.3586316
1538,11538,Hôpital du Taaone,,,,,,,,,yes,,-17.528273600000002,-149.54717240000002
1539,11539,Hôpital du Thillot,,,,,,+33 3 29 25 00 79,,,,,47.877334399999995,6.768782400000001
1540,11540,Hôpital du Val de Grâce,,,,,,,,,,,48.8380173,2.3445832
1541,11541,Hôpital du Vésinet,,,,,,,,,,,48.880326399999994,2.129172
1542,11542,Hôpital départemental Dufresne Sommeiller,,,,,,+33 4 50 35 30 30,,,,,46.1355901,6.4114987999999995
1543,11543,Hôpital départemental local de Reignier,,,,,,,,,,,46.1356524,6.2709306
1544,11544,Hôpital fondation Xavier-Jourdain,,,,,,,,,,,48.015459299999996,7.527068400000001
1545,11545,Hôpital gériatrique Charial,,,,,,,,,,,45.7503341,4.7539668
1546,11546,Hôpital gériatrique Frédéric Dugoujon,,,,,,,,,,,45.7873437,4.8384936
1547,11547,Hôpital gériatrique Pierre Garaud,,,,,,+33472168002,,,no,,45.7477649,4.7895022
1548,11548,Hôpital gériatrique de Fourvière,,,,,,,,,,,45.760495,4.818785
1549,11549,Hôpital gériatrique des Acacias,,,,,,,,,,,43.3845379,0.045606400000000005
1550,11550,Hôpital intercommunal Ensisheim Neuf-Brisach,,,,,,+33 3 89 81 12 55,,,,,47.86775,7.3497
1551,11551,Hôpital intercommunal du Pays de Retz,,,,,,,,,,,47.1105747,-2.0663207999999997
1552,11552,Hôpital intercommunal du Val d'Argent,,,,,,+33 3 89 22 42 22,,,,,48.244252,7.175671899999999
1553,11553,Hôpital la Providence,,,,,,,,,,,43.618893,3.161135
1554,11554,Hôpital local,Route de Bort,,,,,,,,,,45.3407731,2.7521747000000003
1555,11555,Hôpital local,,,,,,,,,,,44.27681,5.271753599999999
1556,11556,Hôpital local,,,,,,,,,,,45.637143,4.389635
1557,11557,Hôpital local Dumonté,,,,,,+33 2 51 26 08 00,,,,,46.722614,-2.352799
1558,11558,Hôpital local de Benfeld,,,,,,,,,,,48.3691398,7.5957859
1559,11559,Hôpital local de Bussang,,,,,,+33 3 29 61 50 40,,,,,47.888057,6.858637
1560,11560,Hôpital local de Castellane,,,,,,,,,,,43.8462485,6.5086672
1561,11561,Hôpital local de Condrieu,,,,,,,,,,,45.461165,4.7664029999999995
1562,11562,Hôpital local de Crépy-en-Valois,,,,,,+33 3 44 59 11 19,,,,,49.234349,2.88817
1563,11563,Hôpital local de Lamarche,,,,,,+33 3 29 09 50 28,,,no,,48.0707114,5.7806486
1564,11564,Hôpital local de Melle,,,,,,,,,,,46.2280419,-0.15285729999999997
1565,11565,Hôpital local de Montfort,Rue Saint-Nicolas,,,,,,,,no,,48.1375116,-1.9518643
1566,11566,Hôpital local de Munster,,,,,,+33 3 89 77 30 12,,,,,48.043519599999996,7.131446799999999
1567,11567,Hôpital local de Muret,,,,,,,,,,,43.4444571,1.3119393999999998
1568,11568,Hôpital local de Pompey,,,,,,,,,,,48.764758,6.119495
1569,11569,Hôpital local de Sancerre,,,,,,+33 2 48 78 52 00,,,,,47.3332409,2.8377607000000005
1570,11570,Hôpital local de Senones,,,,,,,,,no,,48.3964549,6.974831900000001
1571,11571,Hôpital local d’Uzès,,,,,,+33 4 66637100,,,,,44.0048933,4.4174002
1572,11572,Hôpital local sud-ouest mayennais - Site de Renazé,Rue Louis Daudier,,,,,+33 2 43 09 27 00,,,,,47.7954354,-1.0668714
1573,11573,Hôpital neurologique Pierre Wertheimer,,,,,,,,,,,45.7495952,4.8994606
1574,11574,Hôpital privé Arras Les Bonnettes,,,,,,+33 8 26 30 20 10,,,,,50.3055078,2.7353728
1575,11575,Hôpital privé Bois-Bernard,,,,,,+33 3 74 82 00 00,,,,,50.377041999999996,2.9083243999999997
1576,11576,Hôpital privé Clairval,,,,,,+33 4 28 630 630,,,no,,43.2487806,5.4260606
1577,11577,Hôpital privé Claude Galien,,,,,,+33 1 69 39 90 00,,,yes,,48.6813731,2.5392053
1578,11578,Hôpital privé Dijon Bourgogne,,,,,,+33 3 74 82 21 21,,,yes,,47.363556700000004,5.051372
1579,11579,Hôpital privé Jacques Cartier,,,,,,+33 1 60 13 60 60,,,yes,,48.7311506,2.292132
1580,11580,Hôpital privé Jean Mermoz,,,,,,,,,,,45.7372062,4.875547900000001
1581,11581,Hôpital privé La Casamance,,,,,,+33 4 91 88 40 00,,,yes,,43.276357,5.530522
1582,11582,Hôpital privé Paul d'Égine,,,,,,+33 1 86 86 66 00,,,yes,,48.8112376,2.5158742000000003
1583,11583,Hôpital privé Saint-Claude,,,,,,+33 8 26 20 71 02,,,yes,,49.859543,3.3088949999999997
1584,11584,Hôpital privé Saint-François,,,,,,+33 8 26 39 99 29,,,yes,,46.3450363,2.6178065
1585,11585,Hôpital privé Saint-Martin,,,,,,+33 8 26 46 14 00,,,yes,,49.198440999999995,-0.380842
1586,11586,Hôpital privé d'Eure-et-Loir,Rue Roland Buthier,,,,,+33 2 37 18 41 00,,,yes,,48.4567104,1.4512883
1587,11587,Hôpital privé de Marne-Chantereine,,,,,,+33 1 64 72 74 00,,,yes,,48.886169200000005,2.6307723999999997
1588,11588,Hôpital privé de Parly 2 Le Chesnay,,,,,,+33 1 39 63 70 00,,,yes,,48.8304045,2.1195547
1589,11589,Hôpital privé de Provence,,,,,,+33 4 42 33 88 00,,,yes,,43.503718400000004,5.4368004999999995
1590,11590,Hôpital privé de Thiais,,,,,,+33 1 45 60 28 28,,,yes,,48.7686056,2.3697774
1591,11591,Hôpital privé de Vitry - Site Pasteur,Rue de la Petite Saussaie,,,,,+33 1 45 73 35 35,,,yes,,48.7856296,2.389518
1592,11592,Hôpital privé de l'Est Lyonnais,,,,,,+33 8 26 96 99 99,,,yes,,45.716753600000004,4.9253367
1593,11593,Hôpital privé de l'Estuaire,Rue Irène Joliot-Curie,,,,,+33 8 25 74 75 76,,,yes,,49.5281375,0.1014063
1594,11594,Hôpital privé de l'Ouest Parisien,,,,,,+33 1 86 86 78 78,,,yes,,48.7776026,1.9884342000000002
1595,11595,Hôpital privé du Confluent,,,,,,+33 2 28 25 50 00,,,yes,,47.195599,-1.5488153999999998
1596,11596,Hôpital privé du Val d'Yerres,Avenue de l'Abbaye,,,,,+33 8 26 30 04 00,,,yes,,48.712334000000006,2.495501
1597,11597,Hôpital privé les Franciscaines,,,,,,,,,,,43.848401200000005,4.3754018
1598,11598,Hôpital Édouard Herriot,,,,,,,,,yes,,45.7433595,4.8799898
1599,11599,Hôpital Émile Muller,,,,,,+33 3 89 64 64 64,,,yes,,47.7255601,7.338971300000001
1600,11600,Hôpital Émile Roux,,,,,,,,,no,,48.746975,2.4856232000000005
1601,11601,Hôpital-Maison de Retraite Schweitzer,,,,,,,,,,,50.289346200000004,4.102094999999999
1602,11602,Hôpitaux Drôme-Nord,,,,,,+33 4 75 05 75 05,,,yes,,45.0400386,5.0208874
1603,11603,Hôpitaux Drôme-Nord - Site de Saint-Vallier,,,,,,+33 4 75 23 80 00,,,yes,,45.1703073,4.8214078
1604,11604,Hôpitaux Universitaires de Strasbourg Lyautey,,,,,,,,,,,48.5530213,7.765611900000001
1605,11605,Hôpitaux de Lannemezan,,,,,,+33 5 62 99 55 55,,,yes,,43.118720700000004,0.4119516
1606,11606,Hôpitaux des Portes de Camargue,,,,,,,,,,,43.7993313,4.6658599
1607,11607,Hôpitaux du Léman,Avenue de la Dame,,,,,,,,yes,,46.3596027,6.478303299999999
1608,11608,Hôpitaux du Mont-Blanc - Site de Sallanches,,,,,,+33 4 50 47 30 30,,,yes,,45.934597,6.641450999999999
1609,11609,Hôtel Dieu,Rue du Docteur Maunoury,,,,,+33237303030,,,no,,48.439678,1.481991
1610,11610,Hôtel Dieu,,,,,,,,,no,,48.11911129999999,-1.6783561000000002
1611,11611,Hôtel-Dieu,,,,,,+33 1 42 34 82 34,,,yes,,48.853967299999994,2.3481897000000003
1612,11612,Hôtel-Dieu,,,,,,+33 2 98 82 40 40,,,yes,,47.863772999999995,-4.222757
1613,11613,Hôtel-Dieu,Place de l'Hôpital,,,,,,,,,,46.4309117,4.6595079
1614,11614,Hôtel-Dieu,,,,,,+33 4 68 42 60 00,,,yes,,43.181001,2.99916
1615,11615,I..M.E. Les Sorinières,Rue des Papillons,,,,,,,,,,47.147556200000004,-1.5203463
1616,11616,IME de Villaine,,,,,,,,,no,,46.4119723,-0.2374285
1617,11617,IRM 74,Rue de la Césière,,,,,,,,no,,45.8813081,6.115130799999999
1618,11618,Infirmerie Protestante,,,,,,,,,,,45.786939600000004,4.835396299999999
1619,11619,Infirmerie de Vavouto,,,,,,,,,,,-21.0095823,164.7019852
1620,11620,Institut Arnault Tzanck,,,,,,+33 4 92 27 33 33,,,yes,,43.660773999999996,7.1875101
1621,11621,Institut Bergonié,,,,,,,,,,,44.823794,-0.5795852
1622,11622,Institut Daniel Hollard,Rue du Docteur Hermite,,,,,,,,,,45.181478799999994,5.7093821
1623,11623,Institut Européen de Chirurgie Esthétique et Plastique,,,,,,,,,,,48.844834999999996,2.2316
1624,11624,Institut Gustave Roussy,Rue Édouard Vaillant,,,,,+33 1 42 11 42 11,,,no,,48.795800899999996,2.3496639999999998
1625,11625,Institut Hélio-Marin,,,,,,,,,no,,43.590729700000004,-1.4390038
1626,11626,Institut Marcel Rivière,,,,,,,,,,,48.7530877,1.9467519
1627,11627,Institut Mutualiste Montsouris,,,,,,,,,,,48.8229266,2.3322685
1628,11628,Institut Médical de Breteuil,,,,,,,,,no,,49.6313763,2.2984647000000002
1629,11629,Institut Médical de Serris,Cours du Rhin,,,,,,,,,,48.85699279999999,2.783067
1630,11630,Institut Médico-Educatif,,,,,,,,,,,43.8355465,4.3408280999999995
1631,11631,Institut Médico-Educatif,,,,,,,,,,,43.228148,6.277769999999999
1632,11632,Institut Médico-Educatif La Faisanderie,,,,,,,,,,,49.3904961,2.8746347
1633,11633,Institut Paoli-Calmettes,Boulevard de Sainte-Marguerite,,,,,,,,,,43.2619727,5.4062264
1634,11634,Institut Robert Merle d'Aubigné,rue Emilion Michaut et Lucien Rabeux,,,,,+33 1 45 10 80 80,,,,,48.750162700000004,2.4648662
1635,11635,Institut Régional de Médecine Physique et de Réadaptation,,,,,,+33 3 83 52 97 00,,,no,,48.686837,6.195386
1636,11636,Institut Saine Catherine,,,,,,,,,,,43.9221461,4.799392299999999
1637,11637,Institut de Cancérologie Jean Godinot,,,,,,+33 3 26 50 44 44,,,,,49.2264364,4.0198398
1638,11638,Institut de Cancérologie du Gard,,,,,,+33 4 66 68 68 68,,,,,43.8219216,4.3229974
1639,11639,Institut hospitalier franco-britannique - Site Barbès,,,,,,+33 1 47 59 59 59,,,,,48.8900427,2.2808732000000003
1640,11640,Institut régional du Cancer de Montpellier,,,,,,,,,,,43.6442024,3.8407623999999996
1641,11641,Korian Le Belvédère,Avenue de la Plage,,,,,,,,no,,43.598186,-1.4696200000000001
1642,11642,L'Arc en Ciel,,,,,,,,,,,47.2725279,0.8564722
1643,11643,L'Escale,,,,,,,,,no,,50.696122100000004,3.1872522
1644,11644,L'Hospitalet,Rue Pasteur,,,,,,,,,,47.7541069,0.8742995000000001
1645,11645,La Cigogne,,,,,,+33 2 38 51 75 00,,,,,47.9386495,1.8805881000000002
1646,11646,La Maison Basque,,,,,,,,,,,43.3603405,-1.40321
1647,11647,La Martinière,,,,,,,,,,,48.7209036,2.1872427000000005
1648,11648,La Roseraie,,,,,,,,,,,48.8627256,2.5450894
1649,11649,Laboratoire d'analyses médicales Wierre,,,,,,,,,no,,50.5269748,3.1699629000000002
1650,11650,Le Clos d'Alban,La Marquetterie,,,,,+33 2 47 65 72 72,,,no,,47.2613484,0.9108331000000001
1651,11651,Le Lanot centre de soins pour personnes Âgées,,,,,,,,,,,43.691354499999996,-1.0759463
1652,11652,Le Normandy,,,,,,+33 2 33 90 33 33,,,no,,48.839301,-1.598033
1653,11653,Le Normandy II,,,,,,+33 2 33 90 33 33,,,,,48.8271901,-1.5709407
1654,11654,Le Valmont,,,,,,,,,no,,44.5717531,4.7858634
1655,11655,Le cantou,,,,,,,,,no,,46.3692709,5.909513
1656,11656,Les Cariatides d'Abbeville,,,,,,,,,,,48.8786725,2.3502123
1657,11657,Les Jardins de Sophia,,,,,,,,,,,43.624278100000005,3.9087503
1658,11658,Les Pins,,,,,,,,,,,47.591306,2.028134
1659,11659,Les Pins,,,,,,,,,,,47.591306,2.028134
1660,11660,Les Résédas,,,,,,,,,,,43.656374799999995,3.90352
1661,11661,Les Vallons,,,,,,+33 4 42 43 28 25,,,,,43.419866600000006,5.036593700000001
1662,11662,Louis Rollin,,,,,,,,,,,-8.9152922,-140.0924142
1663,11663,Luppach,,,,,,,,,,,47.5056322,7.329223
1664,11664,L’Hôpital Nord-Ouest Tarare,Boulevard Garibaldi,,,,,+33 4 74 05 46 46,,,yes,,45.8888465,4.440686
1665,11665,MAS Le Rosier Blanc,Place du 11 Novembre,,,,,,,,,,45.269843,4.494691
1666,11666,MGEN Etablissement de Santé,,,,,,,,,,,46.0109532,5.7874344
1667,11667,Maison De Santé Pluridisciplinaire Changé 53,Rue des Rouliers,,,,,,,,,,48.096880299999995,-0.7782448000000001
1668,11668,Maison Hospitalière Saint-Charles,,,,,,,,,,,48.6860756,6.1836472
1669,11669,Maison Médicale,Rue Saint-Antoine,,,,,,,,,,50.8334166,2.2126023
1670,11670,Maison de Cure,,,,,,,,,,,50.2580508,3.9114976
1671,11671,Maison de Retraite Les Pommiers,,,,,,,,,,,50.283711,2.2960220000000002
1672,11672,Maison de Retraite l'Hermitage,,,,,,,,,no,,48.707669700000004,2.0463003
1673,11673,Maison de Santé,,,,,,,,,,,46.947790000000005,2.9534740000000004
1674,11674,Maison de Santé,Rue du Château,,,,,,,,no,,48.3200658,0.8227450999999999
1675,11675,Maison de Santé Mailhol,,,,,,,,,,,43.4781013,1.6657676
1676,11676,Maison de Santé Médicale et de Cure,,,,,,,,,,,48.05596,7.140547200000001
1677,11677,Maison de Santé Pluriprofessionnelle - PilonSanté,,,,,,,,,no,,46.7834365,4.434196400000001
1678,11678,Maison de Santé d'Espéraza,,,,,,,,,no,,42.9360981,2.2212005
1679,11679,Maison de Santé de Rauzan,Rue du Collège,,,,,+33 5 33 03 00 33,,,no,,44.7773662,-0.1228911
1680,11680,Maison de Santé et de Cure Médicale La Plaine de la Scarpe,,,,,,,,,,,50.391449,3.174618
1681,11681,Maison de cure de l'Yvette,Rue Guy Môquet,,,,,,,,,,48.7002036,2.1899450000000003
1682,11682,Maison de la Réhabilitation psycho-sociale,Rue du Pré Médard,,,,,,,,,,46.561733000000004,0.36522540000000003
1683,11683,Maison de la Santé,,,,,,,,,no,,47.864427,-2.415336
1684,11684,"Maison de repos ""Espoir""",,,,,,,,,,,50.325464000000004,2.703052
1685,11685,Maison de retraite Régina,,,,,,,,,,,47.1575415,-0.6401834
1686,11686,Maison de santé Sainte-Marthe,Traverse du Canet,,,,,,,,no,,43.3279213,5.384899099999999
1687,11687,Maison de santé St Jean,Rue Thiers,,,,,,,,no,,48.169047799999994,6.451890000000001
1688,11688,Maison de santé de Charny,,,,,,,,,,,47.887799799999996,3.0955967
1689,11689,Maison de santé de l'Epte,Rue de Gisors,,,,,,,,no,,49.2086484,1.6688441000000003
1690,11690,Maison de santé du Cézallier cantalien,,,,,,,,,,,45.342000799999994,2.7525581000000003
1691,11691,Maison de santé protestante de Bagatelle,,,,,,,,,,,44.80771370000001,-0.5736305
1692,11692,Maison des Consultations,Avenue Jacqueline Auriol,,,,,,,,,,47.940205,1.8792988000000002
1693,11693,Maison des parents Irène Joliot-Curie,,,,,,,,,,,48.84376279999999,2.3483196
1694,11694,Maison médicale,,,,,,,,,,,46.678315600000005,5.1097410000000005
1695,11695,Maison médicale Jeanne Garnier,,,,,,,,,no,,48.8466721,2.2902374
1696,11696,Marienea,,,,,,,,,,,43.3490771,-1.3992263999999999
1697,11697,Mas des Sources,,,,,,,,,,,42.5290922,2.2483003
1698,11698,Maternité,,,,,,,,,,,14.6146383,-61.0620525
1699,11699,Maternité Port Royal et Baudelocque,,,,,,,,,,,48.837960200000005,2.3389860000000002
1700,11700,Maternité Régionale Universitaire de Nancy,,,,,,,,,,,48.682794200000004,6.1882453
1701,11701,Maternité Sainte-Félicité,,,,,,,,,,,48.8395049,2.2883603999999997
1702,11702,Maternité de l'Étoile,Route de Puyricard,,,,,,,,no,,43.5733929,5.4232325999999995
1703,11703,Monastère Saint-Paul de Mausole,Avenue Docteur Edgar Leroy,,,,,,,,,,43.777084,4.83523
1704,11704,Musée Curie,,,,,,+33156245533,,,,,48.8441664,2.3448298
1705,11705,Médipôle Garonne,,,,,,,,,,,43.5647512,1.4248447
1706,11706,Médipôle Lyon-Villeurbanne,Rue Léon Blum,,,,,,,,yes,,45.760464,4.9058032
1707,11707,Médipôle de Savoie,,,,,,+33 4 79 26 80 80,,,yes,,45.545363,5.968805000000001
1708,11708,Notre-Dame de Bon Secours,,,,,,,,,,,48.828148,2.3183632999999997
1709,11709,Nouvel Hôpital d'Obernai,,,,,,+33 3 88 95 14 00,,,,,48.4559054,7.4881147
1710,11710,Nouvel Hôpital d'Épinal,Avenue Robert Schuman,,,,,,,,yes,,48.1800112,6.4518097
1711,11711,Nouvelle Clinique Bel Air,Avenue de la République,,,,,+33 826 300 606,,,,,44.8395437,-0.6067498
1712,11712,Nouvelle Clinique de Tours Plus,Boulevard Alfred Nobel,,,,,+33 2 47 88 37 37,,,yes,,47.434398,0.6667304000000001
1713,11713,P1,,,,,,,,,,,48.2899816,6.9634151
1714,11714,P2,,,,,,,,,,,48.290050799999996,6.964369099999999
1715,11715,P3,,,,,,,,,,,48.290107,6.965267699999999
1716,11716,P5,,,,,,,,,,,48.2890708,6.9649713
1717,11717,P6,,,,,,,,,,,48.2885139,6.964914500000001
1718,11718,P7,,,,,,,,,,,48.289295,6.9662534
1719,11719,P7,,,,,,,,,,,48.2885847,6.9659047
1720,11720,Paul Cezanne,,,,,,+33 4 42 65 61 00,,,,,43.4226842,5.5146968
1721,11721,Pavillon La Ferté,Rue Désiré Monnier,,,,,+33 3 84 35 61 07,,,no,,46.679789,5.5576414000000005
1722,11722,Pavillon Pasteur,,,,,,,,,,,48.843965999999995,2.3449136000000004
1723,11723,Pavillon Trouillet Rossignol,,,,,,,,,,,48.8435241,2.3438835
1724,11724,Polyclinique,Rond-Point de l'Espérance,,,,,,,,,,49.1449923,0.2572909
1725,11725,Polyclinique Bordeaux Nord Aquitaine,Rue du Docteur Finlay,,,,,+33 5 56 43 71 11,,,yes,,44.8641984,-0.5790093000000001
1726,11726,Polyclinique Bordeaux Rive-Droite,Rue des Cavailles,,,,,+33 8 26 30 04 84,,,yes,,44.8652669,-0.5230774
1727,11727,Polyclinique Bordeaux-Caudéran Les Pins Francs,Rue Jude,,,,,+33 8 26 30 16 16,,,,,44.860038700000004,-0.6241644000000001
1728,11728,Polyclinique Courlancy,Rue de Courlancy,,,,,+33 3 26 77 26 77,,,yes,,49.244699100000005,4.0189922
1729,11729,Polyclinique Côte Basque Sud,,,,,,+33 5 59 51 63 63,,,yes,,43.397864299999995,-1.6391689999999999
1730,11730,Polyclinique Deauville,,,,,,,,,,,49.3536702,0.0688852
1731,11731,Polyclinique Grande-Synthe,,,,,,+33 3 28 58 60 00,,,yes,,51.008084100000005,2.2883806
1732,11732,Polyclinique Inkermann,,,,,,+33 8 26 30 28 28,,,yes,,46.3160382,-0.4527858
1733,11733,Polyclinique Keraudren,,,,,,+33 2 98 34 29 29,,,yes,,48.430413,-4.4736827
1734,11734,Polyclinique La Pergola,Allée des Ailes,,,,,,,,,,46.150071000000004,3.4115349999999998
1735,11735,Polyclinique La Phocéanne,Route des Trois Lucs à La Valentine,,,,,,,,,,43.3045669,5.4741024000000005
1736,11736,Polyclinique Les Bleuets,,,,,,,,,,,49.24922279999999,4.016122
1737,11737,Polyclinique Les Fleurs,Avenue Frédéric Mistral - CS 10100,,,,,+33 4 83 08 62 57,,,,,43.12668,5.8783197
1738,11738,Polyclinique Lyon-Nord Rillieux,,,,,,+33 8 26 28 29 30,,,yes,,45.8200516,4.8870778
1739,11739,Polyclinique Majorelle,,,,,,,,,,,48.7005109,6.1448309000000005
1740,11740,Polyclinique Marzet,,,,,,+33 5 59 92 72 72,,,yes,,43.3045811,-0.36609400000000003
1741,11741,Polyclinique Montier La Celle,,,,,,,,,,,48.2847412,4.0574739
1742,11742,Polyclinique Montréal,,,,,,+33 8 26 30 53 53,,,yes,,43.2139799,2.3284216
1743,11743,Polyclinique Médipôle Saint-Roch,,,,,,+33 4 28 63 10 10,,,yes,,42.689640000000004,2.9348617000000004
1744,11744,Polyclinique Quimper-Sud,Rue Gustave Flaubert,,,,,+33 2 98 98 33 33,,,limited,,47.9826188,-4.1005681
1745,11745,Polyclinique Saint-Christophe,,,,,,,,,,,15.8806449,-61.312997200000005
1746,11746,Polyclinique Saint-Côme,,,,,,+33 3 44 92 43 43,,,yes,,49.4042629,2.8101984
1747,11747,Polyclinique Saint-François,,,,,,,,,yes,,43.7225956,7.2818863
1748,11748,Polyclinique Saint-George,,,,,,+33 4 93 81 71 50,,,yes,,43.734018799999994,7.2783123
1749,11749,Polyclinique Saint-Georges,,,,,,+33 5 46 05 07 94,,,yes,,45.603302500000005,-1.0043741
1750,11750,Polyclinique Saint-Jean,,,,,,+33 8 26 30 20 66,,,yes,,43.6196756,3.8715412000000002
1751,11751,Polyclinique Saint-Laurent,,,,,,,,,,,48.1384865,-1.6582756999999997
1752,11752,Polyclinique Saint-Roch,Avenue du Colonel Pavelet,,,,,+33 8 26 88 88 82,,,yes,,43.5831969,3.8607864000000003
1753,11753,Polyclinique Sainte-Thérèse,,,,,,,,,,,43.408477500000004,3.704626
1754,11754,Polyclinique St Odilon,,,,,,,,,,,46.542446500000004,3.3364133000000002
1755,11755,Polyclinique Vauban,,,,,,+33 8 26 20 42 52,,,yes,,50.3606359,3.5117347999999997
1756,11756,Polyclinique d'Arès,,,,,,+33 5 56 03 87 00,,,yes,,44.753485999999995,-1.1279024
1757,11757,Polyclinique de Blois,,,,,,,,,,,47.615271500000006,1.3392024
1758,11758,Polyclinique de Franche-Comté,Rue Auguste Rodin,,,,,+33 3 81 41 81 41,,,,,47.21575479999999,5.9805315000000006
1759,11759,Polyclinique de Gentilly,,,,,,+33 8 25 12 18 25,,,yes,,48.7021515,6.140506299999999
1760,11760,Polyclinique de Maisons-Laffitte,,,,,,+33 1 30 86 36 36,,,yes,,48.95052570000001,2.1531476
1761,11761,Polyclinique de Navarre,,,,,,+33 5 59 14 54 54,,,,,43.324345,-0.3490258
1762,11762,Polyclinique de Picardie,,,,,,+33 3 22 33 33 33,,,,,49.870681,2.2964580000000003
1763,11763,Polyclinique de Poitiers,,,,,,+33 5 49 61 70 00,,,yes,,46.564296,0.366417
1764,11764,Polyclinique de Riaumont,,,,,,+33 3 21 44 80 80,,,yes,,50.4151347,2.7841011000000004
1765,11765,Polyclinique de Villeneuve Saint-Georges,Rue de Crosne,,,,,,,,,,48.721778,2.450731
1766,11766,Polyclinique de l'Adour,,,,,,+33 5 58 06 64 64,,,yes,,43.712742999999996,-0.2437538
1767,11767,Polyclinique de l'Ormeau,,,,,,+33 5 62 56 99 14,,,yes,,43.2256287,0.0770492
1768,11768,Polyclinique de la Clarence,,,,,,+33 3 21 54 90 00,,,yes,,50.4784196,2.4891501
1769,11769,Polyclinique de la Thiérache,,,,,,,,,,,50.0280225,4.014126999999999
1770,11770,Polyclinique des 3 Frontières,,,,,,+33 8 26 30 37 37,,,yes,,47.581785700000005,7.5510281
1771,11771,Polyclinique des Alpes du Sud,Rue Antonin Coronat,,,,,+33 4 92 40 15 15,,,,,44.5699011,6.0709709
1772,11772,Polyclinique des Trois Vallées,Route de Saint-Pons,,,,,+33 4 67 95 56 56,,,yes,,43.608193799999995,3.1503692
1773,11773,Polyclinique du Beaujolais,,,,,,+33 8 26 96 90 00,,,yes,,46.010440100000004,4.7064744
1774,11774,Polyclinique du Cotentin,,,,,,,,,,,49.6356301,-1.6578873
1775,11775,Polyclinique du Grand Sud,,,,,,+33 4 66 04 33 04,,,yes,,43.8169683,4.3543552000000005
1776,11776,Polyclinique du Maine,Avenue des Français Libres,,,,,,,,,,48.0587501,-0.7870862
1777,11777,Polyclinique du Parc,Route de Behonne,,,,,+33 3 29 79 58 58,,,,,48.7865946,5.164456400000001
1778,11778,Polyclinique du Parc,,,,,,+33 8 25 27 82 82,,,yes,,49.167155,-0.34610040000000003
1779,11779,Polyclinique du Parc,,,,,,,,,,,47.097308500000004,5.5064842
1780,11780,Polyclinique du Parc,,,,,,,,,,,50.2815771,3.9875219
1781,11781,Polyclinique du Plateau,,,,,,,,,,,48.933597999999996,2.2039561
1782,11782,Polyclinique du Sidobre,,,,,,+33 8 26 39 99 38,,,yes,,43.5973172,2.2690985
1783,11783,Polyclinique du Sud de la Corse,,,,,,+33 4 95 73 80 00,,,yes,,41.598201200000005,9.276226800000002
1784,11784,Polyclinique du Ternois,,,,,,+33 3 21 47 40 40,,,,,50.3868875,2.3368611
1785,11785,Polyclinique du Trégor,,,,,,,,,,,48.724746200000006,-3.4417562999999993
1786,11786,Polyclinique du Val de Saône,,,,,,+33 3 85 23 23 23,,,,,46.317069700000005,4.8100656
1787,11787,Polyclinique mantaise,,,,,,,,,,,48.9836494,1.7165841
1788,11788,Poste de Secours,,,,,,,,,,,46.0275765,6.3248826
1789,11789,Poste de secours Entrée Nord,,,,,,,,,,,47.9558359,0.20710789999999998
1790,11790,Psychiatrie infanto juvénile,Rue Haemers,,,,,+33 2 32 70 47 80,,,,,49.620034000000004,0.7525729999999999
1791,11791,Pôle Hospitalier Gériatrique,,,,,,,,,,,49.2081827,6.6891522
1792,11792,Pôle Saint-Hélier,,,,,,,,,no,,48.1066469,-1.6695071
1793,11793,Pôle Santé,,,,,,,,,,,47.67848060000001,-0.8665567
1794,11794,Pôle Santé,,,,,,,,,,,44.0462283,5.0289470000000005
1795,11795,Pôle Santé Léonard de Vinci,,,,,,+33 2 47 22 21 11,,,yes,,47.3365205,0.6889329000000001
1796,11796,Pôle Santé Oréliance,Avenue Jacqueline Auriol,,,,,+33 2 38 79 60 00,,,yes,,47.939732799999994,1.8816973999999997
1797,11797,Pôle Santé Professeur Louis Serre,,,,,,,,,yes,,43.6643151,4.1246796
1798,11798,Pôle Santé République,,,,,,+33 8 26 30 44 99,,,yes,,45.786958500000004,3.1045367
1799,11799,Pôle Santé Sarthe et Loir,La Chasse du Point du Jour,,,,,+33 2 44 71 30 00,,,yes,,47.7742335,-0.2100708
1800,11800,Pôle d'Hospitalisation Psychiatrique,,,,,,,,,,,44.8544447,0.5009642
1801,11801,Pôle de Santé du Plateau,Avenue de Villacoublay,,,,,+33 1 41 28 10 00,,,yes,,48.784431299999994,2.232304
1802,11802,Pôle de Santé du Villeneuvois,,,,,,+33 5 53 72 23 23,,,yes,,44.408162899999994,0.7448665
1803,11803,Pôle de consultations Tassigny,Avenue de Lattre de Tassigny,,,,,+33 2 41 44 71 71,,,,,47.447183,-0.538197
1804,11804,Pôle de santé,,,,,,,,,,,47.4048454,2.9278035
1805,11805,Pôle hospitalier des Escartons,,,,,,,,,,,44.9128775,6.6287366
1806,11806,Pôle logistique du CHU,,,,,,,,,,,49.2270665,4.0253045
1807,11807,Pôle médical de Sémaphore,Rue Lucie et Raymond Aubrac,,,,,,,,no,,45.8357903,3.0939056000000003
1808,11808,Rue Jacques Delpeuch,,,,,,,,,,,44.9008987,4.8785487000000005
1809,11809,SMUR Antenne de Quillan,,,,,,,,,,,42.8813417,2.1854451
1810,11810,SMUR de Lille,,,,,,,,,,,50.61046270000001,3.0389529
1811,11811,SSR Betharram,Boulevard de la Paix,,,,,+33 2 31 46 85 85,,,,,49.1937705,-0.32657240000000004
1812,11812,SSR Val Rosay,,,,,,,,,no,,45.7964902,4.810877099999999
1813,11813,Samuker,Rue Louison,,,,,,,,,,-49.3497282,70.21848179999999
1814,11814,San Salvadour,,,,,,,,,no,,43.086150700000005,6.1101185
1815,11815,Service Hospitalier Frédéric Joliot,,,,,,,,,,,48.6986704,2.1855839
1816,11816,Service psychothérapique pour enfants et adolescents,,,,,,,,,,,48.5652415,7.7179248
1817,11817,Services institutionnels,,,,,,,,,,,48.843594200000005,2.344925
1818,11818,Site Henry Dunant,Rue d'Aprigny,,,,,,,,,,49.281099,-0.704983
1819,11819,Site de Psychiatrie Henri Laborit,,,,,,,,,,,45.1721087,1.5366628
1820,11820,Site des Gadeaux,,,,,,,,,,,47.08379779999999,2.4327026000000003
1821,11821,Soins de Suite et de Réadaptation Les Claveries,,,,,,,,,,,47.4865562,-0.5050551999999999
1822,11822,Thermes de Préchaq-les-Bains,,,,,,,,,,,43.766072799999996,-0.9316690000000001
1823,11823,Toki Eder,,,,,,,,,,,43.3618816,-1.3944806
1824,11824,Tour Marcel Brot,,,,,,,,,,,48.6776076,6.2030345
1825,11825,Tour des Cèdres,Rue de la Vialle,,,,,,,,,,45.269409,4.4965720000000005
1826,11826,UMD Louis Crocq,Chemin du Séminaire du Roc,,,,,,,,no,,43.9133857,2.1881616000000004
1827,11827,Unité Hospitalière Sécurisée Interrégionale,,,,,,,,,,,50.6096299,3.0289512000000003
1828,11828,Unité Médico-Psychologique pour Jeunes Enfants (UMPJE),,,,,,,,,,,44.3448364,2.5556842
1829,11829,Unité de Santé Mentale pour Adultes,,,,,,,,,,,50.957606,1.884875
1830,11830,Unité de Soins de Longue Durée Saint-Stanislas,,,,,,,,,,,48.6861094,6.1860555
1831,11831,Unité de chirurgie ambulatoire,,,,,,,,,,,48.060046,-2.960339
1832,11832,Unité de décontamination,,,,,,,,,,,50.6115518,3.0388064
1833,11833,Unité de psychiatrie Le Grandvallier,,,,,,+33 3 81 38 64 43,,,,,46.90341420000001,6.370851200000001
1834,11834,Urgences - Cardiologie,,,,,,,,,yes,,45.270927,1.7713310000000002
1835,11835,Urgences mère-enfant,,,,,,,,,,,45.482171799999996,4.3646783
1836,11836,Village Santé,,,,,,,,,,,47.457856,-0.5146943
1837,11837,Village santé,,,,,,,,,,,47.291066,-0.9836940000000001
1838,11838,centre hospitalier de Craponne sur Arzon,,,,,,,,,,,45.3274537,3.8402977
1839,11839,clinique des queyriaux,,,,,,,,,,,45.729615,3.2057702999999997
1840,11840,clinique du Campus,,,,,,,,,,,49.8676911,2.2754022999999997
1841,11841,dentistes,,,,,,,,,,,44.392263,-1.1645860000000001
1842,11842,hôpital femme-enfant-adolescent - CHU de Nantes,Boulevard Jean-Monnet,,,,,,,,,,47.2093611,-1.5515118
1843,11843,institut médico-éducatif spécialisé pour enfants,,,,,,,,,,,47.2184035,2.9900242
1844,11844,maison de Retraite Valentine,,,,,,,,,,,48.5165753,2.2977437000000003
1845,11845,maison de retraite,,,,,,,,,,,49.0473953,7.421879799999999
1846,11846,maison de santé,,,,,,,,,,,46.9627303,-1.1175975
1847,11847,maison médicale,,,,,,,,,no,,45.3235514,5.5622498
1848,11848,service MPEA,,,,,,,,,,,43.5956493,3.8434875
1849,11849,École de Sages-Femmes,,,,,,,,,,,48.682794200000004,6.1882453
1850,11850,Établissement Hospitalier Sainte-Marie,,,,,,,,,,,48.962691,2.534757
1851,11851,Établissement Public de Santé Alsace Nord,,,,,,,,,,,48.7156375,7.7085757
1852,11852,Établissement Public de Santé Mentale,,,,,,,,,no,,50.6819727,2.887277
1853,11853,Établissement Public de Santé Mentale de l'Aisne,,,,,,,,,,,49.547937700000006,3.4067038
1854,11854,Établissement de Santé Mentale Portes de l'Isère,,,,,,,,,,,45.5995768,5.247746599999999
1855,11855,Établissement français du sang,,,,,,,,,,,46.7985965,1.6983558999999997
1856,11856,Établissement public de santé mentale,,,,,,,,,,,47.699400700000005,-2.7601701000000003
1857,11857,Établissement public de santé mentale des Flandres,,,,,,,,,no,,50.7433409,2.7426001
