,name,address,city,state,zip,phone,LAT,LON,hasSpecialties,ADDICTION MEDICINE,ADVANCED HEART FAILURE AND TRANSPLANT CARDIOLOGY,ALLERGY/IMMUNOLOGY,ANESTHESIOLOGY,ANESTHESIOLOGY ASSISTANT,AUDIOLOGIST,CARDIAC ELECTROPHYSIOLOGY,CARDIAC SURGERY,CARDIOVASCULAR DISEASE (CARDIOLOGY),CERTIFIED NURSE MIDWIFE,CERTIFIED REGISTERED NURSE ANESTHETIST,CHIROPRACTIC,CLINICAL NURSE SPECIALIST,CLINICAL PSYCHOLOGIST,CLINICAL SOCIAL WORKER,COLORECTAL SURGERY (PROCTOLOGY),CRITICAL CARE (INTENSIVISTS),DENTIST,DERMATOLOGY,DIAGNOSTIC RADIOLOGY,EMERGENCY MEDICINE,ENDOCRINOLOGY,FAMILY PRACTICE,GASTROENTEROLOGY,GENERAL PRACTICE,GENERAL SURGERY,GERIATRIC MEDICINE,GERIATRIC PSYCHIATRY,GYNECOLOGICAL ONCOLOGY,HAND SURGERY,HEMATOLOGY,HEMATOLOGY/ONCOLOGY,HEMATOPOIETIC CELL TRANSPLANTATION AND CELLULAR TH,HOSPICE/PALLIATIVE CARE,HOSPITALIST,INFECTIOUS DISEASE,INTERNAL MEDICINE,INTERVENTIONAL CARDIOLOGY,INTERVENTIONAL PAIN MANAGEMENT,INTERVENTIONAL RADIOLOGY,MAXILLOFACIAL SURGERY,MEDICAL ONCOLOGY,NEPHROLOGY,NEUROLOGY,NEUROPSYCHIATRY,NEUROSURGERY,NUCLEAR MEDICINE,NURSE PRACTITIONER,OBSTETRICS/GYNECOLOGY,OCCUPATIONAL THERAPY,OPHTHALMOLOGY,OPTOMETRY,ORAL SURGERY,ORTHOPEDIC SURGERY,OSTEOPATHIC MANIPULATIVE MEDICINE,OTOLARYNGOLOGY,PAIN MANAGEMENT,PATHOLOGY,PEDIATRIC MEDICINE,PERIPHERAL VASCULAR DISEASE,PHYSICAL MEDICINE AND REHABILITATION,PHYSICAL THERAPY,PHYSICIAN ASSISTANT,PLASTIC AND RECONSTRUCTIVE SURGERY,PODIATRY,PREVENTATIVE MEDICINE,PSYCHIATRY,PULMONARY DISEASE,RADIATION ONCOLOGY,REGISTERED DIETITIAN OR NUTRITION PROFESSIONAL,"RHEUMATOLOGY,",SLEEP MEDICINE,SPEECH LANGUAGE PATHOLOGIST,SPORTS MEDICINE,SURGICAL ONCOLOGY,THORACIC SURGERY,UNDEFINED PHYSICIAN TYPE (SPECIFY),"UROLOGY,",VASCULAR SURGERY,id
0,ASTBTP,nan nan,Saint-Paul-lès-Durance,Bouches-du-Rhône,13115,,43.6982571,5.7346711,False,,,,,,,,,,,,,,,,,,,,,,,,,,,,,,,,,,,,,,,,,,,,,,,,,,,,,,,,,,,,,,,,,,,,,,,,,,,,,,,,10000
1,AURAR,nan nan,Saint-Benoît,Réunion,97470,,-21.0575248,55.7109886,False,,,,,,,,,,,,,,,,,,,,,,,,,,,,,,,,,,,,,,,,,,,,,,,,,,,,,,,,,,,,,,,,,,,,,,,,,,,,,,,,10001
2,Adapt thionis,nan nan,Thionville,Grand Est,57100,,49.3654293,6.1445024,False,,,,,,,,,,,,,,,,,,,,,,,,,,,,,,,,,,,,,,,,,,,,,,,,,,,,,,,,,,,,,,,,,,,,,,,,,,,,,,,,10002
3,Agduc dialyse,Route des Bois 11,Voiron,Isère,38500,,45.3493247,5.5667099,False,,,,,,,,,,,,,,,,,,,,,,,,,,,,,,,,,,,,,,,,,,,,,,,,,,,,,,,,,,,,,,,,,,,,,,,,,,,,,,,,10003
4,Annexe du breuil,nan nan,Saint-Rémy-en-Comté,Haute-Saône,70160,,47.8369503,6.0885785,False,,,,,,,,,,,,,,,,,,,,,,,,,,,,,,,,,,,,,,,,,,,,,,,,,,,,,,,,,,,,,,,,,,,,,,,,,,,,,,,,10004
5,Association Rima Here,nan nan,Faa'a,,,,-17.5580698,-149.6003327,False,,,,,,,,,,,,,,,,,,,,,,,,,,,,,,,,,,,,,,,,,,,,,,,,,,,,,,,,,,,,,,,,,,,,,,,,,,,,,,,,10005
6,Axium,Avenue Albert Capus 21,Aix-en-Provence,Bouches-du-Rhône,13100,+33 4 42 95 72 72,43.5349046,5.4347515,False,,,,,,,,,,,,,,,,,,,,,,,,,,,,,,,,,,,,,,,,,,,,,,,,,,,,,,,,,,,,,,,,,,,,,,,,,,,,,,,,10006
7,Barr Héol,nan nan,Bréhan,Bretagne,56580,,48.05261,-2.686719,False,,,,,,,,,,,,,,,,,,,,,,,,,,,,,,,,,,,,,,,,,,,,,,,,,,,,,,,,,,,,,,,,,,,,,,,,,,,,,,,,10007
8,Belle Allée,Route d'Orléans 24,Chaingy,Centre-Val de Loire,45380,,47.872864,1.796836,False,,,,,,,,,,,,,,,,,,,,,,,,,,,,,,,,,,,,,,,,,,,,,,,,,,,,,,,,,,,,,,,,,,,,,,,,,,,,,,,,10008
9,CDPS Saül,nan nan,Saül,,,,3.6234095,-53.2095671,False,,,,,,,,,,,,,,,,,,,,,,,,,,,,,,,,,,,,,,,,,,,,,,,,,,,,,,,,,,,,,,,,,,,,,,,,,,,,,,,,10009
10,CENTRE DE DIALYSE STE CLOTILDE,Route du Bois de Nèfles 127,Saint-Denis,Réunion,97400,,-20.9027356,55.477458,False,,,,,,,,,,,,,,,,,,,,,,,,,,,,,,,,,,,,,,,,,,,,,,,,,,,,,,,,,,,,,,,,,,,,,,,,,,,,,,,,10010
11,CENTRE DE RADIOLOGIE DE GRANDE-TERRE,nan nan,Morne-à-l'Eau,Guadeloupe,97111,,16.3312755,-61.4571486,False,,,,,,,,,,,,,,,,,,,,,,,,,,,,,,,,,,,,,,,,,,,,,,,,,,,,,,,,,,,,,,,,,,,,,,,,,,,,,,,,10011
12,CLINIQUE DE SAINTE-CLOTILDE,Rue de la Clinique 19,Saint-Denis,Réunion,97400,,-20.9026959,55.4792779,False,,,,,,,,,,,,,,,,,,,,,,,,,,,,,,,,,,,,,,,,,,,,,,,,,,,,,,,,,,,,,,,,,,,,,,,,,,,,,,,,10012
13,Cabinet D'Osteopathie,Rue de l'Eglise 36,Saint-Barthélemy,Saint-Barthélemy,97133,,17.8943824,-62.8491625,False,,,,,,,,,,,,,,,,,,,,,,,,,,,,,,,,,,,,,,,,,,,,,,,,,,,,,,,,,,,,,,,,,,,,,,,,,,,,,,,,10013
14,Cabinet Kinesitherapie,Rue du Mérinos 32,Saint-Martin-de-Crau,Bouches-du-Rhône,13310,+33 4 90 47 21 05,43.6340068,4.802882,False,,,,,,,,,,,,,,,,,,,,,,,,,,,,,,,,,,,,,,,,,,,,,,,,,,,,,,,,,,,,,,,,,,,,,,,,,,,,,,,,10014
15,Cabinet Médical,Rue Général Leclerc 98,Bernières-sur-Mer,Normandie,14990,+ 33 2 31 96 45 28,49.331574,-0.423137,False,,,,,,,,,,,,,,,,,,,,,,,,,,,,,,,,,,,,,,,,,,,,,,,,,,,,,,,,,,,,,,,,,,,,,,,,,,,,,,,,10015
16,Cabinet Médical,nan nan,Saint-Martin-de-Crau,Bouches-du-Rhône,13310,,43.6343,4.802847,False,,,,,,,,,,,,,,,,,,,,,,,,,,,,,,,,,,,,,,,,,,,,,,,,,,,,,,,,,,,,,,,,,,,,,,,,,,,,,,,,10016
17,Cabinet Médical du Rond-Point,nan nan,Pau,Nouvelle-Aquitaine,64000,,43.3076358,-0.3385619,False,,,,,,,,,,,,,,,,,,,,,,,,,,,,,,,,,,,,,,,,,,,,,,,,,,,,,,,,,,,,,,,,,,,,,,,,,,,,,,,,10017
18,Cabinet Paramédical,nan nan,Fouquières-lès-Lens,Hauts-de-France,62740,,50.4197427,2.8917318,False,,,,,,,,,,,,,,,,,,,,,,,,,,,,,,,,,,,,,,,,,,,,,,,,,,,,,,,,,,,,,,,,,,,,,,,,,,,,,,,,10018
19,Cabinet Radiologie,Rue Albert Louppe nan,Brest,Bretagne,29200,,48.4036137,-4.4704036,False,,,,,,,,,,,,,,,,,,,,,,,,,,,,,,,,,,,,,,,,,,,,,,,,,,,,,,,,,,,,,,,,,,,,,,,,,,,,,,,,10019
20,Cabinet d'Infirmières,Rue de la Madeleine 16,Baud,Bretagne,56150,,47.874506,-3.022565,False,,,,,,,,,,,,,,,,,,,,,,,,,,,,,,,,,,,,,,,,,,,,,,,,,,,,,,,,,,,,,,,,,,,,,,,,,,,,,,,,10020
21,Cabinet d'Urologie Le Lucé - Chambray-lès-Tours,nan nan,Chambray-lès-Tours,Centre-Val de Loire,37170,,47.3342982,0.6873985,False,,,,,,,,,,,,,,,,,,,,,,,,,,,,,,,,,,,,,,,,,,,,,,,,,,,,,,,,,,,,,,,,,,,,,,,,,,,,,,,,10021
22,Cabinet d'infirmière,nan nan,Cintré,Bretagne,35310,,48.1060861,-1.8707955,False,,,,,,,,,,,,,,,,,,,,,,,,,,,,,,,,,,,,,,,,,,,,,,,,,,,,,,,,,,,,,,,,,,,,,,,,,,,,,,,,10022
23,Cabinet d'infirmière,nan nan,Chelles,Seine-et-Marne,77500,,48.904329,2.587908,False,,,,,,,,,,,,,,,,,,,,,,,,,,,,,,,,,,,,,,,,,,,,,,,,,,,,,,,,,,,,,,,,,,,,,,,,,,,,,,,,10023
24,"Cabinet des Docteurs Labrouasse, Filliat et Fontaine",Chemin de la House 13,Canéjan,Nouvelle-Aquitaine,33610,,44.750832,-0.642019,False,,,,,,,,,,,,,,,,,,,,,,,,,,,,,,,,,,,,,,,,,,,,,,,,,,,,,,,,,,,,,,,,,,,,,,,,,,,,,,,,10024
25,Cabinet infirmier,Place Charles de Gaulle nan,Sizun,Bretagne,29450,+33 2 98 68 82 96,48.4058186,-4.0788631,False,,,,,,,,,,,,,,,,,,,,,,,,,,,,,,,,,,,,,,,,,,,,,,,,,,,,,,,,,,,,,,,,,,,,,,,,,,,,,,,,10025
26,Carbet Médical,nan nan,Remire-Montjoly,Guyane,97354,,4.9232358,-52.2824638,False,,,,,,,,,,,,,,,,,,,,,,,,,,,,,,,,,,,,,,,,,,,,,,,,,,,,,,,,,,,,,,,,,,,,,,,,,,,,,,,,10026
27,Centre Augustin Cauchy,nan nan,Saint-Rémy,Saône-et-Loire,71100,,46.7632919,4.8345306,False,,,,,,,,,,,,,,,,,,,,,,,,,,,,,,,,,,,,,,,,,,,,,,,,,,,,,,,,,,,,,,,,,,,,,,,,,,,,,,,,10027
28,Centre Délocalisé de Prévention et de Soins,nan nan,Régina,Guyane,97390,,4.4863576,-52.0371804,False,,,,,,,,,,,,,,,,,,,,,,,,,,,,,,,,,,,,,,,,,,,,,,,,,,,,,,,,,,,,,,,,,,,,,,,,,,,,,,,,10028
29,Centre Délocalisé de Prévention et de Soins,nan nan,Roura,Guyane,97311,,4.5741773,-52.4630145,False,,,,,,,,,,,,,,,,,,,,,,,,,,,,,,,,,,,,,,,,,,,,,,,,,,,,,,,,,,,,,,,,,,,,,,,,,,,,,,,,10029
30,Centre Feminae,nan 99,Metz,Grand Est,57070,,49.1150475,6.2107401,False,,,,,,,,,,,,,,,,,,,,,,,,,,,,,,,,,,,,,,,,,,,,,,,,,,,,,,,,,,,,,,,,,,,,,,,,,,,,,,,,10030
31,Centre Hospitalier Léopold Ollier,nan nan,Chambonas,Ardèche,07140,,44.4139698,4.1391781,False,,,,,,,,,,,,,,,,,,,,,,,,,,,,,,,,,,,,,,,,,,,,,,,,,,,,,,,,,,,,,,,,,,,,,,,,,,,,,,,,10031
32,Centre Hospitalier de Bourbon l'Archambault,Gautinière nan,Bourbon-l'Archambault,Allier,03160,,46.5800849,3.046374,False,,,,,,,,,,,,,,,,,,,,,,,,,,,,,,,,,,,,,,,,,,,,,,,,,,,,,,,,,,,,,,,,,,,,,,,,,,,,,,,,10032
33,Centre Hélio-Marin,nan nan,Banyuls-sur-Mer,Occitanie,66650,,42.4888803,3.1280335,False,,,,,,,,,,,,,,,,,,,,,,,,,,,,,,,,,,,,,,,,,,,,,,,,,,,,,,,,,,,,,,,,,,,,,,,,,,,,,,,,10033
34,Centre Jean Bernard,Rue Beauverger nan,Le Mans,Pays de la Loire,72000,,47.9990683,0.2006703,False,,,,,,,,,,,,,,,,,,,,,,,,,,,,,,,,,,,,,,,,,,,,,,,,,,,,,,,,,,,,,,,,,,,,,,,,,,,,,,,,10034
35,Centre Léonard de Vinci,nan nan,Dechy,Hauts-de-France,59187,,50.3367077,3.103971,False,,,,,,,,,,,,,,,,,,,,,,,,,,,,,,,,,,,,,,,,,,,,,,,,,,,,,,,,,,,,,,,,,,,,,,,,,,,,,,,,10035
36,Centre Medical Saint-Paul,Route de la Madeleine 2068,Cayenne,Guyane,97300,,4.9151133,-52.3223216,False,,,,,,,,,,,,,,,,,,,,,,,,,,,,,,,,,,,,,,,,,,,,,,,,,,,,,,,,,,,,,,,,,,,,,,,,,,,,,,,,10036
37,Centre Medico Psycho Pédagogique Henri Wallon,nan nan,Nantes,Pays de la Loire,44100,,47.2207314,-1.5935541,False,,,,,,,,,,,,,,,,,,,,,,,,,,,,,,,,,,,,,,,,,,,,,,,,,,,,,,,,,,,,,,,,,,,,,,,,,,,,,,,,10037
38,Centre Medico Social,nan nan,Rivière-Salée,Martinique,97215,,14.5309972,-60.982084,False,,,,,,,,,,,,,,,,,,,,,,,,,,,,,,,,,,,,,,,,,,,,,,,,,,,,,,,,,,,,,,,,,,,,,,,,,,,,,,,,10038
39,Centre Municipal de Santé,Avenue Georges Gosnat 64,Ivry-sur-Seine,Val-de-Marne,94200,,48.813711,2.3888757,False,,,,,,,,,,,,,,,,,,,,,,,,,,,,,,,,,,,,,,,,,,,,,,,,,,,,,,,,,,,,,,,,,,,,,,,,,,,,,,,,10039
40,Centre Médical,nan nan,Essay,Normandie,61500,,48.5412614,0.2447656,False,,,,,,,,,,,,,,,,,,,,,,,,,,,,,,,,,,,,,,,,,,,,,,,,,,,,,,,,,,,,,,,,,,,,,,,,,,,,,,,,10040
41,Centre Médical,nan nan,Saint-Rome-de-Cernon,Occitanie,12490,+33 5 65 62 32 09,44.0130962,2.9645348,False,,,,,,,,,,,,,,,,,,,,,,,,,,,,,,,,,,,,,,,,,,,,,,,,,,,,,,,,,,,,,,,,,,,,,,,,,,,,,,,,10041
42,Centre Médical,nan nan,Les Belleville,Savoie,73440,,45.2969007,6.579253,False,,,,,,,,,,,,,,,,,,,,,,,,,,,,,,,,,,,,,,,,,,,,,,,,,,,,,,,,,,,,,,,,,,,,,,,,,,,,,,,,10042
43,Centre Médical,nan nan,Plélan-le-Grand,Bretagne,35380,,48.0078616,-2.0895365,False,,,,,,,,,,,,,,,,,,,,,,,,,,,,,,,,,,,,,,,,,,,,,,,,,,,,,,,,,,,,,,,,,,,,,,,,,,,,,,,,10043
44,Centre Médical,nan nan,Frévent,Hauts-de-France,62270,,50.278173,2.283207,False,,,,,,,,,,,,,,,,,,,,,,,,,,,,,,,,,,,,,,,,,,,,,,,,,,,,,,,,,,,,,,,,,,,,,,,,,,,,,,,,10044
45,Centre Médical,nan nan,La Calmette,Occitanie,30190,,43.923397,4.257156,False,,,,,,,,,,,,,,,,,,,,,,,,,,,,,,,,,,,,,,,,,,,,,,,,,,,,,,,,,,,,,,,,,,,,,,,,,,,,,,,,10045
46,Centre Médical - Plein Sud,Avenue de la Vallée d'Or nan,Valloire,Savoie,73450,,45.1643846,6.4281954,False,,,,,,,,,,,,,,,,,,,,,,,,,,,,,,,,,,,,,,,,,,,,,,,,,,,,,,,,,,,,,,,,,,,,,,,,,,,,,,,,10046
47,Centre Médical Bishop,nan nan,Fort-de-France,Martinique,97200,,14.6106044,-61.0548633,False,,,,,,,,,,,,,,,,,,,,,,,,,,,,,,,,,,,,,,,,,,,,,,,,,,,,,,,,,,,,,,,,,,,,,,,,,,,,,,,,10047
48,Centre Médical Estanove,nan nan,Montpellier,Occitanie,34070,,43.6015368,3.8528766,False,,,,,,,,,,,,,,,,,,,,,,,,,,,,,,,,,,,,,,,,,,,,,,,,,,,,,,,,,,,,,,,,,,,,,,,,,,,,,,,,10048
49,Centre Médical Forum Santé La Pinède,nan nan,Montpellier,Occitanie,34080,,43.6292189,3.8178235,False,,,,,,,,,,,,,,,,,,,,,,,,,,,,,,,,,,,,,,,,,,,,,,,,,,,,,,,,,,,,,,,,,,,,,,,,,,,,,,,,10049
50,Centre Médical Le Cousson,nan nan,Digne-les-Bains,Alpes-de-Haute-Provence,04000,,44.0711609,6.2110957,False,,,,,,,,,,,,,,,,,,,,,,,,,,,,,,,,,,,,,,,,,,,,,,,,,,,,,,,,,,,,,,,,,,,,,,,,,,,,,,,,10050
51,Centre Médical Miquelon,nan nan,,,,,47.0981209,-56.3822329,False,,,,,,,,,,,,,,,,,,,,,,,,,,,,,,,,,,,,,,,,,,,,,,,,,,,,,,,,,,,,,,,,,,,,,,,,,,,,,,,,10051
52,Centre Médical Montjoy,nan nan,Briançon,Hautes-Alpes,05100,,44.9116962,6.6302358,False,,,,,,,,,,,,,,,,,,,,,,,,,,,,,,,,,,,,,,,,,,,,,,,,,,,,,,,,,,,,,,,,,,,,,,,,,,,,,,,,10052
53,Centre Médical Provence Luberon,Route d'Ansouis 27,Pertuis,Vaucluse,84120,,43.6988311,5.5017595,False,,,,,,,,,,,,,,,,,,,,,,,,,,,,,,,,,,,,,,,,,,,,,,,,,,,,,,,,,,,,,,,,,,,,,,,,,,,,,,,,10053
54,Centre Médical de L'Arlas,nan nan,Serres-Castet,Nouvelle-Aquitaine,64121,,43.3715319,-0.3735792,False,,,,,,,,,,,,,,,,,,,,,,,,,,,,,,,,,,,,,,,,,,,,,,,,,,,,,,,,,,,,,,,,,,,,,,,,,,,,,,,,10054
55,Centre Médical de Pont-de-Roide,Rue de la Résistance 3A,Pont-de-Roide-Vermondans,Doubs,25150,,47.3843727,6.7701355,False,,,,,,,,,,,,,,,,,,,,,,,,,,,,,,,,,,,,,,,,,,,,,,,,,,,,,,,,,,,,,,,,,,,,,,,,,,,,,,,,10055
56,Centre Médical de l'Espace Sud,Rue Joinville Saint-Prix 64,Rivière-Salée,Martinique,97215,,14.527635,-60.9786481,False,,,,,,,,,,,,,,,,,,,,,,,,,,,,,,,,,,,,,,,,,,,,,,,,,,,,,,,,,,,,,,,,,,,,,,,,,,,,,,,,10056
57,Centre Médico Psychologique,nan nan,Compiègne,Hauts-de-France,60200,,49.4089601,2.8143217,False,,,,,,,,,,,,,,,,,,,,,,,,,,,,,,,,,,,,,,,,,,,,,,,,,,,,,,,,,,,,,,,,,,,,,,,,,,,,,,,,10057
58,Centre Médico-Chirurgical de Touraine,rue Thérèse et René Planiol 6,Saint-Cyr-sur-Loire,Centre-Val de Loire,37540,,47.4326027,0.6701694,False,,,,,,,,,,,,,,,,,,,,,,,,,,,,,,,,,,,,,,,,,,,,,,,,,,,,,,,,,,,,,,,,,,,,,,,,,,,,,,,,10058
59,Centre Médico-Social,nan nan,Basse-Terre,Guadeloupe,97100,,15.9982739,-61.7325222,False,,,,,,,,,,,,,,,,,,,,,,,,,,,,,,,,,,,,,,,,,,,,,,,,,,,,,,,,,,,,,,,,,,,,,,,,,,,,,,,,10059
60,Centre Médico-Social Marcel Hanra,Rue Circulaire Henri Jousseaume 1,Villemomble,Seine-Saint-Denis,93250,,48.8851702,2.5109831,False,,,,,,,,,,,,,,,,,,,,,,,,,,,,,,,,,,,,,,,,,,,,,,,,,,,,,,,,,,,,,,,,,,,,,,,,,,,,,,,,10060
61,Centre Médico-psychologique Enfants,Avenue de Genève 28,Thonon-les-Bains,Haute-Savoie,74200,,46.3607587,6.4574774,False,,,,,,,,,,,,,,,,,,,,,,,,,,,,,,,,,,,,,,,,,,,,,,,,,,,,,,,,,,,,,,,,,,,,,,,,,,,,,,,,10061
62,Centre Ophtalmologie,nan nan,Marigot,,,,18.0604968,-63.0862148,False,,,,,,,,,,,,,,,,,,,,,,,,,,,,,,,,,,,,,,,,,,,,,,,,,,,,,,,,,,,,,,,,,,,,,,,,,,,,,,,,10062
63,Centre Psychothérapique Henri Theillou,nan nan,Compiègne,Hauts-de-France,60200,,49.383135,2.7884392,False,,,,,,,,,,,,,,,,,,,,,,,,,,,,,,,,,,,,,,,,,,,,,,,,,,,,,,,,,,,,,,,,,,,,,,,,,,,,,,,,10063
64,Centre Radiothérapie Oncologie Moyenne Garonne CROMG,nan nan,Agen,Nouvelle-Aquitaine,47000,,44.2085841,0.6136817,False,,,,,,,,,,,,,,,,,,,,,,,,,,,,,,,,,,,,,,,,,,,,,,,,,,,,,,,,,,,,,,,,,,,,,,,,,,,,,,,,10064
65,Centre chirurgical ADR,nan nan,Nancy,Grand Est,54100,,48.70289,6.1403477,False,,,,,,,,,,,,,,,,,,,,,,,,,,,,,,,,,,,,,,,,,,,,,,,,,,,,,,,,,,,,,,,,,,,,,,,,,,,,,,,,10065
66,Centre d'Accueil Médico-Social Précoce,Impasse de la Dhuis nan,Coupvray,Seine-et-Marne,77700,,48.8808059,2.7879226,False,,,,,,,,,,,,,,,,,,,,,,,,,,,,,,,,,,,,,,,,,,,,,,,,,,,,,,,,,,,,,,,,,,,,,,,,,,,,,,,,10066
67,Centre d'Antrenas,nan nan,Antrenas,Occitanie,48100,,44.5833382,3.2627082,False,,,,,,,,,,,,,,,,,,,,,,,,,,,,,,,,,,,,,,,,,,,,,,,,,,,,,,,,,,,,,,,,,,,,,,,,,,,,,,,,10067
68,Centre d'Urologie,nan nan,Nancy,Grand Est,54100,,48.7028462,6.140057,False,,,,,,,,,,,,,,,,,,,,,,,,,,,,,,,,,,,,,,,,,,,,,,,,,,,,,,,,,,,,,,,,,,,,,,,,,,,,,,,,10068
69,Centre d'hygiène dentaire,nan nan,Papeete,,,,-17.5378388,-149.5591153,False,,,,,,,,,,,,,,,,,,,,,,,,,,,,,,,,,,,,,,,,,,,,,,,,,,,,,,,,,,,,,,,,,,,,,,,,,,,,,,,,10069
70,Centre d'hygiène dentaire,nan nan,Papeete,,,,-17.5378901,-149.5590821,False,,,,,,,,,,,,,,,,,,,,,,,,,,,,,,,,,,,,,,,,,,,,,,,,,,,,,,,,,,,,,,,,,,,,,,,,,,,,,,,,10070
71,Centre d'hygiène dentaire,nan nan,Papeete,,,,-17.5373646,-149.5595604,False,,,,,,,,,,,,,,,,,,,,,,,,,,,,,,,,,,,,,,,,,,,,,,,,,,,,,,,,,,,,,,,,,,,,,,,,,,,,,,,,10071
72,Centre de Chirurgie Orthopédique et Sportive,nan nan,Mérignac,Nouvelle-Aquitaine,33700,,44.8172135,-0.680507,False,,,,,,,,,,,,,,,,,,,,,,,,,,,,,,,,,,,,,,,,,,,,,,,,,,,,,,,,,,,,,,,,,,,,,,,,,,,,,,,,10072
73,Centre de Dialyse,nan nan,Lourdes,Occitanie,65100,,43.1100729,-0.049401,False,,,,,,,,,,,,,,,,,,,,,,,,,,,,,,,,,,,,,,,,,,,,,,,,,,,,,,,,,,,,,,,,,,,,,,,,,,,,,,,,10073
74,Centre de Réadaptation Fonctionnelle Gustav Zander,nan nan,Aix-les-Bains,Savoie,73100,+33 4 79 61 41 33,45.7006351,5.8911927,False,,,,,,,,,,,,,,,,,,,,,,,,,,,,,,,,,,,,,,,,,,,,,,,,,,,,,,,,,,,,,,,,,,,,,,,,,,,,,,,,10074
75,Centre de Rééducation Saint-Vincent de Paul,nan nan,Bourgoin-Jallieu,Isère,38300,,45.5967111,5.2471303,False,,,,,,,,,,,,,,,,,,,,,,,,,,,,,,,,,,,,,,,,,,,,,,,,,,,,,,,,,,,,,,,,,,,,,,,,,,,,,,,,10075
76,Centre de Santé,nan nan,Saint Pierre,,,,46.7784819,-56.1738011,False,,,,,,,,,,,,,,,,,,,,,,,,,,,,,,,,,,,,,,,,,,,,,,,,,,,,,,,,,,,,,,,,,,,,,,,,,,,,,,,,10076
77,Centre de Santé Polyvalent,Rue Henri Barbusse 103,Meudon,Hauts-de-Seine,92190,+33 1 46 29 04 20,48.80724,2.241543,False,,,,,,,,,,,,,,,,,,,,,,,,,,,,,,,,,,,,,,,,,,,,,,,,,,,,,,,,,,,,,,,,,,,,,,,,,,,,,,,,10077
78,Centre de Soins,Jardins Boieldieu 68,Puteaux,Hauts-de-Seine,92800,+33 1 47 75 91 04,48.8890266,2.2385881,False,,,,,,,,,,,,,,,,,,,,,,,,,,,,,,,,,,,,,,,,,,,,,,,,,,,,,,,,,,,,,,,,,,,,,,,,,,,,,,,,10078
79,Centre de Soins Non Programmés,nan nan,Valognes,Normandie,50700,,49.502269,-1.463886,False,,,,,,,,,,,,,,,,,,,,,,,,,,,,,,,,,,,,,,,,,,,,,,,,,,,,,,,,,,,,,,,,,,,,,,,,,,,,,,,,10079
80,Centre de Soins de Suite,nan nan,Dracy-le-Fort,Saône-et-Loire,71640,,46.7969275,4.7831621,False,,,,,,,,,,,,,,,,,,,,,,,,,,,,,,,,,,,,,,,,,,,,,,,,,,,,,,,,,,,,,,,,,,,,,,,,,,,,,,,,10080
81,"Centre de Soins, d'Accompagnement et de Prévention en Addictologie La Cerisaie",Route de Celles-les-Bains 1510,Rompon,Ardèche,07250,+33 4 75 85 16 31,44.7881943,4.7446018,False,,,,,,,,,,,,,,,,,,,,,,,,,,,,,,,,,,,,,,,,,,,,,,,,,,,,,,,,,,,,,,,,,,,,,,,,,,,,,,,,10081
82,Centre de convalescence La Pignada,nan nan,Lège-Cap-Ferret,Nouvelle-Aquitaine,33950,,44.7612775,-1.1848874,False,,,,,,,,,,,,,,,,,,,,,,,,,,,,,,,,,,,,,,,,,,,,,,,,,,,,,,,,,,,,,,,,,,,,,,,,,,,,,,,,10082
83,Centre de dialyse et de néphrologie,Square de Lattre de Tassigny 146,Angers,Pays de la Loire,49100,+33 2 41 79 76 76,47.4460918,-0.5394199,False,,,,,,,,,,,,,,,,,,,,,,,,,,,,,,,,,,,,,,,,,,,,,,,,,,,,,,,,,,,,,,,,,,,,,,,,,,,,,,,,10083
84,Centre de la mère et de l'enfant,nan nan,Pirae,,,,-17.5357941,-149.5469899,False,,,,,,,,,,,,,,,,,,,,,,,,,,,,,,,,,,,,,,,,,,,,,,,,,,,,,,,,,,,,,,,,,,,,,,,,,,,,,,,,10084
85,Centre de radiologie,nan nan,Narbonne,Occitanie,11100,,43.1811691,3.0323539,False,,,,,,,,,,,,,,,,,,,,,,,,,,,,,,,,,,,,,,,,,,,,,,,,,,,,,,,,,,,,,,,,,,,,,,,,,,,,,,,,10085
86,Centre de rééducation de Villers-Bettnach,nan nan,Saint-Hubert,Grand Est,57640,,49.233934,6.363811,False,,,,,,,,,,,,,,,,,,,,,,,,,,,,,,,,,,,,,,,,,,,,,,,,,,,,,,,,,,,,,,,,,,,,,,,,,,,,,,,,10086
87,Centre de rééducation fonctionnelle de Tréboul,Rue Ar Veret nan,Douarnenez,Bretagne,29100,,48.0904,-4.335992,False,,,,,,,,,,,,,,,,,,,,,,,,,,,,,,,,,,,,,,,,,,,,,,,,,,,,,,,,,,,,,,,,,,,,,,,,,,,,,,,,10087
88,Centre de santé,nan nan,Paris,Paris,75013,,48.826957,2.3553654,False,,,,,,,,,,,,,,,,,,,,,,,,,,,,,,,,,,,,,,,,,,,,,,,,,,,,,,,,,,,,,,,,,,,,,,,,,,,,,,,,10088
89,Centre de soins infirmier Paul Clermont,nan nan,Lille,Hauts-de-France,59260,,50.6281535,3.1116751,False,,,,,,,,,,,,,,,,,,,,,,,,,,,,,,,,,,,,,,,,,,,,,,,,,,,,,,,,,,,,,,,,,,,,,,,,,,,,,,,,10089
90,Centre médical,nan nan,Pointe-à-Pitre,Guadeloupe,97110,,16.2369026,-61.5369716,False,,,,,,,,,,,,,,,,,,,,,,,,,,,,,,,,,,,,,,,,,,,,,,,,,,,,,,,,,,,,,,,,,,,,,,,,,,,,,,,,10090
91,Centre médical,nan nan,Chamant,Hauts-de-France,60300,,49.2162061,2.5960293,False,,,,,,,,,,,,,,,,,,,,,,,,,,,,,,,,,,,,,,,,,,,,,,,,,,,,,,,,,,,,,,,,,,,,,,,,,,,,,,,,10091
92,Centre médical,nan nan,Simiane-Collongue,Bouches-du-Rhône,13109,,43.4351271,5.4274731,False,,,,,,,,,,,,,,,,,,,,,,,,,,,,,,,,,,,,,,,,,,,,,,,,,,,,,,,,,,,,,,,,,,,,,,,,,,,,,,,,10092
93,Centre médical,Rue Henri Matisse nan,Besançon,Doubs,25000,,47.2162789,5.9787422,False,,,,,,,,,,,,,,,,,,,,,,,,,,,,,,,,,,,,,,,,,,,,,,,,,,,,,,,,,,,,,,,,,,,,,,,,,,,,,,,,10093
94,Centre médical,nan nan,Le Mené,Bretagne,22330,,48.2980632,-2.5178372,False,,,,,,,,,,,,,,,,,,,,,,,,,,,,,,,,,,,,,,,,,,,,,,,,,,,,,,,,,,,,,,,,,,,,,,,,,,,,,,,,10094
95,Centre médical,nan nan,La Désirade,Guadeloupe,97127,,16.3038373,-61.0708533,False,,,,,,,,,,,,,,,,,,,,,,,,,,,,,,,,,,,,,,,,,,,,,,,,,,,,,,,,,,,,,,,,,,,,,,,,,,,,,,,,10095
96,Centre médical,nan nan,Steenvoorde,Hauts-de-France,59114,,50.812812,2.5811368,False,,,,,,,,,,,,,,,,,,,,,,,,,,,,,,,,,,,,,,,,,,,,,,,,,,,,,,,,,,,,,,,,,,,,,,,,,,,,,,,,10096
97,"Centre médical - ""Pierre Curie",nan nan,Strasbourg,Grand Est,67200,,48.6040635,7.7127052,False,,,,,,,,,,,,,,,,,,,,,,,,,,,,,,,,,,,,,,,,,,,,,,,,,,,,,,,,,,,,,,,,,,,,,,,,,,,,,,,,10097
98,Centre médical Atlas,nan nan,Paris,Paris,75019,,48.8749703,2.3760707,False,,,,,,,,,,,,,,,,,,,,,,,,,,,,,,,,,,,,,,,,,,,,,,,,,,,,,,,,,,,,,,,,,,,,,,,,,,,,,,,,10098
99,Centre médical Chaumont,Avenue de Stalingrad 101,Palaiseau,Essonne,91120,+33 1 69814105,48.7135736,2.2612774,False,,,,,,,,,,,,,,,,,,,,,,,,,,,,,,,,,,,,,,,,,,,,,,,,,,,,,,,,,,,,,,,,,,,,,,,,,,,,,,,,10099
100,Centre médical Fanomai,nan nan,Faa'a,,,,-17.5579495,-149.6062787,False,,,,,,,,,,,,,,,,,,,,,,,,,,,,,,,,,,,,,,,,,,,,,,,,,,,,,,,,,,,,,,,,,,,,,,,,,,,,,,,,10100
101,Centre médical Ihitoki,nan nan,Hendaye,Nouvelle-Aquitaine,64700,,43.349524,-1.7723156,False,,,,,,,,,,,,,,,,,,,,,,,,,,,,,,,,,,,,,,,,,,,,,,,,,,,,,,,,,,,,,,,,,,,,,,,,,,,,,,,,10101
102,Centre médical Joliot Curie,Rue Joliot Curie 74,Verdun-sur-Garonne,Occitanie,82600,,43.850966,1.230587,False,,,,,,,,,,,,,,,,,,,,,,,,,,,,,,,,,,,,,,,,,,,,,,,,,,,,,,,,,,,,,,,,,,,,,,,,,,,,,,,,10102
103,Centre médical de Mamao,nan nan,Papeete,,,,-17.5366162,-149.5604901,False,,,,,,,,,,,,,,,,,,,,,,,,,,,,,,,,,,,,,,,,,,,,,,,,,,,,,,,,,,,,,,,,,,,,,,,,,,,,,,,,10103
104,Centre médical du Chablais,Chemin de Morcy 106,Thonon-les-Bains,Haute-Savoie,74200,,46.3572713,6.4523604,False,,,,,,,,,,,,,,,,,,,,,,,,,,,,,,,,,,,,,,,,,,,,,,,,,,,,,,,,,,,,,,,,,,,,,,,,,,,,,,,,10104
105,Centre médical et social - PMI,Cours Gambetta 15,Léognan,Nouvelle-Aquitaine,33850,,44.7275007,-0.6020701,False,,,,,,,,,,,,,,,,,,,,,,,,,,,,,,,,,,,,,,,,,,,,,,,,,,,,,,,,,,,,,,,,,,,,,,,,,,,,,,,,10105
106,Centre médical pluridisciplinaire,Impasse de la Republique 10,Chazelles,Nouvelle-Aquitaine,16380,,45.6468782,0.3708936,False,,,,,,,,,,,,,,,,,,,,,,,,,,,,,,,,,,,,,,,,,,,,,,,,,,,,,,,,,,,,,,,,,,,,,,,,,,,,,,,,10106
107,Centre ostéo-articulaire Condorcet,nan nan,Villeurbanne,Rhône,69100,+33 4 72 69 04 04,45.7772483,4.8673789,False,,,,,,,,,,,,,,,,,,,,,,,,,,,,,,,,,,,,,,,,,,,,,,,,,,,,,,,,,,,,,,,,,,,,,,,,,,,,,,,,10107
108,Chant' Ours,nan nan,Briançon,Hautes-Alpes,05100,,44.920216,6.6205666,False,,,,,,,,,,,,,,,,,,,,,,,,,,,,,,,,,,,,,,,,,,,,,,,,,,,,,,,,,,,,,,,,,,,,,,,,,,,,,,,,10108
109,Château D'Herblay,Rue de Paris 50,Herblay-sur-Seine,Val-d'Oise,95220,,48.9923165,2.170523,False,,,,,,,,,,,,,,,,,,,,,,,,,,,,,,,,,,,,,,,,,,,,,,,,,,,,,,,,,,,,,,,,,,,,,,,,,,,,,,,,10109
110,Château D'Herblay,Rue de Paris 50,Herblay-sur-Seine,Val-d'Oise,95220,,48.9917363,2.1700603,False,,,,,,,,,,,,,,,,,,,,,,,,,,,,,,,,,,,,,,,,,,,,,,,,,,,,,,,,,,,,,,,,,,,,,,,,,,,,,,,,10110
111,Clinique,nan nan,Cluses,Haute-Savoie,74300,,46.0634075,6.5886233,False,,,,,,,,,,,,,,,,,,,,,,,,,,,,,,,,,,,,,,,,,,,,,,,,,,,,,,,,,,,,,,,,,,,,,,,,,,,,,,,,10111
112,Clinique Ambroise Paré,nan nan,Neuilly-sur-Seine,Hauts-de-Seine,92200,,48.8865953,2.2787592,False,,,,,,,,,,,,,,,,,,,,,,,,,,,,,,,,,,,,,,,,,,,,,,,,,,,,,,,,,,,,,,,,,,,,,,,,,,,,,,,,10112
113,Clinique Bellefontaine,nan nan,Maxéville,Grand Est,54320,,48.7035358,6.1397384,False,,,,,,,,,,,,,,,,,,,,,,,,,,,,,,,,,,,,,,,,,,,,,,,,,,,,,,,,,,,,,,,,,,,,,,,,,,,,,,,,10113
114,Clinique Cardiologue,Rue Des Vignes 4,La Rochefoucauld-en-Angoumois,Nouvelle-Aquitaine,16110,,45.7447962,0.3856614,False,,,,,,,,,,,,,,,,,,,,,,,,,,,,,,,,,,,,,,,,,,,,,,,,,,,,,,,,,,,,,,,,,,,,,,,,,,,,,,,,10114
115,Clinique Chirurgicale Docteur Maymard,Rue Marcel Paul 13,Bastia,Corse,20200,,42.700691,9.447136,False,,,,,,,,,,,,,,,,,,,,,,,,,,,,,,,,,,,,,,,,,,,,,,,,,,,,,,,,,,,,,,,,,,,,,,,,,,,,,,,,10115
116,Clinique Chirurgicale de Martigues,Rue Edouard Amavet 9,Martigues,Bouches-du-Rhône,13500,+33 4 42 35 42 35,43.401284,5.0522505,False,,,,,,,,,,,,,,,,,,,,,,,,,,,,,,,,,,,,,,,,,,,,,,,,,,,,,,,,,,,,,,,,,,,,,,,,,,,,,,,,10116
117,Clinique Delay,nan nan,Bayonne,Nouvelle-Aquitaine,64100,,43.4801082,-1.4842996,False,,,,,,,,,,,,,,,,,,,,,,,,,,,,,,,,,,,,,,,,,,,,,,,,,,,,,,,,,,,,,,,,,,,,,,,,,,,,,,,,10117
118,Clinique Embats,nan nan,Auch,Occitanie,32000,,43.6409131,0.5282801,False,,,,,,,,,,,,,,,,,,,,,,,,,,,,,,,,,,,,,,,,,,,,,,,,,,,,,,,,,,,,,,,,,,,,,,,,,,,,,,,,10118
119,Clinique Filippi,Boulevard Benoite Danesi 22,Bastia,Corse,20200,,42.696921,9.4429543,False,,,,,,,,,,,,,,,,,,,,,,,,,,,,,,,,,,,,,,,,,,,,,,,,,,,,,,,,,,,,,,,,,,,,,,,,,,,,,,,,10119
120,Clinique Hartmann,Boulevard Victor Hugo 26,Neuilly-sur-Seine,Hauts-de-Seine,92200,,48.8861223,2.2806591,False,,,,,,,,,,,,,,,,,,,,,,,,,,,,,,,,,,,,,,,,,,,,,,,,,,,,,,,,,,,,,,,,,,,,,,,,,,,,,,,,10120
121,Clinique Hoffmann,nan nan,Rosny-sous-Bois,Seine-Saint-Denis,93110,,48.8824481,2.4895968,False,,,,,,,,,,,,,,,,,,,,,,,,,,,,,,,,,,,,,,,,,,,,,,,,,,,,,,,,,,,,,,,,,,,,,,,,,,,,,,,,10121
122,Clinique Iris Marcy Etoile,nan nan,Marcy-l'Étoile,Rhône,69280,,45.78906,4.703825,False,,,,,,,,,,,,,,,,,,,,,,,,,,,,,,,,,,,,,,,,,,,,,,,,,,,,,,,,,,,,,,,,,,,,,,,,,,,,,,,,10122
123,Clinique Kerfriden,nan nan,Châteaulin,Bretagne,29150,,48.1954716,-4.0907187,False,,,,,,,,,,,,,,,,,,,,,,,,,,,,,,,,,,,,,,,,,,,,,,,,,,,,,,,,,,,,,,,,,,,,,,,,,,,,,,,,10123
124,Clinique Korian Le Haut Lignon,nan nan,Le Chambon-sur-Lignon,Haute-Loire,43400,,45.0684573,4.3044654,False,,,,,,,,,,,,,,,,,,,,,,,,,,,,,,,,,,,,,,,,,,,,,,,,,,,,,,,,,,,,,,,,,,,,,,,,,,,,,,,,10124
125,Clinique Korian les Deux Lys,Rue des Champs de Gond 168,Thyez,Haute-Savoie,74300,,46.0780118,6.5535553,False,,,,,,,,,,,,,,,,,,,,,,,,,,,,,,,,,,,,,,,,,,,,,,,,,,,,,,,,,,,,,,,,,,,,,,,,,,,,,,,,10125
126,Clinique La Concorde,nan nan,Alfortville,Val-de-Marne,94140,+33 1 45 18 28 28,48.8047184,2.424477,False,,,,,,,,,,,,,,,,,,,,,,,,,,,,,,,,,,,,,,,,,,,,,,,,,,,,,,,,,,,,,,,,,,,,,,,,,,,,,,,,10126
127,Clinique La Jauberte,nan nan,Aix-en-Provence,Bouches-du-Rhône,13100,,43.5382937,5.4063058,False,,,,,,,,,,,,,,,,,,,,,,,,,,,,,,,,,,,,,,,,,,,,,,,,,,,,,,,,,,,,,,,,,,,,,,,,,,,,,,,,10127
128,Clinique Le Val d'Orb,Mail Philippe Lamour nan,Boujan-sur-Libron,Occitanie,34760,,43.3664627,3.2474947,False,,,,,,,,,,,,,,,,,,,,,,,,,,,,,,,,,,,,,,,,,,,,,,,,,,,,,,,,,,,,,,,,,,,,,,,,,,,,,,,,10128
129,Clinique Les Cyprès,nan nan,Avignon,Vaucluse,84140,,43.9245623,4.8828162,False,,,,,,,,,,,,,,,,,,,,,,,,,,,,,,,,,,,,,,,,,,,,,,,,,,,,,,,,,,,,,,,,,,,,,,,,,,,,,,,,10129
130,Clinique Lille-Sud SOS Mains,nan nan,Lesquin,Hauts-de-France,59810,,50.5896651,3.0895917,False,,,,,,,,,,,,,,,,,,,,,,,,,,,,,,,,,,,,,,,,,,,,,,,,,,,,,,,,,,,,,,,,,,,,,,,,,,,,,,,,10130
131,Clinique Lyon Lumière,Rue du 8 Mai 1945 33 bis,Meyzieu,Rhône,69330,,45.768487,4.9983329,False,,,,,,,,,,,,,,,,,,,,,,,,,,,,,,,,,,,,,,,,,,,,,,,,,,,,,,,,,,,,,,,,,,,,,,,,,,,,,,,,10131
132,Clinique Manioukani,nan nan,Gourbeyre,Guadeloupe,97113,,15.9819274,-61.7142526,False,,,,,,,,,,,,,,,,,,,,,,,,,,,,,,,,,,,,,,,,,,,,,,,,,,,,,,,,,,,,,,,,,,,,,,,,,,,,,,,,10132
133,Clinique Mediazur,nan nan,La Bouilladisse,Bouches-du-Rhône,13720,,43.398146,5.613259,False,,,,,,,,,,,,,,,,,,,,,,,,,,,,,,,,,,,,,,,,,,,,,,,,,,,,,,,,,,,,,,,,,,,,,,,,,,,,,,,,10133
134,Clinique Médico-Psychologique des 4 Cantons,Avenue Paul Langevin nan,Villeneuve-d'Ascq,Hauts-de-France,59650,+33 3 20 43 88 10,50.604782,3.1405486,False,,,,,,,,,,,,,,,,,,,,,,,,,,,,,,,,,,,,,,,,,,,,,,,,,,,,,,,,,,,,,,,,,,,,,,,,,,,,,,,,10134
135,Clinique Paris Lilas,nan nan,Les Lilas,Seine-Saint-Denis,93260,,48.8788001,2.422701,False,,,,,,,,,,,,,,,,,,,,,,,,,,,,,,,,,,,,,,,,,,,,,,,,,,,,,,,,,,,,,,,,,,,,,,,,,,,,,,,,10135
136,Clinique Part-Dieu,nan nan,Lyon,Rhône,69003,,45.7595299,4.8455696,False,,,,,,,,,,,,,,,,,,,,,,,,,,,,,,,,,,,,,,,,,,,,,,,,,,,,,,,,,,,,,,,,,,,,,,,,,,,,,,,,10136
137,Clinique Pasteur,nan nan,Royan,Nouvelle-Aquitaine,17200,+33 5 46 22 22 22,45.6538858,-1.0252443,False,,,,,,,,,,,,,,,,,,,,,,,,,,,,,,,,,,,,,,,,,,,,,,,,,,,,,,,,,,,,,,,,,,,,,,,,,,,,,,,,10137
138,Clinique Pierre de Soleil,Impasse Henri Becquerel nan,Vétraz-Monthoux,Haute-Savoie,74100,,46.1800236,6.2481896,False,,,,,,,,,,,,,,,,,,,,,,,,,,,,,,,,,,,,,,,,,,,,,,,,,,,,,,,,,,,,,,,,,,,,,,,,,,,,,,,,10138
139,Clinique Psychiatrique Universitaire,nan nan,Saint-Cyr-sur-Loire,Centre-Val de Loire,37540,,47.3980639,0.6596379,False,,,,,,,,,,,,,,,,,,,,,,,,,,,,,,,,,,,,,,,,,,,,,,,,,,,,,,,,,,,,,,,,,,,,,,,,,,,,,,,,10139
140,Clinique Regina,nan nan,Sevrier,Haute-Savoie,74320,,45.8791528,6.1416736,False,,,,,,,,,,,,,,,,,,,,,,,,,,,,,,,,,,,,,,,,,,,,,,,,,,,,,,,,,,,,,,,,,,,,,,,,,,,,,,,,10140
141,Clinique Rhéna,Rue Catherine Kany 10,Strasbourg,Grand Est,67100,+33 3 69 06 07 08,48.5715003,7.7937708,False,,,,,,,,,,,,,,,,,,,,,,,,,,,,,,,,,,,,,,,,,,,,,,,,,,,,,,,,,,,,,,,,,,,,,,,,,,,,,,,,10141
142,Clinique Saint-Antoine,nan nan,Montarnaud,Occitanie,34570,,43.6515386,3.6947219,False,,,,,,,,,,,,,,,,,,,,,,,,,,,,,,,,,,,,,,,,,,,,,,,,,,,,,,,,,,,,,,,,,,,,,,,,,,,,,,,,10142
143,Clinique Saint-Barnabé,nan nan,Marseille,Bouches-du-Rhône,13014,,43.3513907,5.3837782,False,,,,,,,,,,,,,,,,,,,,,,,,,,,,,,,,,,,,,,,,,,,,,,,,,,,,,,,,,,,,,,,,,,,,,,,,,,,,,,,,10143
144,Clinique Saint-Jean,nan nan,Toulon,Var,83000,,43.123278,5.947141,False,,,,,,,,,,,,,,,,,,,,,,,,,,,,,,,,,,,,,,,,,,,,,,,,,,,,,,,,,,,,,,,,,,,,,,,,,,,,,,,,10144
145,Clinique Saint-Martin,nan nan,Marseille,Bouches-du-Rhône,13011,,43.3012265,5.5055438,False,,,,,,,,,,,,,,,,,,,,,,,,,,,,,,,,,,,,,,,,,,,,,,,,,,,,,,,,,,,,,,,,,,,,,,,,,,,,,,,,10145
146,Clinique Saint-Michel,nan nan,Aubagne,Bouches-du-Rhône,13400,,43.3086674,5.5447389,False,,,,,,,,,,,,,,,,,,,,,,,,,,,,,,,,,,,,,,,,,,,,,,,,,,,,,,,,,,,,,,,,,,,,,,,,,,,,,,,,10146
147,Clinique Saint-Pierre,Rue Émile Thomas 6,Pontarlier,Doubs,25300,+33 3 81 38 83 00,46.9056473,6.3491649,False,,,,,,,,,,,,,,,,,,,,,,,,,,,,,,,,,,,,,,,,,,,,,,,,,,,,,,,,,,,,,,,,,,,,,,,,,,,,,,,,10147
148,Clinique Saint-Roch,nan nan,Marchiennes,Hauts-de-France,59870,,50.4054659,3.2904641,False,,,,,,,,,,,,,,,,,,,,,,,,,,,,,,,,,,,,,,,,,,,,,,,,,,,,,,,,,,,,,,,,,,,,,,,,,,,,,,,,10148
149,Clinique Saint-Vincent,Rue de Paris 8,Saint-Denis,Réunion,97400,,-20.8801027,55.4490033,False,,,,,,,,,,,,,,,,,,,,,,,,,,,,,,,,,,,,,,,,,,,,,,,,,,,,,,,,,,,,,,,,,,,,,,,,,,,,,,,,10149
150,Clinique Saint-Vincent de Paul,nan nan,Bourgoin-Jallieu,Isère,38300,,45.5978423,5.2449659,False,,,,,,,,,,,,,,,,,,,,,,,,,,,,,,,,,,,,,,,,,,,,,,,,,,,,,,,,,,,,,,,,,,,,,,,,,,,,,,,,10150
151,Clinique Sainte-Élisabeth,nan nan,Marseille,Bouches-du-Rhône,13004,,43.3003865,5.3923474,False,,,,,,,,,,,,,,,,,,,,,,,,,,,,,,,,,,,,,,,,,,,,,,,,,,,,,,,,,,,,,,,,,,,,,,,,,,,,,,,,10151
152,Clinique Tivoli,nan 24 bis,Metz,Grand Est,57070,,49.104868,6.19037,False,,,,,,,,,,,,,,,,,,,,,,,,,,,,,,,,,,,,,,,,,,,,,,,,,,,,,,,,,,,,,,,,,,,,,,,,,,,,,,,,10152
153,Clinique Val Dracy,nan nan,Dracy-le-Fort,Saône-et-Loire,71640,,46.7958225,4.7811569,False,,,,,,,,,,,,,,,,,,,,,,,,,,,,,,,,,,,,,,,,,,,,,,,,,,,,,,,,,,,,,,,,,,,,,,,,,,,,,,,,10153
154,Clinique d'Orange,Route du Parc nan,Orange,Vaucluse,84100,,44.1306843,4.8209201,False,,,,,,,,,,,,,,,,,,,,,,,,,,,,,,,,,,,,,,,,,,,,,,,,,,,,,,,,,,,,,,,,,,,,,,,,,,,,,,,,10154
155,Clinique de Beaupuy,nan nan,Beaupuy,Occitanie,31850,,43.6548648,1.5692898,False,,,,,,,,,,,,,,,,,,,,,,,,,,,,,,,,,,,,,,,,,,,,,,,,,,,,,,,,,,,,,,,,,,,,,,,,,,,,,,,,10155
156,Clinique de Chatelguyon,Rue de Chatel-Guyon 22,Viersat,Nouvelle-Aquitaine,23170,,46.2718806,2.4250553,False,,,,,,,,,,,,,,,,,,,,,,,,,,,,,,,,,,,,,,,,,,,,,,,,,,,,,,,,,,,,,,,,,,,,,,,,,,,,,,,,10156
157,Clinique de Domont,Route de Domont 85,Domont,Val-d'Oise,95330,,49.0337926,2.3434832,False,,,,,,,,,,,,,,,,,,,,,,,,,,,,,,,,,,,,,,,,,,,,,,,,,,,,,,,,,,,,,,,,,,,,,,,,,,,,,,,,10157
158,Clinique de Saint-Victor,nan nan,Saint-Étienne,Loire,42230,,45.4537237,4.2654855,False,,,,,,,,,,,,,,,,,,,,,,,,,,,,,,,,,,,,,,,,,,,,,,,,,,,,,,,,,,,,,,,,,,,,,,,,,,,,,,,,10158
159,Clinique de l'Ange Gardien,nan nan,Chamigny,Seine-et-Marne,77260,,48.9795413,3.1428047,False,,,,,,,,,,,,,,,,,,,,,,,,,,,,,,,,,,,,,,,,,,,,,,,,,,,,,,,,,,,,,,,,,,,,,,,,,,,,,,,,10159
160,Clinique de l'Auzon,nan nan,La Roche-Blanche,Puy-de-Dôme,63670,,45.700965,3.137619,False,,,,,,,,,,,,,,,,,,,,,,,,,,,,,,,,,,,,,,,,,,,,,,,,,,,,,,,,,,,,,,,,,,,,,,,,,,,,,,,,10160
161,Clinique de la Baie,nan nan,Morlaix,Bretagne,29600,,48.5943119,-3.8324211,False,,,,,,,,,,,,,,,,,,,,,,,,,,,,,,,,,,,,,,,,,,,,,,,,,,,,,,,,,,,,,,,,,,,,,,,,,,,,,,,,10161
162,Clinique de la Baie,nan nan,Morlaix,Bretagne,29600,,48.5937543,-3.8321971,False,,,,,,,,,,,,,,,,,,,,,,,,,,,,,,,,,,,,,,,,,,,,,,,,,,,,,,,,,,,,,,,,,,,,,,,,,,,,,,,,10162
163,Clinique de la Chênaie,nan nan,Bouc-Bel-Air,Bouches-du-Rhône,13320,,43.4482487,5.437349,False,,,,,,,,,,,,,,,,,,,,,,,,,,,,,,,,,,,,,,,,,,,,,,,,,,,,,,,,,,,,,,,,,,,,,,,,,,,,,,,,10163
164,Clinique de la Costière,nan nan,Nice,Alpes-Maritimes,06000,,43.716185,7.22776,False,,,,,,,,,,,,,,,,,,,,,,,,,,,,,,,,,,,,,,,,,,,,,,,,,,,,,,,,,,,,,,,,,,,,,,,,,,,,,,,,10164
165,Clinique de la Mitterie,nan nan,Lille,Hauts-de-France,59160,,50.6541815,2.9919773,False,,,,,,,,,,,,,,,,,,,,,,,,,,,,,,,,,,,,,,,,,,,,,,,,,,,,,,,,,,,,,,,,,,,,,,,,,,,,,,,,10165
166,Clinique de soins de suite La Salette,nan nan,Marseille,Bouches-du-Rhône,13012,,43.3135242,5.467258,False,,,,,,,,,,,,,,,,,,,,,,,,,,,,,,,,,,,,,,,,,,,,,,,,,,,,,,,,,,,,,,,,,,,,,,,,,,,,,,,,10166
167,Clinique des 2 Caps,nan nan,Coquelles,Hauts-de-France,62231,,50.9250256,1.8052962,False,,,,,,,,,,,,,,,,,,,,,,,,,,,,,,,,,,,,,,,,,,,,,,,,,,,,,,,,,,,,,,,,,,,,,,,,,,,,,,,,10167
168,Clinique des 3 Cyprès,nan nan,La Penne-sur-Huveaune,Bouches-du-Rhône,13821,,43.276819,5.510702,False,,,,,,,,,,,,,,,,,,,,,,,,,,,,,,,,,,,,,,,,,,,,,,,,,,,,,,,,,,,,,,,,,,,,,,,,,,,,,,,,10168
169,Clinique des Flamboyants,nan nan,Le Port,Réunion,97420,,-20.9465575,55.3044111,False,,,,,,,,,,,,,,,,,,,,,,,,,,,,,,,,,,,,,,,,,,,,,,,,,,,,,,,,,,,,,,,,,,,,,,,,,,,,,,,,10169
170,Clinique des Glénan,nan nan,Bénodet,Bretagne,29950,,47.8760463,-4.1023822,False,,,,,,,,,,,,,,,,,,,,,,,,,,,,,,,,,,,,,,,,,,,,,,,,,,,,,,,,,,,,,,,,,,,,,,,,,,,,,,,,10170
171,Clinique des Orchidées,avenue Lénine 30,Le Port,Réunion,97420,,-20.9425735,55.3013456,False,,,,,,,,,,,,,,,,,,,,,,,,,,,,,,,,,,,,,,,,,,,,,,,,,,,,,,,,,,,,,,,,,,,,,,,,,,,,,,,,10171
172,Clinique des Vallées,Rue Claude Debussy 2,Ville-la-Grand,Haute-Savoie,74100,,46.2040666,6.2635212,False,,,,,,,,,,,,,,,,,,,,,,,,,,,,,,,,,,,,,,,,,,,,,,,,,,,,,,,,,,,,,,,,,,,,,,,,,,,,,,,,10172
173,Clinique du Bourget,nan nan,Le Bourget,Seine-Saint-Denis,93350,,48.9330619,2.4213647,False,,,,,,,,,,,,,,,,,,,,,,,,,,,,,,,,,,,,,,,,,,,,,,,,,,,,,,,,,,,,,,,,,,,,,,,,,,,,,,,,10173
174,Clinique du Cap d'Or,Avenue des Anciens Combattants d'Indochine 1361,La Seyne-sur-Mer,Var,83500,+33 4 94 30 36 20,43.107352,5.862441,False,,,,,,,,,,,,,,,,,,,,,,,,,,,,,,,,,,,,,,,,,,,,,,,,,,,,,,,,,,,,,,,,,,,,,,,,,,,,,,,,10174
175,Clinique du Chalonnais,nan nan,Châtenoy-le-Royal,Saône-et-Loire,71880,,46.7958517,4.8052765,False,,,,,,,,,,,,,,,,,,,,,,,,,,,,,,,,,,,,,,,,,,,,,,,,,,,,,,,,,,,,,,,,,,,,,,,,,,,,,,,,10175
176,Clinique du Jura,Rue Louis Rousseau 9,Lons-le-Saunier,Jura,39000,+33 3 84 35 16 00,46.6718203,5.5569921,False,,,,,,,,,,,,,,,,,,,,,,,,,,,,,,,,,,,,,,,,,,,,,,,,,,,,,,,,,,,,,,,,,,,,,,,,,,,,,,,,10176
177,Clinique du Mail,Allée du Mail 96,La Rochelle,Nouvelle-Aquitaine,17000,,46.156338,-1.169847,False,,,,,,,,,,,,,,,,,,,,,,,,,,,,,,,,,,,,,,,,,,,,,,,,,,,,,,,,,,,,,,,,,,,,,,,,,,,,,,,,10177
178,Clinique du Mail - Imagerie Médicale,nan nan,Grenoble,Isère,38000,,45.1651549,5.7289563,False,,,,,,,,,,,,,,,,,,,,,,,,,,,,,,,,,,,,,,,,,,,,,,,,,,,,,,,,,,,,,,,,,,,,,,,,,,,,,,,,10178
179,Clinique du Petit Pien,nan nan,Monéteau,Yonne,89470,,47.8632516,3.5872038,False,,,,,,,,,,,,,,,,,,,,,,,,,,,,,,,,,,,,,,,,,,,,,,,,,,,,,,,,,,,,,,,,,,,,,,,,,,,,,,,,10179
180,Clinique du Pont de Sèvres,nan nan,Boulogne-Billancourt,Hauts-de-Seine,92100,+33 8 26 96 92 92,48.8363503,2.2315513,False,,,,,,,,,,,,,,,,,,,,,,,,,,,,,,,,,,,,,,,,,,,,,,,,,,,,,,,,,,,,,,,,,,,,,,,,,,,,,,,,10180
181,Clinique du Quercy,nan nan,Cahors,Occitanie,46000,,44.457069,1.4372023,False,,,,,,,,,,,,,,,,,,,,,,,,,,,,,,,,,,,,,,,,,,,,,,,,,,,,,,,,,,,,,,,,,,,,,,,,,,,,,,,,10181
182,Clinique du Sport,nan nan,Mérignac,Nouvelle-Aquitaine,33700,,44.8176719,-0.6774385,False,,,,,,,,,,,,,,,,,,,,,,,,,,,,,,,,,,,,,,,,,,,,,,,,,,,,,,,,,,,,,,,,,,,,,,,,,,,,,,,,10182
183,Clinique esthétique du Grand Lyon,Route d'Anse 909,Ambérieux,Rhône,69480,+33 4 74 600 600,45.928953,4.732499,False,,,,,,,,,,,,,,,,,,,,,,,,,,,,,,,,,,,,,,,,,,,,,,,,,,,,,,,,,,,,,,,,,,,,,,,,,,,,,,,,10183
184,Clinique l'Amandier,Avenue de la Division Leclerc 57,Châtenay-Malabry,Hauts-de-Seine,92290,+33 8 26 30 10 10,48.7618272,2.2855661,False,,,,,,,,,,,,,,,,,,,,,,,,,,,,,,,,,,,,,,,,,,,,,,,,,,,,,,,,,,,,,,,,,,,,,,,,,,,,,,,,10184
185,Clinique les Tamarins,Rue Simon Pernic 1,Le Port,Réunion,97420,,-20.947044,55.304242,False,,,,,,,,,,,,,,,,,,,,,,,,,,,,,,,,,,,,,,,,,,,,,,,,,,,,,,,,,,,,,,,,,,,,,,,,,,,,,,,,10185
186,Clinique médicale et pédagogique Les cadrans solaires,nan nan,Vence,Alpes-Maritimes,06140,,43.7170081,7.1228262,False,,,,,,,,,,,,,,,,,,,,,,,,,,,,,,,,,,,,,,,,,,,,,,,,,,,,,,,,,,,,,,,,,,,,,,,,,,,,,,,,10186
187,Clinique psychiatrique Mon repos,nan nan,Marseille,Bouches-du-Rhône,13008,,43.2547307,5.3870486,False,,,,,,,,,,,,,,,,,,,,,,,,,,,,,,,,,,,,,,,,,,,,,,,,,,,,,,,,,,,,,,,,,,,,,,,,,,,,,,,,10187
188,Clinique psychiatrique des Trois-Lucs,nan nan,Marseille,Bouches-du-Rhône,13012,,43.3137755,5.4682708,False,,,,,,,,,,,,,,,,,,,,,,,,,,,,,,,,,,,,,,,,,,,,,,,,,,,,,,,,,,,,,,,,,,,,,,,,,,,,,,,,10188
189,Clinéa,nan nan,Avignon,Vaucluse,84000,,43.9273854,4.7843058,False,,,,,,,,,,,,,,,,,,,,,,,,,,,,,,,,,,,,,,,,,,,,,,,,,,,,,,,,,,,,,,,,,,,,,,,,,,,,,,,,10189
190,Confort Medical Saint-Barth,Rue de Pitéa 7,Saint-Barthélemy,Saint-Barthélemy,97133,,17.8979092,-62.8523667,False,,,,,,,,,,,,,,,,,,,,,,,,,,,,,,,,,,,,,,,,,,,,,,,,,,,,,,,,,,,,,,,,,,,,,,,,,,,,,,,,10190
191,Dispensaire,nan nan,Teva I Uta,,,,-17.76601,-149.4085911,False,,,,,,,,,,,,,,,,,,,,,,,,,,,,,,,,,,,,,,,,,,,,,,,,,,,,,,,,,,,,,,,,,,,,,,,,,,,,,,,,10191
192,Dispensaire Mama Maria,nan nan,Faa'a,,,,-17.5575022,-149.6047098,False,,,,,,,,,,,,,,,,,,,,,,,,,,,,,,,,,,,,,,,,,,,,,,,,,,,,,,,,,,,,,,,,,,,,,,,,,,,,,,,,10192
193,Dispensaire Punavai Plaine,nan nan,Punaauia,,,,-17.6242722,-149.6108406,False,,,,,,,,,,,,,,,,,,,,,,,,,,,,,,,,,,,,,,,,,,,,,,,,,,,,,,,,,,,,,,,,,,,,,,,,,,,,,,,,10193
194,Dispensaire Punavai Plaine,nan nan,Punaauia,,,,-17.6239732,-149.6107693,False,,,,,,,,,,,,,,,,,,,,,,,,,,,,,,,,,,,,,,,,,,,,,,,,,,,,,,,,,,,,,,,,,,,,,,,,,,,,,,,,10194
195,Dispensaire Tavana Rosa Raoulx,nan nan,Arue,,,,-17.527033,-149.5366345,False,,,,,,,,,,,,,,,,,,,,,,,,,,,,,,,,,,,,,,,,,,,,,,,,,,,,,,,,,,,,,,,,,,,,,,,,,,,,,,,,10195
196,Dispensaire de Faaa,nan nan,Faa'a,,,,-17.5523901,-149.5999326,False,,,,,,,,,,,,,,,,,,,,,,,,,,,,,,,,,,,,,,,,,,,,,,,,,,,,,,,,,,,,,,,,,,,,,,,,,,,,,,,,10196
197,Dispensaire de Hitiaa,nan nan,Hitiaa O te Ra,,,,-17.6010127,-149.304342,False,,,,,,,,,,,,,,,,,,,,,,,,,,,,,,,,,,,,,,,,,,,,,,,,,,,,,,,,,,,,,,,,,,,,,,,,,,,,,,,,10197
198,Dispensaire de Papenoo,nan nan,Hitiaa O te Ra,,,,-17.5126926,-149.4244501,False,,,,,,,,,,,,,,,,,,,,,,,,,,,,,,,,,,,,,,,,,,,,,,,,,,,,,,,,,,,,,,,,,,,,,,,,,,,,,,,,10198
199,Dispensaire de Papetoai,nan nan,Moorea Maiao,,,,-17.4931025,-149.8708705,False,,,,,,,,,,,,,,,,,,,,,,,,,,,,,,,,,,,,,,,,,,,,,,,,,,,,,,,,,,,,,,,,,,,,,,,,,,,,,,,,10199
200,Dispensaire de Tiarei,nan nan,Hitiaa O te Ra,,,,-17.5441316,-149.3419696,False,,,,,,,,,,,,,,,,,,,,,,,,,,,,,,,,,,,,,,,,,,,,,,,,,,,,,,,,,,,,,,,,,,,,,,,,,,,,,,,,10200
201,Dispensaire du Mt Sinaï,nan nan,Faa'a,,,,-17.5626437,-149.5987205,False,,,,,,,,,,,,,,,,,,,,,,,,,,,,,,,,,,,,,,,,,,,,,,,,,,,,,,,,,,,,,,,,,,,,,,,,,,,,,,,,10201
202,Déborah Quinchamp,nan nan,Montbazon,Centre-Val de Loire,37250,,47.2873315,0.7127515,False,,,,,,,,,,,,,,,,,,,,,,,,,,,,,,,,,,,,,,,,,,,,,,,,,,,,,,,,,,,,,,,,,,,,,,,,,,,,,,,,10202
203,EHPAD Les Champs du Noyer,nan nan,Saint-Sauveur-d'Aunis,Nouvelle-Aquitaine,17540,,46.2127452,-0.8856011,False,,,,,,,,,,,,,,,,,,,,,,,,,,,,,,,,,,,,,,,,,,,,,,,,,,,,,,,,,,,,,,,,,,,,,,,,,,,,,,,,10203
204,EHPAD Pimpeneau Orangerie,Rue de Pimpeneau 2,Vineuil,Centre-Val de Loire,41350,,47.585413,1.367804,False,,,,,,,,,,,,,,,,,,,,,,,,,,,,,,,,,,,,,,,,,,,,,,,,,,,,,,,,,,,,,,,,,,,,,,,,,,,,,,,,10204
205,Espace Marie Curie,nan nan,Joeuf,Grand Est,54240,,49.2286344,6.0171504,False,,,,,,,,,,,,,,,,,,,,,,,,,,,,,,,,,,,,,,,,,,,,,,,,,,,,,,,,,,,,,,,,,,,,,,,,,,,,,,,,10205
206,Espace Médical St. Louisien,Avenue Principal nan,Saint-Louis,Réunion,97450,,-21.2879199,55.4100657,False,,,,,,,,,,,,,,,,,,,,,,,,,,,,,,,,,,,,,,,,,,,,,,,,,,,,,,,,,,,,,,,,,,,,,,,,,,,,,,,,10206
207,Espace médical,nan nan,Roche-lez-Beaupré,Doubs,25220,,47.273462,6.103858,False,,,,,,,,,,,,,,,,,,,,,,,,,,,,,,,,,,,,,,,,,,,,,,,,,,,,,,,,,,,,,,,,,,,,,,,,,,,,,,,,10207
208,Fare Croix Rouge,nan nan,Pirae,,,,-17.5408738,-149.5505422,False,,,,,,,,,,,,,,,,,,,,,,,,,,,,,,,,,,,,,,,,,,,,,,,,,,,,,,,,,,,,,,,,,,,,,,,,,,,,,,,,10208
209,Fare Matahiapo,nan nan,Taiarapu Est,,,,-17.7322358,-149.3034288,False,,,,,,,,,,,,,,,,,,,,,,,,,,,,,,,,,,,,,,,,,,,,,,,,,,,,,,,,,,,,,,,,,,,,,,,,,,,,,,,,10209
210,Fare Matahiapo,nan nan,Taiarapu Est,,,,-17.73268,-149.3040662,False,,,,,,,,,,,,,,,,,,,,,,,,,,,,,,,,,,,,,,,,,,,,,,,,,,,,,,,,,,,,,,,,,,,,,,,,,,,,,,,,10210
211,Fare Matahiapo,nan nan,Taiarapu Est,,,,-17.73256,-149.3038997,False,,,,,,,,,,,,,,,,,,,,,,,,,,,,,,,,,,,,,,,,,,,,,,,,,,,,,,,,,,,,,,,,,,,,,,,,,,,,,,,,10211
212,Fare Matahiapo,nan nan,Taiarapu Est,,,,-17.7323195,-149.3032319,False,,,,,,,,,,,,,,,,,,,,,,,,,,,,,,,,,,,,,,,,,,,,,,,,,,,,,,,,,,,,,,,,,,,,,,,,,,,,,,,,10212
213,Fare Matahiapo,nan nan,Taiarapu Est,,,,-17.7321743,-149.3036685,False,,,,,,,,,,,,,,,,,,,,,,,,,,,,,,,,,,,,,,,,,,,,,,,,,,,,,,,,,,,,,,,,,,,,,,,,,,,,,,,,10213
214,Fief de Grimoire,nan nan,Poitiers,Nouvelle-Aquitaine,86000,,46.5699306,0.3388047,False,,,,,,,,,,,,,,,,,,,,,,,,,,,,,,,,,,,,,,,,,,,,,,,,,,,,,,,,,,,,,,,,,,,,,,,,,,,,,,,,10214
215,Foyer d'accueil médicalisé Les Hautes Eaux,nan nan,Autigny,Normandie,76740,,49.807387,0.8550315,False,,,,,,,,,,,,,,,,,,,,,,,,,,,,,,,,,,,,,,,,,,,,,,,,,,,,,,,,,,,,,,,,,,,,,,,,,,,,,,,,10215
216,Foyer de personnes âgées,nan nan,Papeete,,,,-17.5340337,-149.5580894,False,,,,,,,,,,,,,,,,,,,,,,,,,,,,,,,,,,,,,,,,,,,,,,,,,,,,,,,,,,,,,,,,,,,,,,,,,,,,,,,,10216
217,Foyer de vie,nan nan,Moncontour,Bretagne,22510,,48.358313,-2.634916,False,,,,,,,,,,,,,,,,,,,,,,,,,,,,,,,,,,,,,,,,,,,,,,,,,,,,,,,,,,,,,,,,,,,,,,,,,,,,,,,,10217
218,Guyane Service Medical,Rue de l'Aubier Jaune nan,Cayenne,Guyane,97300,,4.9147399,-52.3204713,False,,,,,,,,,,,,,,,,,,,,,,,,,,,,,,,,,,,,,,,,,,,,,,,,,,,,,,,,,,,,,,,,,,,,,,,,,,,,,,,,10218
219,Hopital de jour pour enfants,nan nan,Rennes,Bretagne,35700,,48.1298053,-1.6626689,False,,,,,,,,,,,,,,,,,,,,,,,,,,,,,,,,,,,,,,,,,,,,,,,,,,,,,,,,,,,,,,,,,,,,,,,,,,,,,,,,10219
220,Hôpital Saint-Jean,nan nan,Gennevilliers,Hauts-de-Seine,92230,,48.9164789,2.3031908,False,,,,,,,,,,,,,,,,,,,,,,,,,,,,,,,,,,,,,,,,,,,,,,,,,,,,,,,,,,,,,,,,,,,,,,,,,,,,,,,,10220
221,Hôpital de Dzoumogné,Avenue François Mitterrand nan,Bandraboua,Mayotte,97650,+262 2 69 63 11 80,-12.719038,45.1112156,False,,,,,,,,,,,,,,,,,,,,,,,,,,,,,,,,,,,,,,,,,,,,,,,,,,,,,,,,,,,,,,,,,,,,,,,,,,,,,,,,10221
222,Hôpital de Jour pour Enfants,nan nan,Paris,Paris,75012,,48.8411051,2.4028069,False,,,,,,,,,,,,,,,,,,,,,,,,,,,,,,,,,,,,,,,,,,,,,,,,,,,,,,,,,,,,,,,,,,,,,,,,,,,,,,,,10222
223,Hôpital de Mramadoudou,nan nan,Chirongui,Mayotte,97620,+262 2 69 62 11 83,-12.9285412,45.1545461,False,,,,,,,,,,,,,,,,,,,,,,,,,,,,,,,,,,,,,,,,,,,,,,,,,,,,,,,,,,,,,,,,,,,,,,,,,,,,,,,,10223
224,Hôpital de jour PsyPRO,nan nan,Villeurbanne,Rhône,69100,,45.7730189,4.8608674,False,,,,,,,,,,,,,,,,,,,,,,,,,,,,,,,,,,,,,,,,,,,,,,,,,,,,,,,,,,,,,,,,,,,,,,,,,,,,,,,,10224
225,Hôpital privé parisien Jeanne d'Arc,nan nan,Saint-Mandé,Val-de-Marne,94160,,48.835929,2.4144627,False,,,,,,,,,,,,,,,,,,,,,,,,,,,,,,,,,,,,,,,,,,,,,,,,,,,,,,,,,,,,,,,,,,,,,,,,,,,,,,,,10225
226,I.R.M.74,Rue de la Courbe 205,Nangy,Haute-Savoie,74380,,46.1444931,6.3186821,False,,,,,,,,,,,,,,,,,,,,,,,,,,,,,,,,,,,,,,,,,,,,,,,,,,,,,,,,,,,,,,,,,,,,,,,,,,,,,,,,10226
227,IIME Tamaru Arii,nan nan,Taiarapu Est,,,,-17.7329597,-149.3039071,False,,,,,,,,,,,,,,,,,,,,,,,,,,,,,,,,,,,,,,,,,,,,,,,,,,,,,,,,,,,,,,,,,,,,,,,,,,,,,,,,10227
228,IIME Te Ana Hau,nan nan,Pirae,,,,-17.5351442,-149.5465558,False,,,,,,,,,,,,,,,,,,,,,,,,,,,,,,,,,,,,,,,,,,,,,,,,,,,,,,,,,,,,,,,,,,,,,,,,,,,,,,,,10228
229,IIME Tearama,nan nan,Paea,,,,-17.7192272,-149.5802753,False,,,,,,,,,,,,,,,,,,,,,,,,,,,,,,,,,,,,,,,,,,,,,,,,,,,,,,,,,,,,,,,,,,,,,,,,,,,,,,,,10229
230,IIME Tearama,nan nan,Paea,,,,-17.7194439,-149.5802091,False,,,,,,,,,,,,,,,,,,,,,,,,,,,,,,,,,,,,,,,,,,,,,,,,,,,,,,,,,,,,,,,,,,,,,,,,,,,,,,,,10230
231,IME,Rue de Moëlan 142,Quimperlé,Bretagne,29300,+33 2 98 96 26 02,47.8610829,-3.5653365,False,,,,,,,,,,,,,,,,,,,,,,,,,,,,,,,,,,,,,,,,,,,,,,,,,,,,,,,,,,,,,,,,,,,,,,,,,,,,,,,,10231
232,Immeuble ISBA,Allée de la Gare 2,Bouffémont,Val-d'Oise,95570,,49.0449246,2.3213511,False,,,,,,,,,,,,,,,,,,,,,,,,,,,,,,,,,,,,,,,,,,,,,,,,,,,,,,,,,,,,,,,,,,,,,,,,,,,,,,,,10232
233,Infirmerie,nan nan,,,,,46.8974884,-56.3013557,False,,,,,,,,,,,,,,,,,,,,,,,,,,,,,,,,,,,,,,,,,,,,,,,,,,,,,,,,,,,,,,,,,,,,,,,,,,,,,,,,10233
234,Infirmerie,nan nan,Fos-sur-Mer,Bouches-du-Rhône,13270,,43.437624,4.909931,False,,,,,,,,,,,,,,,,,,,,,,,,,,,,,,,,,,,,,,,,,,,,,,,,,,,,,,,,,,,,,,,,,,,,,,,,,,,,,,,,10234
235,Infirmerie,nan nan,Arutua,,,,-15.3626577,-146.6205267,False,,,,,,,,,,,,,,,,,,,,,,,,,,,,,,,,,,,,,,,,,,,,,,,,,,,,,,,,,,,,,,,,,,,,,,,,,,,,,,,,10235
236,Infirmerie,nan nan,Takaroa,,,,-14.7059895,-145.249744,False,,,,,,,,,,,,,,,,,,,,,,,,,,,,,,,,,,,,,,,,,,,,,,,,,,,,,,,,,,,,,,,,,,,,,,,,,,,,,,,,10236
237,Infirmières,Grande Rue 15,Avoudrey,Doubs,25690,,47.138524,6.4345319,False,,,,,,,,,,,,,,,,,,,,,,,,,,,,,,,,,,,,,,,,,,,,,,,,,,,,,,,,,,,,,,,,,,,,,,,,,,,,,,,,10237
238,Institut Européen de la Main,nan nan,Maxéville,Grand Est,54320,,48.702883,6.138654,False,,,,,,,,,,,,,,,,,,,,,,,,,,,,,,,,,,,,,,,,,,,,,,,,,,,,,,,,,,,,,,,,,,,,,,,,,,,,,,,,10238
239,Institut Médico Educatif Les Myosotis,nan nan,Montanay,Rhône,69250,,45.8811914,4.8727905,False,,,,,,,,,,,,,,,,,,,,,,,,,,,,,,,,,,,,,,,,,,,,,,,,,,,,,,,,,,,,,,,,,,,,,,,,,,,,,,,,10239
240,Institut Médico-Educatif Le Castel,nan nan,Gazeran,Yvelines,78125,,48.6340618,1.7724274,False,,,,,,,,,,,,,,,,,,,,,,,,,,,,,,,,,,,,,,,,,,,,,,,,,,,,,,,,,,,,,,,,,,,,,,,,,,,,,,,,10240
241,Institut de Diabétologie et Nutrition du Centre,Rue du Verger 35,Mainvilliers,Centre-Val de Loire,28300,+33 2 36 25 36 00,48.4609399,1.4553402,False,,,,,,,,,,,,,,,,,,,,,,,,,,,,,,,,,,,,,,,,,,,,,,,,,,,,,,,,,,,,,,,,,,,,,,,,,,,,,,,,10241
242,Institut départemental Saint-Louis du Mont,nan nan,Bassens,Savoie,73000,,45.5806244,5.9328749,False,,,,,,,,,,,,,,,,,,,,,,,,,,,,,,,,,,,,,,,,,,,,,,,,,,,,,,,,,,,,,,,,,,,,,,,,,,,,,,,,10242
243,Institut d’Education Motrice Charlemagne,nan nan,Ballan-Miré,Centre-Val de Loire,37510,,47.3292803,0.6160899,False,,,,,,,,,,,,,,,,,,,,,,,,,,,,,,,,,,,,,,,,,,,,,,,,,,,,,,,,,,,,,,,,,,,,,,,,,,,,,,,,10243
244,Institut médical de Romainville,nan nan,Romainville,Seine-Saint-Denis,93230,,48.8913076,2.4383245,False,,,,,,,,,,,,,,,,,,,,,,,,,,,,,,,,,,,,,,,,,,,,,,,,,,,,,,,,,,,,,,,,,,,,,,,,,,,,,,,,10244
245,Kervihan,nan nan,Bréhan,Bretagne,56580,,48.051104,-2.683229,False,,,,,,,,,,,,,,,,,,,,,,,,,,,,,,,,,,,,,,,,,,,,,,,,,,,,,,,,,,,,,,,,,,,,,,,,,,,,,,,,10245
246,Kinésithératie,nan nan,Lassigny,Hauts-de-France,60310,,49.586989,2.845857,False,,,,,,,,,,,,,,,,,,,,,,,,,,,,,,,,,,,,,,,,,,,,,,,,,,,,,,,,,,,,,,,,,,,,,,,,,,,,,,,,10246
247,Korian Les Horizons,nan nan,Cambes,Nouvelle-Aquitaine,33880,,44.7468536,-0.4519524,False,,,,,,,,,,,,,,,,,,,,,,,,,,,,,,,,,,,,,,,,,,,,,,,,,,,,,,,,,,,,,,,,,,,,,,,,,,,,,,,,10247
248,La Clinique Bergouignan,Rue du Docteur Louis Bergouignan 1,Évreux,Normandie,27000,+33 2 32 31 45 25,49.019674,1.1451965,False,,,,,,,,,,,,,,,,,,,,,,,,,,,,,,,,,,,,,,,,,,,,,,,,,,,,,,,,,,,,,,,,,,,,,,,,,,,,,,,,10248
249,La Clinique de l'Alma,nan nan,Paris,Paris,75007,,48.8614469,2.3055713,False,,,,,,,,,,,,,,,,,,,,,,,,,,,,,,,,,,,,,,,,,,,,,,,,,,,,,,,,,,,,,,,,,,,,,,,,,,,,,,,,10249
250,La Mosaique,nan nan,Lure,Haute-Saône,70200,,47.6909716,6.5010627,False,,,,,,,,,,,,,,,,,,,,,,,,,,,,,,,,,,,,,,,,,,,,,,,,,,,,,,,,,,,,,,,,,,,,,,,,,,,,,,,,10250
251,La Vannerie,nan nan,Les Sables-d'Olonne,Pays de la Loire,85100,,46.5136615,-1.7552607,False,,,,,,,,,,,,,,,,,,,,,,,,,,,,,,,,,,,,,,,,,,,,,,,,,,,,,,,,,,,,,,,,,,,,,,,,,,,,,,,,10251
252,Laboratoire Analyse Médicale,nan nan,Machecoul-Saint-Même,Pays de la Loire,44270,,46.9986143,-1.8174632,False,,,,,,,,,,,,,,,,,,,,,,,,,,,,,,,,,,,,,,,,,,,,,,,,,,,,,,,,,,,,,,,,,,,,,,,,,,,,,,,,10252
253,Laboratoire Lepers Saint-Martin Biologie,Rue de la Liberté 47,Marigot,,,,18.065959,-63.0867166,False,,,,,,,,,,,,,,,,,,,,,,,,,,,,,,,,,,,,,,,,,,,,,,,,,,,,,,,,,,,,,,,,,,,,,,,,,,,,,,,,10253
254,Laboratoire d'Analyses Médicales,nan nan,Dives-sur-Mer,Normandie,14160,,49.2791379,-0.1032952,False,,,,,,,,,,,,,,,,,,,,,,,,,,,,,,,,,,,,,,,,,,,,,,,,,,,,,,,,,,,,,,,,,,,,,,,,,,,,,,,,10254
255,Laboratoire d'Analyses Médicales,Rue Léon Gambetta 106,Ouistreham,Normandie,14150,,49.283349,-0.260266,False,,,,,,,,,,,,,,,,,,,,,,,,,,,,,,,,,,,,,,,,,,,,,,,,,,,,,,,,,,,,,,,,,,,,,,,,,,,,,,,,10255
256,Laboratoire d'Analyses Médicales,nan nan,Champigny-sur-Marne,Val-de-Marne,94500,,48.8167015,2.4989095,False,,,,,,,,,,,,,,,,,,,,,,,,,,,,,,,,,,,,,,,,,,,,,,,,,,,,,,,,,,,,,,,,,,,,,,,,,,,,,,,,10256
257,Laboratoire d'analyses,nan nan,Joyeuse,Ardèche,07260,,44.480274,4.236436,False,,,,,,,,,,,,,,,,,,,,,,,,,,,,,,,,,,,,,,,,,,,,,,,,,,,,,,,,,,,,,,,,,,,,,,,,,,,,,,,,10257
258,Laboratoire d'analyses Médicales,Rue Jean Jaurès nan,Brest,Bretagne,29200,,48.4002771,-4.4701482,False,,,,,,,,,,,,,,,,,,,,,,,,,,,,,,,,,,,,,,,,,,,,,,,,,,,,,,,,,,,,,,,,,,,,,,,,,,,,,,,,10258
259,Laboratoire d'analyses médicales,Route de Redoute nan,Fort-de-France,Martinique,97200,,14.6247608,-61.0608781,False,,,,,,,,,,,,,,,,,,,,,,,,,,,,,,,,,,,,,,,,,,,,,,,,,,,,,,,,,,,,,,,,,,,,,,,,,,,,,,,,10259
260,Le Carré Blanc,nan nan,Schiltigheim,Grand Est,67300,,48.6107688,7.7060484,False,,,,,,,,,,,,,,,,,,,,,,,,,,,,,,,,,,,,,,,,,,,,,,,,,,,,,,,,,,,,,,,,,,,,,,,,,,,,,,,,10260
261,Le Moigne Busset,nan nan,Périgueux,Nouvelle-Aquitaine,24000,,45.1796143,0.7369367,False,,,,,,,,,,,,,,,,,,,,,,,,,,,,,,,,,,,,,,,,,,,,,,,,,,,,,,,,,,,,,,,,,,,,,,,,,,,,,,,,10261
262,Les Acacias,nan nan,Briançon,Hautes-Alpes,05100,,44.9080907,6.6321719,False,,,,,,,,,,,,,,,,,,,,,,,,,,,,,,,,,,,,,,,,,,,,,,,,,,,,,,,,,,,,,,,,,,,,,,,,,,,,,,,,10262
263,Les Ateliers du Moulin Vert,Rue Jules César 22,Arzon,Bretagne,56640,,47.536275,-2.871818,False,,,,,,,,,,,,,,,,,,,,,,,,,,,,,,,,,,,,,,,,,,,,,,,,,,,,,,,,,,,,,,,,,,,,,,,,,,,,,,,,10263
264,"MGEN, Mutuelle Générale de l'Éducation Nationale",Place du Pont aux Chats 4,Strasbourg,Grand Est,67000,,48.5809334,7.7565099,False,,,,,,,,,,,,,,,,,,,,,,,,,,,,,,,,,,,,,,,,,,,,,,,,,,,,,,,,,,,,,,,,,,,,,,,,,,,,,,,,10264
265,Maison Medicale,nan nan,La Bastide-Puylaurent,Occitanie,48250,,44.5906069,3.9054391,False,,,,,,,,,,,,,,,,,,,,,,,,,,,,,,,,,,,,,,,,,,,,,,,,,,,,,,,,,,,,,,,,,,,,,,,,,,,,,,,,10265
266,Maison Médicale,nan nan,Pleaux,Cantal,15700,,45.133909,2.222582,False,,,,,,,,,,,,,,,,,,,,,,,,,,,,,,,,,,,,,,,,,,,,,,,,,,,,,,,,,,,,,,,,,,,,,,,,,,,,,,,,10266
267,Maison Médicale,Rue des Landes 40,Saint-Lambert-la-Potherie,Pays de la Loire,49070,,47.4826125,-0.6834057,False,,,,,,,,,,,,,,,,,,,,,,,,,,,,,,,,,,,,,,,,,,,,,,,,,,,,,,,,,,,,,,,,,,,,,,,,,,,,,,,,10267
268,Maison Médicale Patrick Halluin,Rue Sonneville 23,Allennes-les-Marais,Hauts-de-France,59251,,50.5369785,2.9542198,False,,,,,,,,,,,,,,,,,,,,,,,,,,,,,,,,,,,,,,,,,,,,,,,,,,,,,,,,,,,,,,,,,,,,,,,,,,,,,,,,10268
269,Maison Médicale des Deux Rives,Rue François Épailly 8,Strasbourg,Grand Est,67100,+33 3 69 06 07 08,48.5720263,7.792823,False,,,,,,,,,,,,,,,,,,,,,,,,,,,,,,,,,,,,,,,,,,,,,,,,,,,,,,,,,,,,,,,,,,,,,,,,,,,,,,,,10269
270,Maison Médicale des Elfes,Rue du Général Empain 37,Bouffémont,Val-d'Oise,95570,,49.040539,2.3091221,False,,,,,,,,,,,,,,,,,,,,,,,,,,,,,,,,,,,,,,,,,,,,,,,,,,,,,,,,,,,,,,,,,,,,,,,,,,,,,,,,10270
271,Maison Médicale du Serval,nan nan,La Chapelle-en-Serval,Hauts-de-France,60520,,49.1276944,2.5353038,False,,,,,,,,,,,,,,,,,,,,,,,,,,,,,,,,,,,,,,,,,,,,,,,,,,,,,,,,,,,,,,,,,,,,,,,,,,,,,,,,10271
272,Maison de Sante Galenus,nan nan,Bartenheim,Grand Est,68870,,47.6360303,7.4942718,False,,,,,,,,,,,,,,,,,,,,,,,,,,,,,,,,,,,,,,,,,,,,,,,,,,,,,,,,,,,,,,,,,,,,,,,,,,,,,,,,10272
273,Maison de Santé,Place de la République 2,Pontgibaud,Puy-de-Dôme,63230,+33 4 73 78 44 53,45.8314783,2.8508889,False,,,,,,,,,,,,,,,,,,,,,,,,,,,,,,,,,,,,,,,,,,,,,,,,,,,,,,,,,,,,,,,,,,,,,,,,,,,,,,,,10273
274,Maison de Santé,nan nan,Pontacq,Nouvelle-Aquitaine,64530,,43.1859594,-0.1146786,False,,,,,,,,,,,,,,,,,,,,,,,,,,,,,,,,,,,,,,,,,,,,,,,,,,,,,,,,,,,,,,,,,,,,,,,,,,,,,,,,10274
275,Maison de Santé,Rue de la République nan,Estissac,Grand Est,10190,,48.2674851,3.8068264,False,,,,,,,,,,,,,,,,,,,,,,,,,,,,,,,,,,,,,,,,,,,,,,,,,,,,,,,,,,,,,,,,,,,,,,,,,,,,,,,,10275
276,Maison de Santé Caux Estuaire,nan nan,Saint-Romain-de-Colbosc,Normandie,76430,,49.5243127,0.3588904,False,,,,,,,,,,,,,,,,,,,,,,,,,,,,,,,,,,,,,,,,,,,,,,,,,,,,,,,,,,,,,,,,,,,,,,,,,,,,,,,,10276
277,Maison de Santé Claude Rosenzweig,Rue de Romillé 6,Gévezé,Bretagne,35850,,48.2217204,-1.7930808,False,,,,,,,,,,,,,,,,,,,,,,,,,,,,,,,,,,,,,,,,,,,,,,,,,,,,,,,,,,,,,,,,,,,,,,,,,,,,,,,,10277
278,Maison de Santé Le Ryonval,nan nan,Sainte-Catherine,Hauts-de-France,62223,,50.3133892,2.7681572,False,,,,,,,,,,,,,,,,,,,,,,,,,,,,,,,,,,,,,,,,,,,,,,,,,,,,,,,,,,,,,,,,,,,,,,,,,,,,,,,,10278
279,Maison de Santé pluridisciplinaire de la haute vallée du Thoré,Avenue Marie Curie 2,Labastide-Rouairoux,Occitanie,81270,+33 5 31 80 99 20,43.474955,2.6325389,False,,,,,,,,,,,,,,,,,,,,,,,,,,,,,,,,,,,,,,,,,,,,,,,,,,,,,,,,,,,,,,,,,,,,,,,,,,,,,,,,10279
280,Maison de la Santé,nan nan,Saint-Maurice-sur-Moselle,Grand Est,88560,,47.856452,6.821933,False,,,,,,,,,,,,,,,,,,,,,,,,,,,,,,,,,,,,,,,,,,,,,,,,,,,,,,,,,,,,,,,,,,,,,,,,,,,,,,,,10280
281,Maison de la Santé,nan nan,Briis-sous-Forges,Essonne,91640,,48.6227201,2.124747,False,,,,,,,,,,,,,,,,,,,,,,,,,,,,,,,,,,,,,,,,,,,,,,,,,,,,,,,,,,,,,,,,,,,,,,,,,,,,,,,,10281
282,Maison de santé,nan nan,Plélan-le-Grand,Bretagne,35380,,48.0076891,-2.0891964,False,,,,,,,,,,,,,,,,,,,,,,,,,,,,,,,,,,,,,,,,,,,,,,,,,,,,,,,,,,,,,,,,,,,,,,,,,,,,,,,,10282
283,Maison de santé,nan nan,Prayssas,Nouvelle-Aquitaine,47360,,44.2873318,0.5072246,False,,,,,,,,,,,,,,,,,,,,,,,,,,,,,,,,,,,,,,,,,,,,,,,,,,,,,,,,,,,,,,,,,,,,,,,,,,,,,,,,10283
284,Maison de santé,Rue Léo Desaivre nan,Échiré,Nouvelle-Aquitaine,79410,,46.3888865,-0.4199124,False,,,,,,,,,,,,,,,,,,,,,,,,,,,,,,,,,,,,,,,,,,,,,,,,,,,,,,,,,,,,,,,,,,,,,,,,,,,,,,,,10284
285,Maison de santé Simone Veil,nan nan,Montbard,Côte-d'Or,21500,,47.6238756,4.3401517,False,,,,,,,,,,,,,,,,,,,,,,,,,,,,,,,,,,,,,,,,,,,,,,,,,,,,,,,,,,,,,,,,,,,,,,,,,,,,,,,,10285
286,Maison des Services,nan nan,Aigurande,Centre-Val de Loire,36140,,46.432304,1.824526,False,,,,,,,,,,,,,,,,,,,,,,,,,,,,,,,,,,,,,,,,,,,,,,,,,,,,,,,,,,,,,,,,,,,,,,,,,,,,,,,,10286
287,Maison des consultations,nan nan,Quint-Fonsegrives,Occitanie,31130,,43.5826569,1.5091294,False,,,,,,,,,,,,,,,,,,,,,,,,,,,,,,,,,,,,,,,,,,,,,,,,,,,,,,,,,,,,,,,,,,,,,,,,,,,,,,,,10287
288,Maison médiacle,Rue du Barri nan,Seyne,Alpes-de-Haute-Provence,04140,,44.3513212,6.3564384,False,,,,,,,,,,,,,,,,,,,,,,,,,,,,,,,,,,,,,,,,,,,,,,,,,,,,,,,,,,,,,,,,,,,,,,,,,,,,,,,,10288
289,Maison médiale de Jussac,nan nan,Jussac,Cantal,15250,,44.9885537,2.4242982,False,,,,,,,,,,,,,,,,,,,,,,,,,,,,,,,,,,,,,,,,,,,,,,,,,,,,,,,,,,,,,,,,,,,,,,,,,,,,,,,,10289
290,Maison médicale,nan nan,Rohrbach-lès-Bitche,Grand Est,57410,,49.047231,7.26437,False,,,,,,,,,,,,,,,,,,,,,,,,,,,,,,,,,,,,,,,,,,,,,,,,,,,,,,,,,,,,,,,,,,,,,,,,,,,,,,,,10290
291,Maison médicale,nan nan,Saint-Pierre-de-Chignac,Nouvelle-Aquitaine,24330,,45.1255863,0.8557337,False,,,,,,,,,,,,,,,,,,,,,,,,,,,,,,,,,,,,,,,,,,,,,,,,,,,,,,,,,,,,,,,,,,,,,,,,,,,,,,,,10291
292,Maison médicale,nan nan,Saint-Pierre-de-Chignac,Nouvelle-Aquitaine,24330,,45.125487,0.8559281,False,,,,,,,,,,,,,,,,,,,,,,,,,,,,,,,,,,,,,,,,,,,,,,,,,,,,,,,,,,,,,,,,,,,,,,,,,,,,,,,,10292
293,Maison médicale,nan nan,Pont-d'Ain,Ain,01160,,46.049242,5.333999,False,,,,,,,,,,,,,,,,,,,,,,,,,,,,,,,,,,,,,,,,,,,,,,,,,,,,,,,,,,,,,,,,,,,,,,,,,,,,,,,,10293
294,Maison médicale,nan nan,Is-sur-Tille,Côte-d'Or,21120,,47.523567,5.115198,False,,,,,,,,,,,,,,,,,,,,,,,,,,,,,,,,,,,,,,,,,,,,,,,,,,,,,,,,,,,,,,,,,,,,,,,,,,,,,,,,10294
295,Mathilde II,Rue d'Emendreville 2,Rouen,Normandie,76000,,49.4293937,1.0955132,False,,,,,,,,,,,,,,,,,,,,,,,,,,,,,,,,,,,,,,,,,,,,,,,,,,,,,,,,,,,,,,,,,,,,,,,,,,,,,,,,10295
296,Medical Clinic,nan nan,Les Belleville,Savoie,73440,+33 6 26 79 87 67,45.2957245,6.5858215,False,,,,,,,,,,,,,,,,,,,,,,,,,,,,,,,,,,,,,,,,,,,,,,,,,,,,,,,,,,,,,,,,,,,,,,,,,,,,,,,,10296
297,Medisud,nan nan,Nouméa,,,,-22.3006854,166.4453026,False,,,,,,,,,,,,,,,,,,,,,,,,,,,,,,,,,,,,,,,,,,,,,,,,,,,,,,,,,,,,,,,,,,,,,,,,,,,,,,,,10297
298,Médic Center,nan nan,Chalon-sur-Saône,Saône-et-Loire,71100,,46.7759328,4.8411009,False,,,,,,,,,,,,,,,,,,,,,,,,,,,,,,,,,,,,,,,,,,,,,,,,,,,,,,,,,,,,,,,,,,,,,,,,,,,,,,,,10298
299,OSTEOPATHE +33144679218,Rue de Dijon 1,Paris,Paris,75012,+33144679218,48.8356164,2.3853095,False,,,,,,,,,,,,,,,,,,,,,,,,,,,,,,,,,,,,,,,,,,,,,,,,,,,,,,,,,,,,,,,,,,,,,,,,,,,,,,,,10299
300,Ortholor Institut de chirurgie orthopédique et de traumatologie sportive,nan nan,Maxéville,Grand Est,54320,,48.7032268,6.1378008,False,,,,,,,,,,,,,,,,,,,,,,,,,,,,,,,,,,,,,,,,,,,,,,,,,,,,,,,,,,,,,,,,,,,,,,,,,,,,,,,,10300
301,Pole Santé,nan nan,Dijon,Côte-d'Or,21000,,47.3612572,5.0505328,False,,,,,,,,,,,,,,,,,,,,,,,,,,,,,,,,,,,,,,,,,,,,,,,,,,,,,,,,,,,,,,,,,,,,,,,,,,,,,,,,10301
302,Polyclinique Le Languedoc,nan nan,Narbonne,Occitanie,11100,+33 8 26 80 09 00,43.1822728,3.0258817,False,,,,,,,,,,,,,,,,,,,,,,,,,,,,,,,,,,,,,,,,,,,,,,,,,,,,,,,,,,,,,,,,,,,,,,,,,,,,,,,,10302
303,Polyclinique Paofai,nan nan,Papeete,,,,-17.5441447,-149.5754008,False,,,,,,,,,,,,,,,,,,,,,,,,,,,,,,,,,,,,,,,,,,,,,,,,,,,,,,,,,,,,,,,,,,,,,,,,,,,,,,,,10303
304,Polyclinique Priollet,Avenue du Général Charles de Gaulle 2,Châlons-en-Champagne,Grand Est,51000,,48.9503565,4.3685388,False,,,,,,,,,,,,,,,,,,,,,,,,,,,,,,,,,,,,,,,,,,,,,,,,,,,,,,,,,,,,,,,,,,,,,,,,,,,,,,,,10304
305,Polyclinique Saint-Christophe,nan nan,Soissons,Hauts-de-France,02200,,49.3777548,3.3125059,False,,,,,,,,,,,,,,,,,,,,,,,,,,,,,,,,,,,,,,,,,,,,,,,,,,,,,,,,,,,,,,,,,,,,,,,,,,,,,,,,10305
306,Polyclinique Sainte-Marguerite,nan nan,Auxerre,Yonne,89000,+33 3 86 94 49 49,47.8121417,3.5649417,False,,,,,,,,,,,,,,,,,,,,,,,,,,,,,,,,,,,,,,,,,,,,,,,,,,,,,,,,,,,,,,,,,,,,,,,,,,,,,,,,10306
307,Polyclinique Urbain V,nan nan,Avignon,Vaucluse,84000,,43.9443537,4.843183,False,,,,,,,,,,,,,,,,,,,,,,,,,,,,,,,,,,,,,,,,,,,,,,,,,,,,,,,,,,,,,,,,,,,,,,,,,,,,,,,,10307
308,Polyclinique du Parc,nan nan,Cholet,Pays de la Loire,49300,,47.0392773,-0.8985964,False,,,,,,,,,,,,,,,,,,,,,,,,,,,,,,,,,,,,,,,,,,,,,,,,,,,,,,,,,,,,,,,,,,,,,,,,,,,,,,,,10308
309,Pool médical,Rue des Rondeys nan,Le Russey,Doubs,25210,,47.1585064,6.7205934,False,,,,,,,,,,,,,,,,,,,,,,,,,,,,,,,,,,,,,,,,,,,,,,,,,,,,,,,,,,,,,,,,,,,,,,,,,,,,,,,,10309
310,Poste de Secours - Cinéscénie,nan nan,Les Epesses,Pays de la Loire,85590,,46.8908254,-0.9274123,False,,,,,,,,,,,,,,,,,,,,,,,,,,,,,,,,,,,,,,,,,,,,,,,,,,,,,,,,,,,,,,,,,,,,,,,,,,,,,,,,10310
311,Pôle Médical & Laboratoire d’Analyses,Avenue Simone Veil nan,Décines-Charpieu,Rhône,69150,,45.7680977,4.9801875,False,,,,,,,,,,,,,,,,,,,,,,,,,,,,,,,,,,,,,,,,,,,,,,,,,,,,,,,,,,,,,,,,,,,,,,,,,,,,,,,,10311
312,Pôle Santé Clemenceau,Place Georges Clémenceau nan,Beauvais,Hauts-de-France,60000,,49.429218,2.081133,False,,,,,,,,,,,,,,,,,,,,,,,,,,,,,,,,,,,,,,,,,,,,,,,,,,,,,,,,,,,,,,,,,,,,,,,,,,,,,,,,10312
313,Pôle Santé Grande Île,nan nan,Sarras,Ardèche,07370,,45.1815364,4.8086122,False,,,,,,,,,,,,,,,,,,,,,,,,,,,,,,,,,,,,,,,,,,,,,,,,,,,,,,,,,,,,,,,,,,,,,,,,,,,,,,,,10313
314,Pôle Santé des Andaines,nan nan,La Ferté Macé,Normandie,61600,,48.587885,-0.359609,False,,,,,,,,,,,,,,,,,,,,,,,,,,,,,,,,,,,,,,,,,,,,,,,,,,,,,,,,,,,,,,,,,,,,,,,,,,,,,,,,10314
315,Pôle de Chancelade,nan nan,Chancelade,Nouvelle-Aquitaine,24650,,45.2006511,0.6698078,False,,,,,,,,,,,,,,,,,,,,,,,,,,,,,,,,,,,,,,,,,,,,,,,,,,,,,,,,,,,,,,,,,,,,,,,,,,,,,,,,10315
316,Pôle de Santé Ouest Cotentin,Route du Rozel nan,Les Pieux,Normandie,50340,,49.508617,-1.8138726,False,,,,,,,,,,,,,,,,,,,,,,,,,,,,,,,,,,,,,,,,,,,,,,,,,,,,,,,,,,,,,,,,,,,,,,,,,,,,,,,,10316
317,Pôle de santé La Francilienne,Avenue de la République 22,Pontault-Combault,Seine-et-Marne,77340,,48.8057772,2.6151857,False,,,,,,,,,,,,,,,,,,,,,,,,,,,,,,,,,,,,,,,,,,,,,,,,,,,,,,,,,,,,,,,,,,,,,,,,,,,,,,,,10317
318,Pôle médical  Hasso,Rue de Saint-Louis 13,Hésingue,Grand Est,68220,,47.5760319,7.5245086,False,,,,,,,,,,,,,,,,,,,,,,,,,,,,,,,,,,,,,,,,,,,,,,,,,,,,,,,,,,,,,,,,,,,,,,,,,,,,,,,,10318
319,Pôle médical du littoral,nan nan,Pordic,Bretagne,22590,,48.5726546,-2.8143901,False,,,,,,,,,,,,,,,,,,,,,,,,,,,,,,,,,,,,,,,,,,,,,,,,,,,,,,,,,,,,,,,,,,,,,,,,,,,,,,,,10319
320,Résidence Les Sorbiers Rouges,nan nan,Saint-Hilaire-du-Harcouët,Normandie,50600,,48.5703601,-1.0965194,False,,,,,,,,,,,,,,,,,,,,,,,,,,,,,,,,,,,,,,,,,,,,,,,,,,,,,,,,,,,,,,,,,,,,,,,,,,,,,,,,10320
321,Résidence Sainte-Marie,nan nan,Metz,Grand Est,57070,,49.108626,6.190742,False,,,,,,,,,,,,,,,,,,,,,,,,,,,,,,,,,,,,,,,,,,,,,,,,,,,,,,,,,,,,,,,,,,,,,,,,,,,,,,,,10321
322,S.S.I.A.D. Le Levain,Rue du Pressoir Aubry 188,Olivet,Centre-Val de Loire,45160,,47.855191,1.896447,False,,,,,,,,,,,,,,,,,,,,,,,,,,,,,,,,,,,,,,,,,,,,,,,,,,,,,,,,,,,,,,,,,,,,,,,,,,,,,,,,10322
323,SERA - Centre de Radiothèrapie,Route de Findrol 20,Contamine-sur-Arve,Haute-Savoie,74130,,46.1452556,6.3190022,False,,,,,,,,,,,,,,,,,,,,,,,,,,,,,,,,,,,,,,,,,,,,,,,,,,,,,,,,,,,,,,,,,,,,,,,,,,,,,,,,10323
324,SSR Saint-Louis,nan nan,Saint-Vincent-de-Paul,Nouvelle-Aquitaine,40990,+33 5 58 55 99 00,43.7839481,-0.9892979,False,,,,,,,,,,,,,,,,,,,,,,,,,,,,,,,,,,,,,,,,,,,,,,,,,,,,,,,,,,,,,,,,,,,,,,,,,,,,,,,,10324
325,Sante Forme,Rue du Docteur Joseph Pitat 31,Basse-Terre,Guadeloupe,97100,,15.9978045,-61.7322239,False,,,,,,,,,,,,,,,,,,,,,,,,,,,,,,,,,,,,,,,,,,,,,,,,,,,,,,,,,,,,,,,,,,,,,,,,,,,,,,,,10325
326,Santé et Médecine du Travail de la Vallée de l'Oise,Rue des Prunelliers 3,Creil,Hauts-de-France,60100,,49.2603443,2.4958222,False,,,,,,,,,,,,,,,,,,,,,,,,,,,,,,,,,,,,,,,,,,,,,,,,,,,,,,,,,,,,,,,,,,,,,,,,,,,,,,,,10326
327,Service de Consultations et de Traitements Dentaires,nan nan,Lyon,Rhône,69007,+33 825 08 25 69,45.7508436,4.8384853,False,,,,,,,,,,,,,,,,,,,,,,,,,,,,,,,,,,,,,,,,,,,,,,,,,,,,,,,,,,,,,,,,,,,,,,,,,,,,,,,,10327
328,Simse imagerie médicale,nan nan,Schiltigheim,Grand Est,67300,,48.606844,7.7485308,False,,,,,,,,,,,,,,,,,,,,,,,,,,,,,,,,,,,,,,,,,,,,,,,,,,,,,,,,,,,,,,,,,,,,,,,,,,,,,,,,10328
329,Sylvain Marceul,nan nan,Montbazon,Centre-Val de Loire,37250,,47.2875038,0.7138259,False,,,,,,,,,,,,,,,,,,,,,,,,,,,,,,,,,,,,,,,,,,,,,,,,,,,,,,,,,,,,,,,,,,,,,,,,,,,,,,,,10329
330,Unité de Soins Longue Durée La Chênaie,nan nan,Saint-Rémy-en-Comté,Haute-Saône,70160,,47.839296,6.0926815,False,,,,,,,,,,,,,,,,,,,,,,,,,,,,,,,,,,,,,,,,,,,,,,,,,,,,,,,,,,,,,,,,,,,,,,,,,,,,,,,,10330
331,Unité de soin longue durée,nan nan,Le Tampon,Réunion,97430,,-21.2578928,55.5138977,False,,,,,,,,,,,,,,,,,,,,,,,,,,,,,,,,,,,,,,,,,,,,,,,,,,,,,,,,,,,,,,,,,,,,,,,,,,,,,,,,10331
332,Valmedica,nan nan,Nîmes,Occitanie,30000,,43.8147394,4.3471803,False,,,,,,,,,,,,,,,,,,,,,,,,,,,,,,,,,,,,,,,,,,,,,,,,,,,,,,,,,,,,,,,,,,,,,,,,,,,,,,,,10332
333,ZA Val Du Soleil,nan nan,Sorgues,Vaucluse,84700,,43.9866818,4.8882829,False,,,,,,,,,,,,,,,,,,,,,,,,,,,,,,,,,,,,,,,,,,,,,,,,,,,,,,,,,,,,,,,,,,,,,,,,,,,,,,,,10333
334,cabinet infirmier,nan nan,Villeneuve-la-Guyard,Yonne,89340,,48.3398824,3.065305,False,,,,,,,,,,,,,,,,,,,,,,,,,,,,,,,,,,,,,,,,,,,,,,,,,,,,,,,,,,,,,,,,,,,,,,,,,,,,,,,,10334
335,centre medicale,nan nan,Miramas,Bouches-du-Rhône,13140,,43.5871838,5.0067414,False,,,,,,,,,,,,,,,,,,,,,,,,,,,,,,,,,,,,,,,,,,,,,,,,,,,,,,,,,,,,,,,,,,,,,,,,,,,,,,,,10335
336,clinique Jeanne d'arc,nan nan,Nantes,Pays de la Loire,44100,,47.2174041,-1.5773625,False,,,,,,,,,,,,,,,,,,,,,,,,,,,,,,,,,,,,,,,,,,,,,,,,,,,,,,,,,,,,,,,,,,,,,,,,,,,,,,,,10336
337,infirmerie,nan nan,Takaroa,,,,-14.7058914,-145.2498875,False,,,,,,,,,,,,,,,,,,,,,,,,,,,,,,,,,,,,,,,,,,,,,,,,,,,,,,,,,,,,,,,,,,,,,,,,,,,,,,,,10337
338,Établissement de santé mentale Porte de l’Isère,nan nan,Villefontaine,Isère,38090,,45.6120354,5.1543102,False,,,,,,,,,,,,,,,,,,,,,,,,,,,,,,,,,,,,,,,,,,,,,,,,,,,,,,,,,,,,,,,,,,,,,,,,,,,,,,,,10338
339,Établissement de soins de suite et de réadaptation d'Évian MGEN,Boulevard Jean Jaurès 59,Évian-les-Bains,Haute-Savoie,74500,,46.3992755,6.5986211,False,,,,,,,,,,,,,,,,,,,,,,,,,,,,,,,,,,,,,,,,,,,,,,,,,,,,,,,,,,,,,,,,,,,,,,,,,,,,,,,,10339
