,id,name,address,city,state,zip,county,phone,type,ownership,emergency,quality,LAT,LON
32,20032,C.H.U. - Hôpital Gabriel Montpied,,,,,,+33 4 73 75 07 50,,,yes,,45.7601964,3.0883572
36,20036,CHAM - Centre Hospitalier de l'Arrondissement de Montreuil-sur-mer,Route Départementale,,,,,+33 3 21 89 46 25,,,yes,,50.4156606,1.6606522000000001
38,20038,CHRU de Nancy Brabois,,,,,,,,,yes,,48.648565999999995,6.14586
42,20042,CHU Amiens Sud,,,,,,+33 3 22 45 60 00,,,yes,,49.870009499999995,2.2480667000000003
43,20043,CHU Estaing,,,,,,+33 4 73 75 07 50,,,yes,,45.7866733,3.1091001
44,20044,CHU Félix Guyon,Allée des Topazes,,,,,0262 90 50 50,,,yes,,-20.8899622,55.4447582
46,20046,CHU Louise Michel Hopital Nord,Route de Châteaugay,,,,,,,,yes,,45.838867900000004,3.0924428
48,20048,CHU d'Angers,Rue Larrey,,,,,+33 2 41 35 36 37,,,yes,,47.480650399999995,-0.5595356
49,20049,CHU de Guadeloupe,,,,,,+33 5 90 89 10 10,,,yes,,16.2384565,-61.528328099999996
50,20050,CHU de Martinique,,,,,,0596 55 20 00,,,yes,,14.635166199999999,-61.037134200000004
53,20053,CHU de Nîmes,,,,,,+33 4 66 68 68 68,,,yes,,43.824220700000005,4.325386900000001
54,20054,CHU de Reims,,,,,,+33 3 26 78 78 78,,,yes,,49.2299514,4.0151871
55,20055,CHU de Saint-Pierre,Avenue Président Mitterrand,,,,,0262 35 90 00,,,yes,,-21.3436878,55.4962936
85,20085,Centre Hospitalier Alpes Léman,Route de Findrol,,,,,,,,yes,,46.14332279999999,6.3205583
87,20087,Centre Hospitalier Ardèche Méridionale,,,,,,+33 4 75 35 60 60,,,yes,,44.6128718,4.3964802
88,20088,Centre Hospitalier Ardèche Nord,,,,,,+33 4 75 67 35 00,,,yes,,45.24326129999999,4.6647689
89,20089,Centre Hospitalier Aunay-Bayeux,,,,,,+33 2 31 51 51 51,,,yes,,49.275013,-0.701459
91,20091,Centre Hospitalier Avranches - Granville,,,,,,+33 2 33 91 50 00,,,yes,,48.828773600000005,-1.5678040000000002
92,20092,Centre Hospitalier Avranches - Granville,,,,,,+33 2 33 91 50 00,,,yes,,48.691458000000004,-1.35309
98,20098,Centre Hospitalier Chamonix Mont Blanc,,,,,,+33 4 50 53 84 00,,,yes,,45.9138774,6.861934599999999
99,20099,Centre Hospitalier Côte de Lumière,Rue Jacques Monod,,,,,+33 2 51 21 85 85,,,yes,,46.51676079999999,-1.7485529
101,20101,Centre Hospitalier Docteur Récamier,,,,,,+33 4 79 42 59 59,,,yes,,45.761806,5.684719
102,20102,Centre Hospitalier Départemental - Site de La-Roche-sur-Yon,,,,,,+33 2 51 44 61 61,,,yes,,46.6671526,-1.4155459
103,20103,Centre Hospitalier Départemental - Site de Luçon,,,,,,+33 2 51 28 33 33,,,yes,,46.4498685,-1.1745527
104,20104,Centre Hospitalier Départemental - Site de Montaigu,,,,,,+33 2 51 45 40 00,,,yes,,46.9710322,-1.3108931000000001
107,20107,Centre Hospitalier Ferdinand Grall,,,,,,+33 2 98 21 80 00,,,yes,,48.4489023,-4.2338213
109,20109,Centre Hospitalier Francis Robert,,,,,,+33 2 40 09 44 00,,,yes,,47.3730553,-1.1743569
111,20111,Centre Hospitalier Gabriel Deplante,Rue de la Forêt,,,,,+33 4 50 01 80 00,,,yes,,45.864621,5.937015
115,20115,Centre Hospitalier Guy Thomas,,,,,,+33 4 73 67 80 00,,,yes,,45.890270799999996,3.1120647999999997
123,20123,Centre Hospitalier Intercommunal Elbeuf. Louviers. Val de Reuil,,,,,,+33 2 32 25 75 00,,,yes,,49.2126878,1.1768486999999999
124,20124,Centre Hospitalier Intercommunal Lucie et Raymond Aubrac,Allée de la Source,,,,,+33 1 43 86 20 00,,,yes,,48.7225968,2.4514191000000003
126,20126,Centre Hospitalier Intercommunal des Alpes du Sud,Place Auguste Muret,,,,,+33 4 92 40 61 61,,,yes,,44.5581617,6.0730851999999995
127,20127,Centre Hospitalier Intercommunal des Alpes du Sud,,,,,,+33 4 92 33 70 00,,,yes,,44.193735100000005,5.9428555
129,20129,Centre Hospitalier Intercommunal des Andaines - Site de la Ferté-Macé,,,,,,+33 2 33 30 50 50,,,yes,,48.5991475,-0.34732579999999996
131,20131,Centre Hospitalier Jacques Monod,,,,,,+33 2 33 62 62 00,,,yes,,48.7473277,-0.5412251
132,20132,Centre Hospitalier La Tour Blanche,,,,,,+33 2 54 03 54 03,,,yes,,46.958564100000004,1.9976040000000002
136,20136,Centre Hospitalier Loire-Vendée-Océan - Site de Challans,,,,,,+33 2 51 49 50 00,,,yes,,46.845557899999996,-1.8714987
138,20138,Centre Hospitalier Louis Pasteur,,,,,,+33 2 37 30 30 30,,,yes,,48.4241098,1.5086658000000002
139,20139,Centre Hospitalier Louis Pasteur,,,,,,+33 3 84 79 80 80,,,yes,,47.0819311,5.4700545
141,20141,Centre Hospitalier Lyon-Sud,Chemin du Grand Revoyet,,,,,+33 8 25 08 25 69,,,yes,,45.7037174,4.8074577000000005
146,20146,Centre Hospitalier Marguerite de Lorraine,,,,,,+33 2 33 83 40 40,,,yes,,48.5226591,0.5503153000000001
147,20147,Centre Hospitalier Marie Madeleine,Rue Thérèse,,,,,+33 3 87 88 80 00,,,yes,,49.181845,6.911648
154,20154,Centre Hospitalier Mémorial,,,,,,+33 2 33 06 33 33,,,yes,,49.104662700000006,-1.1112861
155,20155,Centre Hospitalier Métropole Savoie,,,,,,+33 4 79 96 50 50,,,yes,,45.56391370000001,5.9145497
156,20156,Centre Hospitalier Métropole Savoie (site d'Aix-les-Bains),,,,,,+33 4 79 88 61 61,,,yes,,45.6980554,5.903834
158,20158,Centre Hospitalier Nord Ouest Villefranche,,,,,,+33 4 74 09 25 03,,,yes,,46.0055909,4.692005
159,20159,Centre Hospitalier Paul Ardier,,,,,,+33 4 73 89 72 72,,,yes,,45.5411035,3.251009
164,20164,Centre Hospitalier Pierre Oudot,Avenue du Médipôle,,,,,+33 4 69 15 70 00,,,yes,,45.5964572,5.242743099999999
169,20169,Centre Hospitalier René Pleven,,,,,,+33 2 96 85 72 85,,,yes,,48.444687200000004,-2.0507735
171,20171,Centre Hospitalier Régional Universitaire de Lille,,,,,,,,,yes,,50.6083638,3.0301982999999995
172,20172,Centre Hospitalier Régional d'Orléans,,,,,,+33 2 38 51 44 44,,,yes,,47.8368281,1.9173824000000002
174,20174,Centre Hospitalier Saint-Charles,,,,,,+33 3 83 62 20 20,,,yes,,48.675808,5.886645
179,20179,Centre Hospitalier Sainte-Béatrix de Lorraine,Rue Georges Lang,,,,,+33 329 234 141,,,yes,,48.014008200000006,6.5906405
180,20180,Centre Hospitalier Sainte-Catherine,,,,,,+33 3 88 71 67 67,,,yes,,48.7472653,7.348221700000001
193,20193,Centre Hospitalier Spécialisé la Chartreuse,,,,,,,,,yes,,47.3222547,5.015575
195,20195,Centre Hospitalier Sud Francilien,,,,,,+33 1 61 69 61 69,,,yes,,48.6215433,2.4574678
197,20197,Centre Hospitalier Universitaire Côte de Nacre,Avenue de la Côte de Nacre,,,,,+33 2 31 06 31 06,,,yes,,49.202482,-0.3534934
199,20199,Centre Hospitalier Yves Grassot,,,,,,+33 5 53 20 30 40,,,yes,,44.5019139,0.16553020000000002
200,20200,Centre Hospitalier Yves Touraine,,,,,,+33 4 76 32 64 32,,,yes,,45.539076,5.6644120000000004
201,20201,Centre Hospitalier d'Abbeville,,,,,,+33 3 22 25 52 00,,,yes,,50.1007453,1.8312941999999999
203,20203,Centre Hospitalier d'Ambert,,,,,,+33 4 73 82 73 82,,,yes,,45.553968700000006,3.7420262
204,20204,Centre Hospitalier d'Argonne,,,,,,+33 3 26 60 81 41,,,yes,,49.091695200000004,4.909927400000001
205,20205,Centre Hospitalier d'Armentières,,,,,,+33 3 20 48 33 33,,,yes,,50.683678,2.8689847
206,20206,Centre Hospitalier d'Arras,,,,,,+33 3 21 21 10 10,,,yes,,50.297033,2.755097
207,20207,Centre Hospitalier d'Auch,,,,,,+33 5 62 61 32 32,,,yes,,43.6313603,0.5809226
211,20211,Centre Hospitalier d'Hazebrouck,,,,,,+33 3 28 42 66 00,,,yes,,50.727861,2.5376066
214,20214,Centre Hospitalier de Beauvais,,,,,,+33 3 44 11 21 21,,,yes,,49.450942100000006,2.0719811000000004
218,20218,Centre Hospitalier de Boulogne-sur-Mer,,,,,,+33 3 21 99 33 33,,,yes,,50.7220646,1.6256386
219,20219,Centre Hospitalier de Brioude,,,,,,+33 4 71 50 99 99,,,yes,,45.297445700000004,3.3811491
220,20220,Centre Hospitalier de Béthune,,,,,,+33 3 21 64 44 44,,,yes,,50.5163509,2.6722465
222,20222,Centre Hospitalier de Calais,,,,,,+33 3 21 46 33 33,,,yes,,50.9428578,1.8892642
223,20223,Centre Hospitalier de Cambrai,Avenue de Paris,,,,,+33 3 27 73 73 73,,,yes,,50.1656773,3.228497
227,20227,Centre Hospitalier de Chauny,,,,,,+33 3 23 38 55 00,,,yes,,49.6235703,3.2306461
228,20228,Centre Hospitalier de Château du Loir,,,,,,+33 2 43 44 77 77,,,yes,,47.6912468,0.4202901
229,20229,Centre Hospitalier de Compiègne,,,,,,+33 3 44 23 60 00,,,yes,,49.386385,2.7873618
230,20230,Centre Hospitalier de Condom,,,,,,+33 5 62 28 20 77,,,yes,,43.9562919,0.3782684
232,20232,Centre Hospitalier de Creil,Boulevard Laennec BP 72,,,,,+33 3 44 61 60 00,,,yes,,49.2481747,2.4577253
233,20233,Centre Hospitalier de Crest,,,,,,+33 4 75 25 37 00,,,yes,,44.7278265,5.007578
235,20235,Centre Hospitalier de Douai,,,,,,+33 3 27 99 61 61,,,yes,,50.340920000000004,3.1020257
236,20236,Centre Hospitalier de Doullens,,,,,,+33 3 22 32 33 33,,,yes,,50.1539297,2.3514221
237,20237,Centre Hospitalier de Dunkerque,,,,,,+33 3 28 28 59 00,,,yes,,51.03849,2.4003221000000003
238,20238,Centre Hospitalier de Falaise,Boulevard des Bercagnes,,,,,+33 2 31 40 40 40,,,yes,,48.890713500000004,-0.2065239
240,20240,Centre Hospitalier de Gisors - Pôle Sanitaire du Vexin,,,,,,+33 2 32 27 76 76,,,yes,,49.2828514,1.7576147
241,20241,Centre Hospitalier de Grasse - Site Clavary,,,,,,+33 4 93 09 55 55,,,yes,,43.620205,6.928625299999999
242,20242,Centre Hospitalier de Haguenau,,,,,,+33 3 88 06 33 33,,,yes,,48.7978044,7.7822081999999995
243,20243,Centre Hospitalier de Hirson,Rue Aux Loups,,,,,+33 3 23 58 82 82,,,yes,,49.925533,4.073861
246,20246,Centre Hospitalier de La Mûre,,,,,,+33 4 76 81 42 00,,,yes,,44.9052689,5.7936902
249,20249,Centre Hospitalier de Laon,,,,,,+33 3 23 24 33 33,,,yes,,49.562246200000004,3.6112165000000003
250,20250,Centre Hospitalier de Laval,,,,,,+33 2 43 66 50 00,,,yes,,48.064628799999994,-0.7869535
251,20251,Centre Hospitalier de Lens,,,,,,+33 3 21 69 12 34,,,yes,,50.441403799999996,2.8202238
253,20253,Centre Hospitalier de Lunéville,,,,,,+33 3 83 76 12 12,,,yes,,48.5905635,6.4914122
257,20257,Centre Hospitalier de Montdidier,,,,,,+33 3 22 78 70 00,,,yes,,49.6502059,2.57355
258,20258,Centre Hospitalier de Montgelas,,,,,,+33 4 78 07 30 30,,,yes,,45.6004523,4.763846900000001
259,20259,Centre Hospitalier de Montluçon,,,,,,+33 4 70 02 30 30,,,yes,,46.3428578,2.6090735
260,20260,Centre Hospitalier de Montélimar,,,,,,+33 4 75 53 40 00,,,yes,,44.5691908,4.7812980000000005
262,20262,Centre Hospitalier de Moulins-Yzeure,,,,,,+33 4 70 35 77 77,,,yes,,46.570525599999996,3.3245466
265,20265,Centre Hospitalier de Noyon,,,,,,+33 3 44 44 42 22,,,yes,,49.58967929999999,2.9986108
266,20266,Centre Hospitalier de Nérac,,,,,,,,,yes,,44.136159,0.33674
271,20271,Centre Hospitalier de Péronne,,,,,,+33 3 22 83 60 00,,,yes,,49.93462,2.927698
272,20272,Centre Hospitalier de Rambouillet,,,,,,+33 1 34 83 78 78,,,yes,,48.6514768,1.8228153000000002
274,20274,Centre Hospitalier de Roanne,,,,,,+33 4 77 44 30 00,,,yes,,46.043253,4.080851
277,20277,Centre Hospitalier de Saint-Flour,,,,,,+33 4 71 60 64 64,,,yes,,45.034481400000004,3.0851227000000003
278,20278,Centre Hospitalier de Saint-Hilaire-du-Harcouet,,,,,,+33 2 33 79 44 44,,,yes,,48.5702004,-1.0959451999999998
281,20281,Centre Hospitalier de Sambre-Avesnois,,,,,,+33 3 27 69 43 43,,,yes,,50.2782132,3.95791
284,20284,Centre Hospitalier de Saumur,,,,,,+33 2 41 53 30 30,,,yes,,47.2472895,-0.057035199999999994
286,20286,Centre Hospitalier de Seclin,,,,,,,,,yes,,50.5444479,3.0188982999999996
287,20287,Centre Hospitalier de Soissons,,,,,,+33 3 23 75 70 70,,,yes,,49.3686545,3.3356068999999997
290,20290,Centre Hospitalier de Sélestat,,,,,,+33 3 88 57 56 00,,,yes,,48.2634187,7.431273299999999
292,20292,Centre Hospitalier de Thiers,Route du Fau,,,,,+33 4 73 51 10 00,,,yes,,45.85808,3.5196444
293,20293,Centre Hospitalier de Tourcoing,,,,,,+33 3 20 69 49 49,,,yes,,50.748005,3.1808049
296,20296,Centre Hospitalier de Valenciennes,,,,,,+33 3 27 14 33 33,,,yes,,50.3611231,3.4967099000000004
298,20298,Centre Hospitalier de Vitry-le-François,,,,,,+33 3 26 73 60 60,,,yes,,48.7171593,4.6012375
299,20299,Centre Hospitalier de l'Aigle,,,,,,+33 2 33 24 95 95,,,yes,,48.7666018,0.6098708
301,20301,Centre Hospitalier de l'Ouest Vosgien - Site de Vittel,,,,,,+33 3 29 94 80 00,,,yes,,48.2061967,5.9456899000000005
305,20305,Centre Hospitalier de la Côte Fleurie,La Brèche du Bois,,,,,+33 2 31 89 89 89,,,yes,,49.3812756,0.1304307
306,20306,Centre Hospitalier de la Milétrie,Rue de la Milétrie,,,,,+33 5 49 44 44 44,,,yes,,46.5516086,0.3877045
308,20308,Centre Hospitalier des Quatre Villes,Grande Rue,,,,,+33 1 77707070,,,yes,,48.8207745,2.201871
310,20310,Centre Hospitalier du Forez,,,,,,+33 4 77 96 78 00,,,yes,,45.6125842,4.0475763
311,20311,Centre Hospitalier du Haut-Bugey,Route de Veyziat,,,,,+33 4 74 73 10 01,,,yes,,46.2609108,5.6307257
313,20313,Centre Hospitalier du Mans,,,,,,+33 2 43 43 43 43,,,yes,,48.012716600000005,0.17895339999999998
315,20315,Centre Hospitalier du Nord-Mayenne,,,,,,+33 2 43 08 73 00,,,yes,,48.3069815,-0.6048005999999999
317,20317,Centre Hospitalier d‘Arcachon,,,,,,+33 5 57 52 90 00,,,yes,,44.6155719,-1.1140113
318,20318,Centre Hospitalier intercommunal Alençon-Mamers,,,,,,+33 2 43 31 31 31,,,yes,,48.359433200000005,0.3607798
319,20319,Centre Hospitalier Émile Durkheim,Avenue Robert Schuman,,,,,+33 3 29 68 70 00,,,yes,,48.179431799999996,6.4541012
320,20320,Centre Hospitalier Émile Roux,,,,,,+33 4 71 04 32 10,,,yes,,45.050816,3.8757935
344,20344,Centre Médico Chirurgical du Mans,,,,,,+33 2 43 78 38 38,,,yes,,47.9651921,0.22571170000000002
349,20349,Centre Médico-Chirurgical de l'Europe,,,,,,+33 1 39 17 22 22,,,yes,,48.880691,2.10698
433,20433,Centre hopitalier de Chaumont,,,,,,+33 3 25 30 70 30,,,yes,,48.1212756,5.1379222
434,20434,Centre hospitaier de Saint-Tropez,Rond-Point du Général Diego Brosset,,,,,+33 4 98 12 50 00,,,yes,,43.2493068,6.572216900000001
435,20435,Centre hospitalier,,,,,,+33 2 32 23 60 00,,,yes,,48.74007460000001,0.9208392
436,20436,Centre hospitalier,,,,,,+33 2 54 29 60 00,,,yes,,46.7988082,1.6925839
438,20438,Centre hospitalier Alphonse Guérin,Rue du Roi Arthur,,,,,+33 2 97 73 26 26,,,yes,,47.936564399999995,-2.3970238
439,20439,Centre hospitalier Alès-Cévennes,,,,,,+33 4 66 78 33 33,,,yes,,44.144635,4.0931699
440,20440,Centre hospitalier Annecy-Genevois,,,,,,+33 4 50 49 65 65,,,yes,,46.1471833,6.0790072
441,20441,Centre hospitalier Ariège Couserans,,,,,,+33 5 61 96 20 20,,,yes,,43.0014401,1.1291401
442,20442,Centre hospitalier Auban-Moët,,,,,,+33 3 26 58 70 00,,,yes,,49.031017999999996,3.956321
444,20444,Centre hospitalier Comminges Pyrénées,,,,,,+33 5 62 00 40 00,,,yes,,43.112755,0.7137674
448,20448,Centre hospitalier Eure-Seine,Rue Louis Gillain,,,,,+33 2 32 33 80 00,,,yes,,49.0327971,1.1112600000000001
449,20449,Centre hospitalier Eure-Seine,Rue du Docteur Burnet,,,,,+33 2 32 71 66 00,,,yes,,49.090833200000006,1.4889871000000001
451,20451,Centre hospitalier François Quesnay,,,,,,+33 1 34 97 40 00,,,yes,,48.9997244,1.6720779
453,20453,Centre hospitalier Geneviève de Gaulle Anthonioz,,,,,,+33 3 25 56 84 84,,,yes,,48.656150200000006,4.9617002999999995
456,20456,Centre hospitalier Henri Mondor,,,,,,+33 4 71 46 56 56,,,yes,,44.9274367,2.4335188999999997
457,20457,Centre hospitalier Henri laborit,,,,,,,,,yes,,46.551615999999996,0.3877224
459,20459,Centre hospitalier Hôtel Dieu,,,,,,+33 3 82 44 70 00,,,yes,,49.536161299999996,5.780996599999999
461,20461,Centre hospitalier Jacques Boutard,,,,,,+33 5 55 75 75 75,,,yes,,45.5158334,1.2028489
462,20462,Centre hospitalier Jacques Cœur,,,,,,+33 2 48 48 48 48,,,yes,,47.083814200000006,2.4400431
463,20463,Centre hospitalier Jacques Lacarin,Boulevard Denière,,,,,+33 4 70 97 33 33,,,yes,,46.1240941,3.4327422999999997
465,20465,Centre hospitalier Le Cateau,,,,,,+33 3 27 84 66 66,,,yes,,50.1041776,3.5360532
468,20468,Centre hospitalier Louis Constant Fleming,Spring Concordia,,,,,+33 5 90 52 25 25,,,yes,,18.065498100000003,-63.074023499999996
469,20469,Centre hospitalier Louis Jaillon,Montée de l'Hôpital,,,,,+33 3 84 41 33 33,,,yes,,46.384532799999995,5.8670067
470,20470,Centre hospitalier Lucien Hussel,,,,,,+33 4 74 31 33 33,,,yes,,45.536348700000005,4.8785738
471,20471,Centre hospitalier Manchester,,,,,,+33 3 24 58 70 70,,,yes,,49.7613444,4.6946447000000004
472,20472,Centre hospitalier Max Querrien,Chemin de Kerpuns,,,,,,,,yes,,48.7724685,-3.0362123
473,20473,Centre hospitalier Michel Mazéas,,,,,,+33 2 98 75 10 10,,,yes,,48.084205600000004,-4.318537999999999
474,20474,Centre hospitalier Notre-Dame de la Miséricorde,,,,,,+33 4 95 29 90 90,,,yes,,41.923072999999995,8.730833500000001
475,20475,Centre hospitalier Ouest Réunion,,,,,,02 62 45 30 30,,,yes,,-20.977619100000002,55.30048670000001
476,20476,Centre hospitalier Paul Martinais,,,,,,+33 2 47 91 33 33,,,yes,,47.1287167,1.0015743000000001
477,20477,Centre hospitalier Pierre Dezarnaulds,,,,,,+33 2 38 29 38 29,,,yes,,47.690261299999996,2.6369145
478,20478,Centre hospitalier René Dubos,,,,,,+33 1 30 75 40 40,,,yes,,49.0607915,2.0939121
479,20479,Centre hospitalier Rives de Seine - Neuilly-sur-Seine,,,,,,+33 1 40 88 60 00,,,yes,,48.890373600000004,2.2613266
480,20480,Centre hospitalier Robert Bisson,,,,,,+33 2 31 61 31 31,,,yes,,49.143406,0.23187129999999997
481,20481,Centre hospitalier Robert Morlevat,,,,,,+33 3 80 89 64 64,,,yes,,47.495789200000004,4.3424166
482,20482,Centre hospitalier Saint-Esprit,,,,,,+33 5 53 69 70 71,,,yes,,44.2148783,0.6334880999999999
483,20483,Centre hospitalier Saint-Nazaire,Boulevard Georges Charpak,,,,,+33 2 72 27 80 00,,,yes,,47.2644084,-2.2600696
485,20485,Centre hospitalier Sainte-Marie,,,,,,+33 5 90 97 65 00,,,yes,,15.8897434,-61.3073906
486,20486,Centre hospitalier Simone Veil,,,,,,+33 2 99 74 14 14,,,yes,,48.123634499999994,-1.2267728999999998
487,20487,Centre hospitalier Universitaire de Nantes,,,,,,+33 2 40 08 33 33,,,yes,,47.2093415,-1.5551253
488,20488,Centre hospitalier William Morey,,,,,,+33 3 85 44 66 88,,,yes,,46.777113299999996,4.8392774
489,20489,Centre hospitalier Yves Le Foll,,,,,,+33 2 96 01 71 23,,,yes,,48.494007,-2.753637
490,20490,Centre hospitalier d'Albertville-Moûtiers,,,,,,+33 4 79 89 55 55,,,yes,,45.6697133,6.3699983
491,20491,Centre hospitalier d'Albertville-Moûtiers,,,,,,+33 4 79 09 60 60,,,yes,,45.4835066,6.5339946
492,20492,Centre hospitalier d'Albi,,,,,,+33 5 63 47 47 47,,,yes,,43.925009499999994,2.1439633999999996
493,20493,Centre hospitalier d'Alençon,Rue de Fresnay,,,,,+33 2 33 32 30 30,,,yes,,48.426406,0.08657639999999998
495,20495,Centre hospitalier d'Amboise,,,,,,+33 2 47 23 33 33,,,yes,,47.4092098,0.9804845
496,20496,Centre hospitalier d'Angoulême,,,,,,+33 5 45 24 40 40,,,yes,,45.6366171,0.1183945
497,20497,Centre hospitalier d'Antibes - Juan-les-Pins,Avenue de Nice,,,,,,,,yes,,43.602543,7.116229
498,20498,Centre hospitalier d'Argentan,Rue Aristide Briand,,,,,+33 2 33 12 33 12,,,yes,,48.7465864,-0.02026
499,20499,Centre hospitalier d'Argenteuil,,,,,,+33 1 34 23 24 25,,,yes,,48.9423763,2.2357211
500,20500,Centre hospitalier d'Arles,,,,,,+33 4 90 49 29 29,,,yes,,43.659021100000004,4.635536599999999
501,20501,Centre hospitalier d'Arpajon,,,,,,+33 1 64 92 92 92,,,yes,,48.5844717,2.2390163
502,20502,Centre hospitalier d'Aubagne,,,,,,+33 4 42 84 70 00,,,yes,,43.29171229999999,5.562814599999999
503,20503,Centre hospitalier d'Avallon,,,,,,+33 3 86 34 66 00,,,yes,,47.489703399999996,3.9052601000000005
504,20504,Centre hospitalier d'Avignon,,,,,,+33 4 32 75 33 33,,,yes,,43.9195164,4.7965552
505,20505,Centre hospitalier d'Elbeuf,Rue du Docteur Villiers,,,,,+33 2 32 96 35 35,,,yes,,49.306576799999995,1.0396531999999998
506,20506,Centre hospitalier d'Embrun,,,,,,+33 4 92 43 73 00,,,yes,,44.5618383,6.4927456
508,20508,Centre hospitalier d'Oloron,,,,,,,,,yes,,43.1966977,-0.6154097
509,20509,Centre hospitalier d'Orange,,,,,,+33 4 90 11 22 22,,,yes,,44.1479406,4.8216057999999995
510,20510,Centre hospitalier d'Orsay,,,,,,+33 1 69 29 75 75,,,yes,,48.699957899999994,2.1868766
511,20511,Centre hospitalier d'Ortez,,,,,,+33 5 59 69 70 70,,,yes,,43.4862888,-0.77277
512,20512,Centre hospitalier d'Étampes,,,,,,+33 1 60 80 76 76,,,yes,,48.4200853,2.1509242000000004
513,20513,Centre hospitalier de Bagnols-sur-Cèze,,,,,,+33 4 66 79 10 11,,,yes,,44.15826989999999,4.6153648
514,20514,Centre hospitalier de Bagnères-de-Bigorre,,,,,,+33 5 62 91 41 11,,,yes,,43.066465,0.1466433
516,20516,Centre hospitalier de Basse-Terre,Avenue Gaston Feuillard,,,,,+33 590 80 54 54,,,yes,,16.004653400000002,-61.72980129999999
517,20517,Centre hospitalier de Bastia,,,,,,+33 4 95 59 11 11,,,yes,,42.6803543,9.427702499999999
518,20518,Centre hospitalier de Bergerac,,,,,,+33 5 53 63 88 88,,,yes,,44.8515028,0.49917619999999996
519,20519,Centre hospitalier de Bernay,Rue Anne de Ticheville,,,,,+33 2 32 45 63 00,,,yes,,49.089714799999996,0.5910711
520,20520,Centre hospitalier de Bigorre - La Gespe,,,,,,+33 5 62 51 51 51,,,yes,,43.219055100000006,0.056632
522,20522,Centre hospitalier de Blaye,,,,,,+33 5 57 33 40 00,,,yes,,45.13393,-0.659974
524,20524,Centre hospitalier de Blois,,,,,,+33 2 54 55 66 33,,,yes,,47.6065446,1.3433667999999999
528,20528,Centre hospitalier de Bourg-Saint-Maurice,,,,,,+33 4 79 41 79 79,,,yes,,45.617099200000006,6.7634514999999995
529,20529,Centre hospitalier de Brignoles,,,,,,+33 4 94 72 66 00,,,yes,,43.404717,6.066261
530,20530,Centre hospitalier de Brive-la-Gaillarde,,,,,,,,,yes,,45.1677815,1.5315587
531,20531,Centre hospitalier de Béziers,Rue Valentin Haüy,,,,,+33 4 67 35 70 35,,,yes,,43.342321399999996,3.2536522999999997
532,20532,Centre hospitalier de Cahors,,,,,,+33 5 65 20 50 50,,,yes,,44.4448503,1.437638
533,20533,Centre hospitalier de Calvi-Balagne,,,,,,+33 9 74 56 57 38,,,yes,,42.5491318,8.7655602
536,20536,Centre hospitalier de Carcassonne,,,,,,+33 4 68 24 24 24,,,yes,,43.222308,2.3935785
537,20537,Centre hospitalier de Carhaix,,,,,,+33 2 98 99 20 20,,,yes,,48.2738275,-3.5806077000000003
538,20538,Centre hospitalier de Carpentras,Rond-Point de l'Amitié Vevey Seesen,,,,,+33 4 32 85 88 88,,,yes,,44.047791100000005,5.0269223
539,20539,Centre hospitalier de Castelnaudary,,,,,,+33 4 68 94 57 52,,,yes,,43.317226500000004,1.9611186
542,20542,Centre hospitalier de Champagnole,Rue de Franche Comté,,,,,+33 3 84 53 02 02,,,yes,,46.737379,5.9095529
545,20545,Centre hospitalier de Chatellerault,,,,,,+33 5 49 02 90 90,,,yes,,46.829268400000004,0.5550704000000001
546,20546,Centre hospitalier de Cholet,,,,,,+33 2 41 49 60 00,,,yes,,47.0408295,-0.9005742
547,20547,Centre hospitalier de Châlons-en-Champagne,,,,,,+33 3 26 69 60 60,,,yes,,48.9730152,4.3723410000000005
549,20549,Centre hospitalier de Châteaubriant,,,,,,+33 2 40 55 88 00,,,yes,,47.727137299999995,-1.3797966999999998
550,20550,Centre hospitalier de Châteaudun,,,,,,+33 2 37 44 40 40,,,yes,,48.075337100000006,1.3561809
551,20551,Centre hospitalier de Châtillon-sur-Seine,,,,,,+33 3 80 91 21 21,,,yes,,47.863412,4.5575898
552,20552,Centre hospitalier de Clamecy,,,,,,+33 3 86 27 60 00,,,yes,,47.454201700000006,3.5105506
553,20553,Centre hospitalier de Clermont de l'Oise,,,,,,+33 3 44 77 33 00,,,yes,,49.378951799999996,2.4104261
555,20555,Centre hospitalier de Cornouaille,Avenue Yves Thépot,,,,,+33 2 98 52 60 60,,,yes,,47.9875037,-4.0975146
556,20556,Centre hospitalier de Coulommiers,,,,,,+33 1 64 77 64 77,,,yes,,48.8265658,3.0934875
559,20559,Centre hospitalier de Coutances,Rue de la Gare,,,,,+33 2 33 47 40 00,,,yes,,49.04273870000001,-1.4421312
560,20560,Centre hospitalier de Dax-Côte d'Argent,Boulevard Yves Du Manoir,,,,,+33 5 58 91 48 48,,,yes,,43.7098295,-1.0394178
561,20561,Centre hospitalier de Decazeville,,,,,,+33 5 65 43 71 71,,,yes,,44.5693952,2.2520522
562,20562,Centre hospitalier de Decize,,,,,,+33 3 86 77 78 79,,,yes,,46.8213067,3.4524614000000002
563,20563,Centre hospitalier de Denain,,,,,,+33 3 27 24 30 00,,,yes,,50.329632000000004,3.393933
564,20564,Centre hospitalier de Die,,,,,,+33 4 75 22 55 00,,,yes,,44.755526,5.3704681
565,20565,Centre hospitalier de Dieppe,Avenue Pasteur,,,,,+33 2 32 14 76 76,,,yes,,49.9194795,1.0771973999999997
567,20567,Centre hospitalier de Digne-les-Bains,Quartier Saint-Christophe,,,,,+33 4 92 30 15 15,,,yes,,44.0707516,6.176904599999999
568,20568,Centre hospitalier de Dourdan,,,,,,+33 1 60 81 58 58,,,yes,,48.5345483,1.9977790000000002
569,20569,Centre hospitalier de Dreux,,,,,,+33 2 37 51 52 53,,,yes,,48.72613320000001,1.3872653
570,20570,Centre hospitalier de Eu,,,,,,+33 2 27 28 22 22,,,yes,,50.0499578,1.4226931999999999
571,20571,Centre hospitalier de Faye L'Abbesse,,,,,,+33 5 49 68 49 68,,,yes,,46.833506899999996,-0.38967179999999996
572,20572,Centre hospitalier de Figeac,,,,,,+33 5 65 50 65 50,,,yes,,44.6093046,2.0278657
575,20575,Centre hospitalier de Fontainebleau,,,,,,+33 1 60 74 10 10,,,yes,,48.4112175,2.6946995
576,20576,Centre hospitalier de Fougères,,,,,,+33 2 99 17 70 00,,,yes,,48.3578794,-1.1941369
577,20577,Centre hospitalier de Fourmies,,,,,,+33 3 27 56 47 47,,,yes,,50.009485,4.0579079
580,20580,Centre hospitalier de Gonesse,,,,,,+33 1 34 53 21 21,,,yes,,48.9943659,2.4487735
581,20581,Centre hospitalier de Gourdon,,,,,,+33 5 65 27 65 27,,,yes,,44.733084399999996,1.3752571000000002
583,20583,Centre hospitalier de Gray,,,,,,+33 3 84 64 61 61,,,yes,,47.4461597,5.5845454000000005
585,20585,Centre hospitalier de Guingamp,,,,,,+33 2 96 44 56 56,,,yes,,48.5692474,-3.1449932
587,20587,Centre hospitalier de Guéret,,,,,,+33 5 55 51 70 00,,,yes,,46.163802600000004,1.8717686000000002
588,20588,Centre hospitalier de Haute-Corrèze,,,,,,+33 5 55 96 40 00,,,yes,,45.541932,2.3104897
589,20589,Centre hospitalier de Hyères,Boulevard du Maréchal Juin,,,,,+33 4 94 00 24 00,,,yes,,43.120579799999994,6.1122804
590,20590,Centre hospitalier de Joigny,,,,,,+33 3 86 92 33 33,,,yes,,47.98025870000001,3.3956987
591,20591,Centre hospitalier de Jonzac,,,,,,+33 5 46 48 75 75,,,yes,,45.4398001,-0.4351518
593,20593,Centre hospitalier de Juvisy-sur-Orge,,,,,,+33 1 69 54 27 27,,,yes,,48.6926097,2.3733352
594,20594,Centre hospitalier de Kourou,,,,,,+594 594 32 76 76,,,yes,,5.1648238,-52.6444701
595,20595,Centre hospitalier de La Ferté-Bernard,,,,,,+33 2 43 71 61 51,,,yes,,48.188351399999995,0.6612088
596,20596,Centre hospitalier de La Rochelle,,,,,,+33 5 46 45 50 50,,,yes,,46.15936370000001,-1.1461598999999998
599,20599,Centre hospitalier de Langon,,,,,,+33 5 56 76 57 57,,,yes,,44.5433695,-0.24385570000000004
600,20600,Centre hospitalier de Langres,,,,,,+33 3 25 87 88 88,,,yes,,47.866054,5.3366377
601,20601,Centre hospitalier de Lannion,,,,,,+33 2 96 05 71 11,,,yes,,48.7230333,-3.4657742999999996
602,20602,Centre hospitalier de Lavaur,,,,,,+33 5 63 58 81 81,,,yes,,43.701864799999996,1.8177522000000002
603,20603,Centre hospitalier de Libourne,,,,,,+33 5 57 55 34 34,,,yes,,44.9169576,-0.2307435
605,20605,Centre hospitalier de Longjumeau,,,,,,+33 1 64 54 33 33,,,yes,,48.6915411,2.2900378
606,20606,Centre hospitalier de Lons-le-Saunier,Rue du Docteur Jean Michel,,,,,+33 3 84 35 60 00,,,yes,,46.6779145,5.5524735
607,20607,Centre hospitalier de Loudun,,,,,,+33 5 49 98 45 42,,,yes,,47.010425,0.07666289999999999
608,20608,Centre hospitalier de Lourdes,,,,,,+33 5 62 42 42 42,,,yes,,43.0993656,-0.0462977
609,20609,Centre hospitalier de Lure,,,,,,+33384624306,,,yes,,47.681275799999995,6.4992981
610,20610,Centre hospitalier de Luxeuil-les-Bains,,,,,,+33 3 84 93 35 50,,,yes,,47.8229501,6.3818838
612,20612,Centre hospitalier de Martigues,,,,,,+33 4 42 43 22 22,,,yes,,43.4141334,5.0383472000000005
613,20613,Centre hospitalier de Mauriac,,,,,,+33 4 71 67 33 33,,,yes,,45.2168015,2.34003
615,20615,Centre hospitalier de Mayotte,Rue de l'Hôpital,,,,,+262 2 69 61 80 00,,,yes,,-12.7772767,45.2278125
616,20616,Centre hospitalier de Meaux,,,,,,+33 1 64 77 64 77,,,yes,,48.965591700000004,2.8876817000000004
617,20617,Centre hospitalier de Melun,,,,,,+33 1 64 71 60 00,,,yes,,48.5561925,2.6425633
618,20618,Centre hospitalier de Menton,,,,,,+33 4 93 28 77 77,,,yes,,43.7666641,7.484344800000001
619,20619,Centre hospitalier de Meulan-en-Yvelines,,,,,,+33 1 30 91 85 00,,,yes,,49.0032469,1.9104444999999999
620,20620,Centre hospitalier de Millau,Boulevard Achille Souques,,,,,+33 5 65 59 30 00,,,yes,,44.0944698,3.0497531
622,20622,Centre hospitalier de Mont-de-Marsan,Avenue Pierre de Coubertin,,,,,+33 5 58 05 10 10,,,yes,,43.894739799999996,-0.48781320000000006
623,20623,Centre hospitalier de Montauban,Rue Léon Cladel,,,,,+33 5 63 92 82 82,,,yes,,44.024183799999996,1.3490608
624,20624,Centre hospitalier de Montereau,,,,,,+33 1 64 31 64 31,,,yes,,48.38417379999999,2.9540162
625,20625,Centre hospitalier de Montmorillon,,,,,,,,,yes,,46.430125399999994,0.8661525999999999
627,20627,Centre hospitalier de Mâcon,,,,,,+33 3 85 20 30 40,,,yes,,46.3178643,4.813681099999999
628,20628,Centre hospitalier de Nemours,,,,,,+33 1 64 45 19 00,,,yes,,48.2613753,2.7025589
630,20630,Centre hospitalier de Nogent-le-Rotrou,,,,,,+33 2 37 53 75 75,,,yes,,48.3167531,0.8372316999999999
632,20632,Centre hospitalier de Pau,,,,,,+33 5 59 92 48 48,,,yes,,43.3286417,-0.3513231
633,20633,Centre hospitalier de Perpignan,,,,,,+33 4 68 61 66 33,,,yes,,42.722500200000006,2.8866527000000004
634,20634,Centre hospitalier de Pertuis,,,,,,+33 4 42 33 50 00,,,yes,,43.694960200000004,5.4985367
635,20635,Centre hospitalier de Pithiviers,,,,,,+33 2 38 32 31 31,,,yes,,48.1701477,2.2505397
638,20638,Centre hospitalier de Pont-à-Mousson,,,,,,+33 3 83 80 20 00,,,yes,,48.906003000000005,6.0511471
639,20639,Centre hospitalier de Pontarlier,,,,,,+33 3 81 38 54 54,,,yes,,46.900205299999996,6.3609191
640,20640,Centre hospitalier de Provins,,,,,,+33 1 64 60 40 00,,,yes,,48.5463066,3.3016196000000004
641,20641,Centre hospitalier de Périgueux,,,,,,+33 5 53 45 25 25,,,yes,,45.1945529,0.7313351
643,20643,Centre hospitalier de Quimperlé,,,,,,+33 2 98 96 60 00,,,yes,,47.8689242,-3.5576552
644,20644,Centre hospitalier de Rochefort,,,,,,+33 5 46 88 50 50,,,yes,,45.9683527,-0.966709
645,20645,Centre hospitalier de Rodez,,,,,,+33 5 65 55 12 12,,,yes,,44.3619279,2.5493632
646,20646,Centre hospitalier de Romorantin-Lanthenay,Rue des Capucins,,,,,+33 2 54 88 33 00,,,yes,,47.3560874,1.7340662
647,20647,Centre hospitalier de Roubaix,,,,,,+33 3 20 99 31 31,,,yes,,50.67791210000001,3.1745262999999997
648,20648,Centre hospitalier de Royan,,,,,,+33 5 46 39 52 52,,,yes,,45.633994,-1.0616358
649,20649,Centre hospitalier de Saint-Affrique,,,,,,+33 5 65 49 70 22,,,yes,,43.9593114,2.8745982000000003
650,20650,Centre hospitalier de Saint-Amand-Montrond,Avenue Jean Jaurès,,,,,+33 2 48 63 25 25,,,yes,,46.7256937,2.4943766
651,20651,Centre hospitalier de Saint-Calais,,,,,,+33 2 43 63 64 65,,,yes,,47.91807070000001,0.743417
652,20652,Centre hospitalier de Saint-Céré,,,,,,+33 5 65 10 40 00,,,yes,,44.8624221,1.8866083999999999
653,20653,Centre hospitalier de Saint-Jean-d'Angely,,,,,,+33 5 46 59 50 50,,,yes,,45.9460458,-0.5307636
654,20654,Centre hospitalier de Saint-Jean-de-Maurienne,,,,,,+33 4 79 20 60 20,,,yes,,45.277043799999994,6.3422884
655,20655,Centre hospitalier de Saint-Junien,,,,,,+33 5 55 43 50 00,,,yes,,45.888154,0.897854
656,20656,Centre hospitalier de Saint-Malo,Rue de la Marne,,,,,+33 2 99 21 21 21,,,yes,,48.6399287,-2.0072370999999998
658,20658,Centre hospitalier de Saint-Palais,,,,,,+33 5 59 65 45 35,,,yes,,43.3263326,-1.0266191999999998
659,20659,Centre hospitalier de Saint-Quentin,,,,,,+33 3 23 06 71 71,,,yes,,49.861823799999996,3.270086
660,20660,Centre hospitalier de Sainte-Foy-la-Grande,,,,,,+33 5 57 41 96 96,,,yes,,44.842513399999994,0.2214481
661,20661,Centre hospitalier de Saintonge,,,,,,+33 5 46 95 15 15,,,yes,,45.7456996,-0.6572275
662,20662,Centre hospitalier de Salon-de-Provence,,,,,,+33 4 90 44 91 44,,,yes,,43.640802799999996,5.1030138
663,20663,Centre hospitalier de Sarlat,,,,,,+33 5 53 31 75 75,,,yes,,44.900423499999995,1.2217288
665,20665,Centre hospitalier de Sedan,,,,,,+33 3 24 22 80 00,,,yes,,49.705814000000004,4.939293
666,20666,Centre hospitalier de Senlis,,,,,,+33 3 44 21 70 00,,,yes,,49.197882,2.5744427000000005
667,20667,Centre hospitalier de Sens,,,,,,+33 3 86 86 15 15,,,yes,,48.1921619,3.2964747
671,20671,Centre hospitalier de Troyes,,,,,,+33 3 25 49 49 49,,,yes,,48.2799096,4.0684557
672,20672,Centre hospitalier de Tulle,Place Docteur Maschat,,,,,+33 5 55 29 79 00,,,yes,,45.2725395,1.771253
673,20673,Centre hospitalier de Vaison-la-Romaine,,,,,,+33 4 90 36 04 58,,,yes,,44.2399022,5.0750226
674,20674,Centre hospitalier de Valréas,,,,,,+33 4 90 28 51 51,,,yes,,44.382773900000004,4.9908099
676,20676,Centre hospitalier de Versailles,,,,,,+33 1 39 63 91 33,,,yes,,48.829946299999996,2.122778
677,20677,Centre hospitalier de Vesoul,,,,,,+33 3 84 96 60 60,,,yes,,47.6351127,6.1371884
678,20678,Centre hospitalier de Vierzon,,,,,,+33 2 48 52 33 33,,,yes,,47.2283008,2.0514432
682,20682,Centre hospitalier de Villefranche-de-Rouergue - Site de la Chartreuse,,,,,,+33 5 65 65 30 00,,,yes,,44.3437638,2.0317108
683,20683,Centre hospitalier de Vire,,,,,,+33 2 31 67 47 47,,,yes,,48.8372723,-0.8857156999999999
684,20684,Centre hospitalier de Voiron,,,,,,+33 4 76 67 14 91,,,yes,,45.3681573,5.5955191
686,20686,Centre hospitalier de l'Ouest Guyanais,,,,,,+594 594 34 88 88,,,yes,,5.4873487,-54.021936399999994
687,20687,Centre hospitalier de l'agglomération montargoise,,,,,,+33 2 38 95 91 11,,,yes,,47.9945485,2.7749607000000003
688,20688,Centre hospitalier de la Ciotat,,,,,,+33 4 42 08 76 00,,,yes,,43.1791292,5.6086769
689,20689,Centre hospitalier de la Côte Basque - Site de Saint-Leon,Avenue Interne Jacques Loëb,,,,,+33 5 59 44 35 35,,,yes,,43.4824909,-1.4786213
690,20690,Centre hospitalier de la Dracénie,Route de Montferrat,,,,,+33 4 94 60 50 00,,,yes,,43.5483285,6.4457772
692,20692,Centre hospitalier de la Risle,Route de Lisieux,,,,,+33 2 32 41 64 64,,,yes,,49.3478111,0.5130262
693,20693,Centre hospitalier de la Région de Saint-Omer,,,,,,+33 3 21 88 70 00,,,yes,,50.7025571,2.2479367999999997
696,20696,Centre hospitalier de l’Ouest Vosgien - Site de Neufchâteau,,,,,,+33 3 29 94 80 00,,,yes,,48.3676161,5.7089794000000005
697,20697,Centre hospitalier des Charmes,,,,,,+33 3 85 81 80 00,,,yes,,46.465678600000004,4.1069354
698,20698,Centre hospitalier des Escartons,,,,,,+33 4 92 25 25 25,,,yes,,44.9065737,6.631947099999999
700,20700,Centre hospitalier des Pays de Morlaix,,,,,,+33 2 98 62 61 60,,,yes,,48.5742219,-3.8290998
701,20701,Centre hospitalier des Quinze-Vingts,,,,,,+33 1 40 02 15 20,,,yes,,48.8514645,2.3714152000000004
703,20703,Centre hospitalier des vallées de l’Ariège - Site de Foix,,,,,,+33 5 61 03 30 30,,,yes,,43.0272398,1.619345
704,20704,Centre hospitalier du Bassin de Thau,,,,,,+33 4 67 46 57 57,,,yes,,43.4064895,3.6670303
706,20706,Centre hospitalier du Blanc,,,,,,+33 2 54 28 28 28,,,yes,,46.633678,1.0591899999999999
709,20709,Centre hospitalier du Centre-Bretagne,,,,,,+33 2 97 79 00 00,,,yes,,48.0862938,-2.9157514
710,20710,Centre hospitalier du Chinonais,,,,,,+33 2 47 93 75 15,,,yes,,47.188917700000005,0.29142199999999996
711,20711,Centre hospitalier du Forez,,,,,,+33 4 77 27 54 54,,,yes,,45.7469109,4.220521499999999
714,20714,Centre hospitalier du Pays d'Aix,Avenue des Tamarys,,,,,+33 4 42 33 50 00,,,yes,,43.5349583,5.4417897
715,20715,Centre hospitalier du Pays d'Apt,,,,,,+33 4 90 04 33 00,,,yes,,43.875440999999995,5.3840108
717,20717,Centre hospitalier du Sud-Charente,,,,,,+33 5 45 78 78 00,,,yes,,45.4742261,-0.1408333
718,20718,Centre hospitalier du Tonnerrois,,,,,,+33 3 86 54 33 00,,,yes,,47.8575734,3.9782187999999996
719,20719,Centre hospitalier d’Auxerre,,,,,,+33 3 86 48 48 48,,,yes,,47.806389700000004,3.5572565000000003
720,20720,Centre hospitalier en Pays d'Olmes,,,,,,+33 5 61 65 78 78,,,yes,,42.9282234,1.8602077000000001
721,20721,Centre hospitalier intercommunal André Grégoire,,,,,,+33 1 49 20 30 40,,,yes,,48.8784526,2.4517257000000003
722,20722,Centre hospitalier intercommunal Caux-Vallée de Seine,,,,,,+33 2 35 39 36 36,,,yes,,49.5190136,0.5418606
723,20723,Centre hospitalier intercommunal Fréjus Saint-Raphaël,,,,,,+33 4 94 40 21 21,,,yes,,43.4379084,6.7548481
725,20725,Centre hospitalier intercommunal Redon-Carentoir,Avenue Étienne Gascon,,,,,+33 2 99 71 71 71,,,yes,,47.6530269,-2.0807345
726,20726,Centre hospitalier intercommunal Robert Ballanger,,,,,,+33 1 49 36 71 23,,,yes,,48.9557125,2.518623
727,20727,Centre hospitalier intercommunal de Cavaillon-Lauris,,,,,,+33 4 90 78 85 00,,,yes,,43.8413849,5.037325900000001
728,20728,Centre hospitalier intercommunal de Créteil,,,,,,+33 1 45 17 50 00,,,yes,,48.796197799999995,2.4637099
729,20729,Centre hospitalier intercommunal de Poissy,,,,,,+33 1 39 27 40 50,,,yes,,48.9205947,2.0213848999999997
730,20730,Centre hospitalier intercommunal de Saint-Germain-en-Laye,Rue Armagis,,,,,+33 1 39 27 40 50,,,yes,,48.8979273,2.0827192
731,20731,Centre hospitalier intercommunal de la Lauter,,,,,,+33 3 88 54 11 11,,,yes,,49.040552000000005,7.9301052
732,20732,Centre hospitalier intercommunal du Pays de Cognac,,,,,,+33 5 45 80 15 15,,,yes,,45.6838914,-0.29910590000000004
733,20733,Centre hospitalier privé du Montgardé,,,,,,+33 1 30 95 52 00,,,yes,,48.956182399999996,1.8464289
734,20734,Centre hospitalier régional universitaire Jean Minjoz,,,,,,+33 3 81 66 81 66,,,yes,,47.2276931,5.9631062
741,20741,Centre hospitalier universitaire de Limoges,Avenue Martin Luther King,,,,,+33 5 55 05 55 55,,,yes,,45.8142021,1.2323441000000002
742,20742,Centre hospitalier universitaire de Nice,,,,,,+33 4 92 03 77 77,,,yes,,43.7249415,7.2800804
758,20758,Centre médico-chirurgical Floréal,,,,,,+33 1 48 97 72 00,,,yes,,48.8781898,2.4311202
773,20773,Clinique Aguiléra,Rue de l'Estagnas,,,,,+33 8 25 13 50 64,,,yes,,43.4850145,-1.5401687
775,20775,Clinique Ambroise Paré,,,,,,+33 8 26 30 19 19,,,yes,,43.5901482,1.4137634
779,20779,Clinique Anne d'Artois,Rue Émile Basly,,,,,+33 826 200 110,,,yes,,50.5400381,2.6316759999999997
782,20782,Clinique Beau Soleil,Avenue de Lodève,,,,,+33 4 67 75 99 99,,,yes,,43.610381200000006,3.8497779999999997
783,20783,Clinique Belharra,,,,,,+33 8 26 96 64 64,,,yes,,43.478152200000004,-1.4528963
788,20788,Clinique Bonnefon,Avenue Carnot,,,,,+33 8 26 20 73 30,,,yes,,44.121468,4.0879053
792,20792,Clinique Capio La Croix du Sud,Chemin de Ribaute,,,,,+33 8 06 23 32 33,,,yes,,43.583639899999994,1.5080489
800,20800,Clinique Claude Bernard,,,,,,+33 5 63 77 77 63,,,yes,,43.9306544,2.1633242999999998
801,20801,Clinique Claude Bernard,Avenue Louis Armand,,,,,+33 1 30 72 34 34,,,yes,,48.980720500000004,2.2630427
802,20802,Clinique Claude Bernard,,,,,,+33 8 26 30 66 66,,,yes,,49.1141956,6.2117602
804,20804,Clinique Convert,,,,,,+33 4 74 45 64 45,,,yes,,46.210928,5.2526980000000005
809,20809,Clinique Esquirol Saint-Hilaire,,,,,,+33 5 53 47 47 47,,,yes,,44.1854228,0.6279259
811,20811,Clinique François Chénieux,,,,,,+33 8 25 56 45 00,,,yes,,45.8138888,1.284284
815,20815,Clinique Générale,,,,,,+33 8 26 88 88 88,,,yes,,45.8960217,6.1259622
816,20816,Clinique Générale de Marignane,Avenue Général Raoul Salan,,,,,+33 4 42 78 45 00,,,yes,,43.4095262,5.2141965
844,20844,Clinique Les Fontaines,,,,,,+33 1 60 56 40 00,,,yes,,48.5437401,2.651771
850,20850,Clinique Malartic,Chemin de Faveyrolles,,,,,+33 4 94 89 89 89,,,yes,,43.1301902,5.874778900000001
860,20860,Clinique Mutualiste Chirurgicale,,,,,,+33 4 77 12 12 12,,,yes,,45.414508500000004,4.3936153
876,20876,Clinique Pasteur,,,,,,+33 2 32 38 95 00,,,yes,,49.027980299999996,1.1605969999999999
893,20893,Clinique Saint-Amé,,,,,,+33 3 74 82 17 17,,,yes,,50.357501299999996,3.0575077
907,20907,Clinique Saint-Jean,,,,,,+33 4 92 13 53 13,,,yes,,43.6609816,7.1358562
913,20913,Clinique Saint-Louis,,,,,,+33 4 67 81 68 00,,,yes,,43.9328248,3.701803
919,20919,Clinique Saint-Michel,,,,,,+33 8 26 30 03 16,,,yes,,42.617115000000005,2.417528
922,20922,Clinique Saint-Pierre,,,,,,+33 8 26 30 26 26,,,yes,,42.695153399999995,2.865243
923,20923,Clinique Saint-Privat,,,,,,+33 4 67 35 46 00,,,yes,,43.366516499999996,3.2562979
936,20936,Clinique Sainte-Marie,,,,,,+33 8 26 30 95 95,,,yes,,49.074047799999995,2.0746822
957,20957,Clinique d'Occitanie,Avenue Bernard IV,,,,,+33 8 26 30 88 88,,,yes,,43.4650052,1.3368924999999998
960,20960,Clinique de Bruay-la-Buissière,,,,,,,,,yes,,50.4785021,2.5507197999999995
977,20977,Clinique de Tournan,,,,,,+33 8 25 16 42 42,,,yes,,48.742273,2.758603
978,20978,Clinique de l'Anjou,Rue de l'Hirondelle,,,,,+33 2 41 44 71 71,,,yes,,47.4440883,-0.5400762
983,20983,Clinique de l'Estrée,,,,,,+33 1 49 71 71 71,,,yes,,48.955338,2.3678719
984,20984,Clinique de l'Europe,Boulevard de l'Europe,,,,,+33 2 32 18 10 00,,,yes,,49.4251636,1.0845292
987,20987,Clinique de l'Union,,,,,,+33 5 61 37 81 81,,,yes,,43.6505316,1.5127256000000002
989,20989,Clinique de l'Étang de l'Olivier,Rue Roger Carpentier,,,,,+33 4 42 47 60 00,,,yes,,43.5087833,4.9914354
1004,21004,Clinique de la Sauvegarde,Avenue David Ben Gourion,,,,,+33 4 72 17 26 26,,,yes,,45.7886253,4.7882807000000005
1014,21014,Clinique des Cèdres,,,,,,+33 8 25 56 56 38,,,yes,,45.148252,5.722977200000001
1015,21015,Clinique des Cèdres,,,,,,+33 8 26 96 31 31,,,yes,,43.6605064,1.3087452
1017,21017,Clinique des Côtes du Rhône,Rue Fernand Léger,,,,,+33 4 74 29 28 28,,,yes,,45.3712944,4.812444599999999
1018,21018,Clinique des Franciscaines,,,,,,+33 1 30 97 33 33,,,yes,,48.794019,2.1407267000000005
1020,21020,Clinique des Ormeaux,,,,,,+33 2 32 74 32 74,,,yes,,49.487249299999995,0.1371272
1030,21030,Clinique du Cèdre,Rue de la Haie,,,,,+33 2 35 59 59 59,,,yes,,49.4641566,1.1112002
1032,21032,Clinique du Diaconat-Fonderie,,,,,,+33 8 25 12 75 75,,,yes,,47.741327399999996,7.3313546
1033,21033,Clinique du Diaconat-Roosevelt,,,,,,+33 3 89 32 55 00,,,yes,,47.7488003,7.330952000000001
1039,21039,Clinique du Grand Large,,,,,,+33 4 78 49 05 60,,,yes,,45.771074,4.9706617
1047,21047,Clinique du Millénaire,Boulevard Pénélope,,,,,+33 8 26 88 88 83,,,yes,,43.601158899999994,3.913514
1049,21049,Clinique du Mousseau,,,,,,+33 1 60 90 10 10,,,yes,,48.6302598,2.4496662000000002
1053,21053,Clinique du Parc,,,,,,+33 4 77 92 22 22,,,yes,,45.4774615,4.3685640999999995
1054,21054,Clinique du Parc,,,,,,+33 4 67 33 13 31,,,yes,,43.6361613,3.8923602999999996
1056,21056,Clinique du Parc Impérial,,,,,,+33 4 92 07 75 75,,,yes,,43.703348999999996,7.251581
1064,21064,Clinique du Pont de Chaume,Avenue Marcel Unal,,,,,+33 5 63 92 82 82,,,yes,,44.0076711,1.3786079
1069,21069,Clinique du Renaison,,,,,,+33 8 26 46 45 00,,,yes,,46.033154700000004,4.0511434
1073,21073,Clinique du Val d'Ouest,,,,,,,,,yes,,45.769318299999995,4.7815874
1075,21075,Clinique du Vallespir,,,,,,+33 4 68 87 12 55,,,yes,,42.4909118,2.7538272999999998
1081,21081,Clinique les Eaux Claires,,,,,,+33 5 90 97 62 62,,,yes,,16.2414858,-61.5872835
1084,21084,Clinique mutualiste Arnaud Duben,Avenue du Docteur Schweitzer,,,,,+33 5 56 46 56 46,,,yes,,44.806551899999995,-0.612368
1086,21086,Clinique mutualiste du Médoc,,,,,,+33 5 56 73 10 00,,,yes,,45.303574100000006,-0.937342
1143,21143,Fondation Lenval - Hôpital pour Enfants,Avenue de la Californie,,,,,+33 4 92 03 03 92,,,yes,,43.689431,7.241303
1146,21146,Fondation ophtalmologique Adolphe de Rothschild,,,,,,+33 1 48 03 65 65,,,yes,,48.878527000000005,2.3781441
1152,21152,Grand Hôpital de l'Est Francilien - Site de Marne-la-Vallée,,,,,,+33 1 64 77 64 77,,,yes,,48.8514727,2.7708885
1154,21154,Groupe Hospitalier Mutualiste de Grenoble,,,,,,+33 4 76 70 70 00,,,yes,,45.182613,5.7098282
1156,21156,Groupe Hospitalier Sud Ardennes,,,,,,+33 3 24 38 66 66,,,yes,,49.5117786,4.3608400000000005
1159,21159,Groupe hospitalier Carnelle Porte de l'Oise - Site de Beaumont,,,,,,+33 1 39 37 15 20,,,yes,,49.145303000000006,2.289071
1160,21160,Groupe hospitalier Les Portes du Sud,,,,,,+33 4 72 89 80 00,,,yes,,45.688612400000004,4.8654574
1161,21161,Groupe hospitalier Pellegrin,,,,,,+33 5 56 79 56 79,,,yes,,44.8300528,-0.6040555000000001
1162,21162,Groupe hospitalier Sud Ardennes - Site de Vouziers,,,,,,+33 3 24 30 71 00,,,yes,,49.3954206,4.7010643
1163,21163,Groupe hospitalier intercommunal Le Raincy-Montfermeil,,,,,,+33 1 41 70 80 00,,,yes,,48.8993586,2.5702375
1165,21165,Groupement Hospitalier Intercommunal du Vexin - Site de Magny,,,,,,+33 1 34 79 44 44,,,yes,,49.1544428,1.7845901999999998
1171,21171,Hopital Beaujon,Boulevard du Général Leclerc,,,,,+33 1 40 87 50 00,,,yes,,48.9072632,2.3119859
1201,21201,Hospices de Beaune,,,,,,+33 3 80 24 44 44,,,yes,,47.031585799999995,4.8340501
1202,21202,Hôpial privé du Vert-Galant,,,,,,+33 1 86 86 93 00,,,yes,,48.94034310000001,2.5719987
1209,21209,Hôpital Ambroise Paré,,,,,,+33 1 49 09 50 00,,,yes,,48.8475878,2.2335323
1212,21212,Hôpital Antoine Béclère,,,,,,+33 1 45 37 44 44,,,yes,,48.786716399999996,2.2542076
1213,21213,Hôpital Armand-Trousseau,,,,,,+33 1 44 73 74 75,,,yes,,48.84294129999999,2.4053966
1216,21216,Hôpital Avicenne,,,,,,+33 1 48 95 55 55,,,yes,,48.9129616,2.4255185
1217,21217,Hôpital Beauregard Vert Coteau,,,,,,+33 4 91 12 34 56,,,yes,,43.31477279999999,5.4102679
1218,21218,Hôpital Bel-Air,,,,,,+33 3 82 55 82 55,,,yes,,49.374165500000004,6.1476614000000005
1222,21222,Hôpital Bichat-Claude Bernard,,,,,,+33 1 40 25 80 80,,,yes,,48.899219,2.3309037
1223,21223,Hôpital Bicêtre,,,,,,+33 1 45 21 21 21,,,yes,,48.8097787,2.3496348
1225,21225,Hôpital Bretonneau,,,,,,+33 2 47 47 47 47,,,yes,,47.3899874,0.6700471
1230,21230,Hôpital Central,,,,,,,,,yes,,48.6835554,6.1916791
1231,21231,Hôpital Charles Haby,,,,,,+33 3 89 74 78 00,,,yes,,47.9076029,7.2165705
1232,21232,Hôpital Charles Nicolle,Rue de Germont,,,,,+33 2 32 88 89 90,,,yes,,49.441373600000006,1.1124593999999999
1239,21239,Hôpital Clocheville,Boulevard Béranger,,,,,+33 2 47 47 60 99,,,yes,,47.3893152,0.6809897
1241,21241,Hôpital Cochin,Rue du Faubourg Saint-Jacques,,,,,+33 1 58 41 41 41,,,yes,,48.8381314,2.3418004
1245,21245,Hôpital Croix Saint-Simon,,,,,,+33 1 44 64 16 00,,,yes,,48.8532034,2.4084733
1246,21246,Hôpital Delafontaine,,,,,,+33 1 42 35 61 40,,,yes,,48.936432399999994,2.37672
1254,21254,Hôpital Européen Georges Pompidou,,,,,,+33 1 56 09 20 00,,,yes,,48.8395572,2.2720487
1255,21255,Hôpital Européen de Paris,,,,,,+33 1 48 39 45 00,,,yes,,48.9058469,2.388314
1256,21256,Hôpital Fauquet,Rue Lechaptois,,,,,+33 2 35 39 36 36,,,yes,,49.5676339,0.4670689
1257,21257,Hôpital Femme-Mère-Enfant,,,,,,+33 8 25 08 25 69,,,yes,,45.746646999999996,4.900663
1258,21258,Hôpital Femme-Mère-Enfant,,,,,,,,,yes,,47.723494200000005,7.3398922
1262,21262,Hôpital Foch,,,,,,+33 8 26 20 72 20,,,yes,,48.8717384,2.2215922000000004
1263,21263,Hôpital François Mitterrand,,,,,,+33 3 80 29 30 31,,,yes,,47.318799600000006,5.0732932
1268,21268,Hôpital George Sand,,,,,,+33 4 94 11 30 00,,,yes,,43.109724799999995,5.8707645
1271,21271,Hôpital Haut-Lévêque,,,,,,+33 5 56 79 56 79,,,yes,,44.7866831,-0.6638722
1279,21279,Hôpital Jacques Monod,,,,,,+33 2 32 73 32 32,,,yes,,49.524058600000004,0.187069
1280,21280,Hôpital Jean Bouveri,,,,,,+33 3 85 67 60 60,,,yes,,46.6472573,4.3307069
1285,21285,Hôpital Jean Verdier,,,,,,+33 1 48 02 66 66,,,yes,,48.908936700000005,2.4869095000000003
1286,21286,Hôpital Joseph Ducuing,,,,,,+33 5 61 77 34 00,,,yes,,43.5959376,1.4287954999999999
1290,21290,Hôpital Lapeyronie,Avenue du Doyen Gaston Giraud,,,,,+33 4 67 33 67 33,,,yes,,43.62880870000001,3.8506565999999998
1291,21291,Hôpital Lariboisière,,,,,,+33 1 49 95 65 65,,,yes,,48.88368079999999,2.3513857000000002
1296,21296,Hôpital Le Pratel,Rue du Pratel,,,,,+33 2 97 56 41 41,,,yes,,47.670372799999996,-2.9810555
1306,21306,Hôpital Louis Domergue,,,,,,+33 5 96 66 46 00,,,yes,,14.7359256,-60.966580099999995
1307,21307,Hôpital Louis Mourier,Rue des Renouillers,,,,,+33 1 47 60 61 62,,,yes,,48.9228793,2.2341363
1308,21308,Hôpital Lozère,,,,,,+33 4 66 49 49 49,,,yes,,44.522745,3.4885982
1311,21311,Hôpital Maillot,,,,,,+33 3 82 47 50 00,,,yes,,49.25958120000001,5.9335356
1316,21316,Hôpital Max Fourestier,,,,,,+33 1 47 69 65 65,,,yes,,48.91210039999999,2.2232152999999997
1319,21319,Hôpital Morvan,,,,,,+33 2 98 22 33 33,,,yes,,48.3921105,-4.486941000000001
1322,21322,Hôpital Necker Enfants Malades,,,,,,+33 1 44 49 40 00,,,yes,,48.8453521,2.3171962
1323,21323,Hôpital Nord,Avenue Albert Raimond,,,,,+33 4 77 82 80 00,,,yes,,45.481846600000004,4.3586523
1324,21324,Hôpital Nord,Chemin des Bourrely,,,,,+33 4 91 38 00 00,,,yes,,43.37747529999999,5.363247900000001
1326,21326,Hôpital Nord Franche-Comté,Route de Moval,,,,,+33 3 84 98 20 20,,,yes,,47.577030900000004,6.8705718
1330,21330,Hôpital Pasteur,,,,,,+33 3 89 12 40 00,,,yes,,48.0777161,7.3346617
1331,21331,Hôpital Pasteur,,,,,,+33 2 33 20 70 70,,,yes,,49.6386482,-1.6142956
1334,21334,Hôpital Paule de Viguier,,,,,,,,,yes,,43.607883,1.40309
1336,21336,Hôpital Pierre Bérégovoy,Avenue Patrick Guillot,,,,,+33 3 86 93 70 00,,,yes,,46.9760748,3.1237136000000003
1341,21341,Hôpital Pitié-Salpêtrière,,,,,,+33 1 42 16 00 00,,,yes,,48.8358526,2.3690661
1342,21342,Hôpital Pontchaillou,Rue Henri Le Guilloux,,,,,+33 2 99 28 43 21,,,yes,,48.121012,-1.6992917
1343,21343,Hôpital Privé Armand Brillard,,,,,,+33 1 86 86 12 12,,,yes,,48.832858200000004,2.4725762000000002
1346,21346,Hôpital Privé Pays de Savoie,Avenue Pierre Mendès France,,,,,,,,yes,,46.1877616,6.2232712
1353,21353,Hôpital Privé de la Loire,,,,,,+33 8 26 30 42 42,,,yes,,45.4286656,4.4176585
1356,21356,Hôpital Privé d’Ambérieu,,,,,,+33 4 74 38 95 95,,,yes,,45.9803924,5.3520757
1357,21357,Hôpital Prosper Chubert,Boulevard du Général Guillaudot,,,,,+33 2 97 01 41 41,,,yes,,47.663796399999995,-2.7458378
1363,21363,Hôpital Psychiatrique Philippe Pinel,Route de Paris,,,,,+33 3 22 53 46 46,,,yes,,49.8679814,2.2780982999999995
1368,21368,Hôpital Purpan,,,,,,+33 5 61 77 22 33,,,yes,,43.6056499,1.4033805
1369,21369,Hôpital Rangueil,,,,,,+33 5 61 77 22 33,,,yes,,43.5626602,1.4533313
1374,21374,Hôpital Robert Debré,,,,,,+33 1 40 03 20 00,,,yes,,48.8786021,2.4027525
1375,21375,Hôpital Robert Pax,,,,,,+33 3 87 27 33 10,,,yes,,49.1004407,7.096491499999999
1379,21379,Hôpital Saint-André,,,,,,+33 5 56 79 56 79,,,yes,,44.832981,-0.578968
1382,21382,Hôpital Saint-Antoine,,,,,,+33 1 49 28 20 00,,,yes,,48.8469807,2.3817305
1383,21383,Hôpital Saint-Camille,,,,,,+33 1 49 83 10 10,,,yes,,48.832722600000004,2.5277132
1392,21392,Hôpital Saint-Joseph,Rue Raymond Losserand,,,,,+33 1 44 12 33 33,,,yes,,48.8292274,2.3088214
1393,21393,Hôpital Saint-Joseph,,,,,,+33 3 87 98 76 00,,,yes,,49.04609620000001,7.422450099999999
1394,21394,Hôpital Saint-Joseph,,,,,,+33 4 91 80 65 00,,,yes,,43.276256,5.392191
1397,21397,Hôpital Saint-Julien,Rue Guillaume Lecointe,,,,,+33 2 32 88 64 00,,,yes,,49.4206819,1.0580186000000003
1398,21398,Hôpital Saint-Louis,,,,,,+33 1 42 49 49 49,,,yes,,48.8758244,2.3682379
1403,21403,Hôpital Saint-Nicolas,,,,,,+33 3 87 23 24 25,,,yes,,48.7280299,7.052090700000001
1406,21406,Hôpital Saint-Philibert,,,,,,+33 3 20 22 50 50,,,yes,,50.6504396,2.972467
1409,21409,Hôpital Saint-Vincent de Paul,,,,,,+33 3 20 87 48 48,,,yes,,50.62103870000001,3.0774672
1417,21417,Hôpital Sainte-Musse,,,,,,+33 4 94 14 50 00,,,yes,,43.1248111,5.9751209
1421,21421,Hôpital Simone Veil,,,,,,+33 1 34 06 60 00,,,yes,,48.9992125,2.2707674
1425,21425,Hôpital Sud,,,,,,+33 4 76 76 75 75,,,yes,,45.148762,5.7294184999999995
1426,21426,Hôpital Sud,Boulevard de Bulgarie,,,,,+33 2 99 28 43 21,,,yes,,48.0836164,-1.6548053
1429,21429,Hôpital Tenon,,,,,,+33 1 56 01 70 00,,,yes,,48.8674441,2.4008345
1431,21431,Hôpital Trousseau,,,,,,+33 2 47 47 47 47,,,yes,,47.3460862,0.7095139
1437,21437,Hôpital clinique du Pays des Hautes Falaises,,,,,,+33 2 35 10 90 00,,,yes,,49.74526029999999,0.38520229999999994
1439,21439,Hôpital d'Instruction des Armées Clermont-Tonnerre,,,,,,+33 2 98 43 70 00,,,yes,,48.3921809,-4.4930977
1440,21440,Hôpital d'Instruction des Armées Percy,,,,,,+33 1 41 46 60 00,,,yes,,48.8152635,2.2535472999999997
1442,21442,Hôpital d'instruction des armées Desgenettes,,,,,,+33 4 72 36 60 00,,,yes,,45.741746899999995,4.8886294
1443,21443,Hôpital d'instruction des armées Laveran,,,,,,+33 4 91 61 70 00,,,yes,,43.3262881,5.4137368
1444,21444,Hôpital d'instruction des armées Legouest,,,,,,+33 3 87 56 46 46,,,yes,,49.113772499999996,6.1869794
1445,21445,Hôpital d'instruction des armées Sainte-Anne,,,,,,+33 4 83 16 20 10,,,yes,,43.1335565,5.9280379
1448,21448,Hôpital de Beaujeu,,,,,,,,,yes,,46.153011,4.5900099999999995
1456,21456,Hôpital de Fleyriat,,,,,,+33 4 74 45 46 47,,,yes,,46.2220408,5.2133945
1457,21457,Hôpital de Hautepierre,,,,,,+33 3 88 11 67 68,,,yes,,48.5933409,7.7032993
1485,21485,Hôpital de Saint-Avold,Rue Ambroise Paré,,,,,+33 3 87 91 14 44,,,yes,,49.11233970000001,6.7237857000000005
1493,21493,Hôpital de Taravao,,,,,,,,,yes,,-17.731838600000003,-149.30408930000002
1505,21505,Hôpital de l'Est Parisien,,,,,,+33 1 86 86 35 35,,,yes,,48.929156,2.4961132999999998
1506,21506,Hôpital de la Cavale Blanche,Boulevard Tanguy Prigent,,,,,+33 2 98 22 33 33,,,yes,,48.402040899999996,-4.5324114
1509,21509,Hôpital de la Croix-Rousse,,,,,,+33 8 25 08 25 69,,,yes,,45.783448799999995,4.8329035000000005
1515,21515,Hôpital de la Timone,,,,,,+33 4 91 38 00 00,,,yes,,43.2900718,5.406542099999999
1523,21523,Hôpital du Creusot - Site Foch,,,,,,+33 3 85 77 20 00,,,yes,,46.8052968,4.447158900000001
1529,21529,Hôpital du Haut-Anjou,,,,,,+33 2 43 09 33 33,,,yes,,47.826015600000005,-0.7013010999999999
1533,21533,Hôpital du Pays Dunois,Rue de l'Hôpital,,,,,+33 3 85 28 91 10,,,yes,,46.2890007,4.306478599999999
1534,21534,Hôpital du Pays d’Autan,Avenue de la Montagne Noire,,,,,+33 5 63 71 63 71,,,yes,,43.565151799999995,2.2590315
1536,21536,Hôpital du Porzou,,,,,,+33 2 98 50 30 30,,,yes,,47.86603220000001,-3.9026004000000003
1537,21537,Hôpital du Scorff,Avenue de Choiseul,,,,,+33 2 97 06 90 90,,,yes,,47.7538225,-3.3586316
1538,21538,Hôpital du Taaone,,,,,,,,,yes,,-17.528273600000002,-149.54717240000002
1577,21577,Hôpital privé Claude Galien,,,,,,+33 1 69 39 90 00,,,yes,,48.6813731,2.5392053
1578,21578,Hôpital privé Dijon Bourgogne,,,,,,+33 3 74 82 21 21,,,yes,,47.363556700000004,5.051372
1579,21579,Hôpital privé Jacques Cartier,,,,,,+33 1 60 13 60 60,,,yes,,48.7311506,2.292132
1581,21581,Hôpital privé La Casamance,,,,,,+33 4 91 88 40 00,,,yes,,43.276357,5.530522
1582,21582,Hôpital privé Paul d'Égine,,,,,,+33 1 86 86 66 00,,,yes,,48.8112376,2.5158742000000003
1583,21583,Hôpital privé Saint-Claude,,,,,,+33 8 26 20 71 02,,,yes,,49.859543,3.3088949999999997
1584,21584,Hôpital privé Saint-François,,,,,,+33 8 26 39 99 29,,,yes,,46.3450363,2.6178065
1585,21585,Hôpital privé Saint-Martin,,,,,,+33 8 26 46 14 00,,,yes,,49.198440999999995,-0.380842
1586,21586,Hôpital privé d'Eure-et-Loir,Rue Roland Buthier,,,,,+33 2 37 18 41 00,,,yes,,48.4567104,1.4512883
1587,21587,Hôpital privé de Marne-Chantereine,,,,,,+33 1 64 72 74 00,,,yes,,48.886169200000005,2.6307723999999997
1588,21588,Hôpital privé de Parly 2 Le Chesnay,,,,,,+33 1 39 63 70 00,,,yes,,48.8304045,2.1195547
1589,21589,Hôpital privé de Provence,,,,,,+33 4 42 33 88 00,,,yes,,43.503718400000004,5.4368004999999995
1590,21590,Hôpital privé de Thiais,,,,,,+33 1 45 60 28 28,,,yes,,48.7686056,2.3697774
1591,21591,Hôpital privé de Vitry - Site Pasteur,Rue de la Petite Saussaie,,,,,+33 1 45 73 35 35,,,yes,,48.7856296,2.389518
1592,21592,Hôpital privé de l'Est Lyonnais,,,,,,+33 8 26 96 99 99,,,yes,,45.716753600000004,4.9253367
1593,21593,Hôpital privé de l'Estuaire,Rue Irène Joliot-Curie,,,,,+33 8 25 74 75 76,,,yes,,49.5281375,0.1014063
1594,21594,Hôpital privé de l'Ouest Parisien,,,,,,+33 1 86 86 78 78,,,yes,,48.7776026,1.9884342000000002
1595,21595,Hôpital privé du Confluent,,,,,,+33 2 28 25 50 00,,,yes,,47.195599,-1.5488153999999998
1596,21596,Hôpital privé du Val d'Yerres,Avenue de l'Abbaye,,,,,+33 8 26 30 04 00,,,yes,,48.712334000000006,2.495501
1598,21598,Hôpital Édouard Herriot,,,,,,,,,yes,,45.7433595,4.8799898
1599,21599,Hôpital Émile Muller,,,,,,+33 3 89 64 64 64,,,yes,,47.7255601,7.338971300000001
1602,21602,Hôpitaux Drôme-Nord,,,,,,+33 4 75 05 75 05,,,yes,,45.0400386,5.0208874
1603,21603,Hôpitaux Drôme-Nord - Site de Saint-Vallier,,,,,,+33 4 75 23 80 00,,,yes,,45.1703073,4.8214078
1605,21605,Hôpitaux de Lannemezan,,,,,,+33 5 62 99 55 55,,,yes,,43.118720700000004,0.4119516
1607,21607,Hôpitaux du Léman,Avenue de la Dame,,,,,,,,yes,,46.3596027,6.478303299999999
1608,21608,Hôpitaux du Mont-Blanc - Site de Sallanches,,,,,,+33 4 50 47 30 30,,,yes,,45.934597,6.641450999999999
1611,21611,Hôtel-Dieu,,,,,,+33 1 42 34 82 34,,,yes,,48.853967299999994,2.3481897000000003
1612,21612,Hôtel-Dieu,,,,,,+33 2 98 82 40 40,,,yes,,47.863772999999995,-4.222757
1614,21614,Hôtel-Dieu,,,,,,+33 4 68 42 60 00,,,yes,,43.181001,2.99916
1620,21620,Institut Arnault Tzanck,,,,,,+33 4 92 27 33 33,,,yes,,43.660773999999996,7.1875101
1664,21664,L’Hôpital Nord-Ouest Tarare,Boulevard Garibaldi,,,,,+33 4 74 05 46 46,,,yes,,45.8888465,4.440686
1706,21706,Médipôle Lyon-Villeurbanne,Rue Léon Blum,,,,,,,,yes,,45.760464,4.9058032
1707,21707,Médipôle de Savoie,,,,,,+33 4 79 26 80 80,,,yes,,45.545363,5.968805000000001
1710,21710,Nouvel Hôpital d'Épinal,Avenue Robert Schuman,,,,,,,,yes,,48.1800112,6.4518097
1712,21712,Nouvelle Clinique de Tours Plus,Boulevard Alfred Nobel,,,,,+33 2 47 88 37 37,,,yes,,47.434398,0.6667304000000001
1725,21725,Polyclinique Bordeaux Nord Aquitaine,Rue du Docteur Finlay,,,,,+33 5 56 43 71 11,,,yes,,44.8641984,-0.5790093000000001
1726,21726,Polyclinique Bordeaux Rive-Droite,Rue des Cavailles,,,,,+33 8 26 30 04 84,,,yes,,44.8652669,-0.5230774
1728,21728,Polyclinique Courlancy,Rue de Courlancy,,,,,+33 3 26 77 26 77,,,yes,,49.244699100000005,4.0189922
1729,21729,Polyclinique Côte Basque Sud,,,,,,+33 5 59 51 63 63,,,yes,,43.397864299999995,-1.6391689999999999
1731,21731,Polyclinique Grande-Synthe,,,,,,+33 3 28 58 60 00,,,yes,,51.008084100000005,2.2883806
1732,21732,Polyclinique Inkermann,,,,,,+33 8 26 30 28 28,,,yes,,46.3160382,-0.4527858
1733,21733,Polyclinique Keraudren,,,,,,+33 2 98 34 29 29,,,yes,,48.430413,-4.4736827
1738,21738,Polyclinique Lyon-Nord Rillieux,,,,,,+33 8 26 28 29 30,,,yes,,45.8200516,4.8870778
1740,21740,Polyclinique Marzet,,,,,,+33 5 59 92 72 72,,,yes,,43.3045811,-0.36609400000000003
1742,21742,Polyclinique Montréal,,,,,,+33 8 26 30 53 53,,,yes,,43.2139799,2.3284216
1743,21743,Polyclinique Médipôle Saint-Roch,,,,,,+33 4 28 63 10 10,,,yes,,42.689640000000004,2.9348617000000004
1746,21746,Polyclinique Saint-Côme,,,,,,+33 3 44 92 43 43,,,yes,,49.4042629,2.8101984
1747,21747,Polyclinique Saint-François,,,,,,,,,yes,,43.7225956,7.2818863
1748,21748,Polyclinique Saint-George,,,,,,+33 4 93 81 71 50,,,yes,,43.734018799999994,7.2783123
1749,21749,Polyclinique Saint-Georges,,,,,,+33 5 46 05 07 94,,,yes,,45.603302500000005,-1.0043741
1750,21750,Polyclinique Saint-Jean,,,,,,+33 8 26 30 20 66,,,yes,,43.6196756,3.8715412000000002
1752,21752,Polyclinique Saint-Roch,Avenue du Colonel Pavelet,,,,,+33 8 26 88 88 82,,,yes,,43.5831969,3.8607864000000003
1755,21755,Polyclinique Vauban,,,,,,+33 8 26 20 42 52,,,yes,,50.3606359,3.5117347999999997
1756,21756,Polyclinique d'Arès,,,,,,+33 5 56 03 87 00,,,yes,,44.753485999999995,-1.1279024
1759,21759,Polyclinique de Gentilly,,,,,,+33 8 25 12 18 25,,,yes,,48.7021515,6.140506299999999
1760,21760,Polyclinique de Maisons-Laffitte,,,,,,+33 1 30 86 36 36,,,yes,,48.95052570000001,2.1531476
1763,21763,Polyclinique de Poitiers,,,,,,+33 5 49 61 70 00,,,yes,,46.564296,0.366417
1764,21764,Polyclinique de Riaumont,,,,,,+33 3 21 44 80 80,,,yes,,50.4151347,2.7841011000000004
1766,21766,Polyclinique de l'Adour,,,,,,+33 5 58 06 64 64,,,yes,,43.712742999999996,-0.2437538
1767,21767,Polyclinique de l'Ormeau,,,,,,+33 5 62 56 99 14,,,yes,,43.2256287,0.0770492
1768,21768,Polyclinique de la Clarence,,,,,,+33 3 21 54 90 00,,,yes,,50.4784196,2.4891501
1770,21770,Polyclinique des 3 Frontières,,,,,,+33 8 26 30 37 37,,,yes,,47.581785700000005,7.5510281
1772,21772,Polyclinique des Trois Vallées,Route de Saint-Pons,,,,,+33 4 67 95 56 56,,,yes,,43.608193799999995,3.1503692
1773,21773,Polyclinique du Beaujolais,,,,,,+33 8 26 96 90 00,,,yes,,46.010440100000004,4.7064744
1775,21775,Polyclinique du Grand Sud,,,,,,+33 4 66 04 33 04,,,yes,,43.8169683,4.3543552000000005
1778,21778,Polyclinique du Parc,,,,,,+33 8 25 27 82 82,,,yes,,49.167155,-0.34610040000000003
1782,21782,Polyclinique du Sidobre,,,,,,+33 8 26 39 99 38,,,yes,,43.5973172,2.2690985
1783,21783,Polyclinique du Sud de la Corse,,,,,,+33 4 95 73 80 00,,,yes,,41.598201200000005,9.276226800000002
1795,21795,Pôle Santé Léonard de Vinci,,,,,,+33 2 47 22 21 11,,,yes,,47.3365205,0.6889329000000001
1796,21796,Pôle Santé Oréliance,Avenue Jacqueline Auriol,,,,,+33 2 38 79 60 00,,,yes,,47.939732799999994,1.8816973999999997
1797,21797,Pôle Santé Professeur Louis Serre,,,,,,,,,yes,,43.6643151,4.1246796
1798,21798,Pôle Santé République,,,,,,+33 8 26 30 44 99,,,yes,,45.786958500000004,3.1045367
1799,21799,Pôle Santé Sarthe et Loir,La Chasse du Point du Jour,,,,,+33 2 44 71 30 00,,,yes,,47.7742335,-0.2100708
1801,21801,Pôle de Santé du Plateau,Avenue de Villacoublay,,,,,+33 1 41 28 10 00,,,yes,,48.784431299999994,2.232304
1802,21802,Pôle de Santé du Villeneuvois,,,,,,+33 5 53 72 23 23,,,yes,,44.408162899999994,0.7448665
1834,21834,Urgences - Cardiologie,,,,,,,,,yes,,45.270927,1.7713310000000002
