,id,name,address,city,state,zip,county,phone,type,ownership,emergency,quality,LAT,LON
0,10000,118 Bologna Soccorso,,,,,,,,,,,44.3437299,11.2690951
1,10001,A.S.L.,,,,,,,,,,,46.0627348,11.2444781
2,10002,A.S.L.,,,,,,,,,,,46.0629872,11.244215800000001
3,10003,A.S.L.,,,,,,,,,,,43.41069470000001,11.135164999999999
4,10004,A.S.L. CN1 - Avis,Piazza Andrea Willy Burgo,,,,,,,,,,44.60195,7.4813442
5,10005,A.S.L. NA1,,,,,,,,,,,40.8478584,14.227409
6,10006,A.S.L. Roma C,,,,,,,,,,,41.8776857,12.5298555
7,10007,ANFASS Savona,,,,,,,,,,,44.314914200000004,8.4856439
8,10008,AOVV,,,,,,,,,yes,,46.3226233,9.4001921
9,10009,APSS Banca del Sangue,,,,,,,,,no,,46.0617251,11.1269017
10,10010,APSS Villa Igea,,,,,,,,,,,46.061813,11.1275484
11,10011,ASL,,,,,,,,,,,43.7644253,11.1830936
12,10012,ASL,,,,,,,,,no,,39.8241042,15.7809218
13,10013,ASL,,,,,,,,,,,41.056205600000006,14.6245331
14,10014,ASL,,,,,,,,,,,42.270590399999996,12.687041699999998
15,10015,ASL,,,,,,,,,,,39.358883899999995,16.2417442
16,10016,ASL,,,,,,,,,no,,39.1147507,16.7831501
17,10017,ASL - Corteolona,Via dei Longobardi,,,,,,,,,,45.1546725,9.3721834
18,10018,ASL 15 Alta Padovana - Distaccamento Carmignano di Brenta,,,,,,,,,,,45.6266725,11.7020772
19,10019,ASL 5 Unità Cure Primarie,,,,,,,,,,,43.540570100000004,10.7016994
20,10020,ASL BI - Presidio sanitario (ex Ospedaletto),,,,,,,,,,,45.6726811,8.1591287
21,10021,ASL Bari,,,,,,,,,no,,41.1365938,16.8418377
22,10022,ASL Casaccia,Via Anguillarese,,,,,,,,,,42.044453600000004,12.3022279
23,10023,ASL Caserta Palazzo della salute,,,,,,,,,no,,41.055512799999995,14.3419016
24,10024,ASL Cepagatti DSB,Via Piano Ripa,,,,,,,,,,42.3586956,14.067480300000001
25,10025,ASL Cirò Marina,Via Palmiro Togliatti,,,,,,,,,,39.3660542,17.125033600000002
26,10026,ASL Dipartimento di prevenzione,,,,,,,,,no,,42.673587100000006,13.727817499999999
27,10027,ASL Mandello del Lario,,,,,,,,,,,45.9182254,9.3225104
28,10028,ASL NA 1 - Poliambulatorio,,,,,,,,,no,,40.820024,14.191267600000002
29,10029,ASL NA 2 NORD - Distretto 46 Acerra,,,,,,,,,,,40.9467693,14.378778400000002
30,10030,ASL NA1 - Poliambulatorio,,,,,,,,,no,,40.831154999999995,14.198108
31,10031,ASL NA1 - Poliambulatorio,,,,,,,,,no,,40.8305118,14.246619500000001
32,10032,ASL NA1 - Poliambulatorio,,,,,,,,,no,,40.8418316,14.201626199999998
33,10033,ASL NA1 Poliambulatorio,,,,,,,,,no,,40.8586844,14.272203099999999
34,10034,ASL RM5 Sede di Palestrina,,,,,,+39 06 95322211,,,no,,41.8392209,12.8881213
35,10035,ASL TO5,,,,,,,,,no,,44.9513694,7.769991900000001
36,10036,ASP,,,,,,,,,no,,39.0576588,17.1141431
37,10037,ASP 5 Reggio Calabria - Ex ASL 10 Palmi,,,,,,,,,,,38.3778989,15.869691399999999
38,10038,ASS4 - Centro territoriale di Tricesimo,,,,,,,,,no,,46.1582849,13.2245783
39,10039,ASST Bergamo Ovest,Viale Natale Betelli,,,,,,,,,,45.64828,9.601966699999998
40,10040,Administration and mortuary,,,,,,,,,,,40.300689399999996,8.495622599999999
41,10041,Ambulatori,,,,,,,,,,,46.242117,13.1564266
42,10042,Ambulatori,,,,,,,,,,,46.141897799999995,11.1069814
43,10043,Ambulatorio,,,,,,,,,,,43.0584616,11.603566
44,10044,Ambulatorio ASL 9 Siena,,,,,,,,,,,42.833679499999995,11.5889376
45,10045,Ambulatorio Medico,,,,,,,,,no,,39.8287965,16.3137863
46,10046,Ambulatorio Policlinico Casilino - Edificio D,Via Casilina,,,,,,,,,,41.8674904,12.5882558
47,10047,Amedeo di Savoia,,,,,,,,,,,45.0887575,7.6596936
48,10048,Andrea Tortora,,,,,,,,,,,40.7472555,14.621023999999998
49,10049,Anthea,,,,,,,,,,,41.1038554,16.8564099
50,10050,Arcispedale Sant'Anna,,,,,,,,,yes,,44.8014753,11.7000088
51,10051,Area Malpighi,,,,,,,,,,,44.489767,11.364996099999999
52,10052,Area Malpighi,,,,,,,,,,,44.4892451,11.366372300000002
53,10053,Area ed edifici Ex Ospedale Psichiatrico,Via Pratozanino,,,,,,,,no,,44.394418,8.6235732
54,10054,Arnaldo Angelucci,,,,,,,,,,,41.9322255,13.0862424
55,10055,Asl,,,,,,,,,,,44.9054467,7.6758523
56,10056,Asl,Corso Lodi,,,,,,,,,,45.44259829999999,9.218517599999998
57,10057,Asl 5 Presidio Distrettuale Vecchiano,,,,,,,,,no,,43.7848792,10.3851504
58,10058,Associazione Pubblica Assistenza Castello di Serravalle Onlus,Via venticinque Aprile,,,,,0516704815,,,yes,,44.4408795,11.0648908
59,10059,Ausl Cerversi,,,,,,,,,,,43.9522419,12.7355588
60,10060,Avis,,,,,,,,,no,,45.7183006,9.684695
61,10061,Avis comunale di Casalmaggiore - Associazione volontari italiani sangue,Via Guerrazzi,,,,,,,,,,44.99440560000001,10.4122618
62,10062,Avis sezione di Platania,,,,,,,,,,,39.006885100000005,16.3214929
63,10063,Azienda Ospedale Piemonte,,,,,,,,,,,38.1816969,15.5454678
64,10064,Azienda Ospedaliera Cardinale Giovanni Panico,,,,,,,,,,,39.936623,18.357623899999997
65,10065,Azienda Ospedaliera Gravina e Santo Pietro,,,,,,,,,,,37.1061523,14.490414300000001
66,10066,Azienda Ospedaliera Mellino Mellini,Via delle Battaglie,,,,,,,,yes,,45.538988700000004,9.9336571
67,10067,Azienda Ospedaliera Ospedale di Circolo di Busto Arsizio,,,,,,,,,yes,,45.624518,8.8447564
68,10068,Azienda Ospedaliera Papardo,,,,,,,,,yes,,38.26536779999999,15.595552300000001
69,10069,Azienda Ospedaliera San Giovanni Addolorata,Via di Santo Stefano Rotondo,,,,,06 7705 4503,,,,,41.885191799999994,12.498092100000001
70,10070,Azienda Ospedaliera Sant'Antonio Abate - Gallarate,Via Eusebio Pastori,,,,,+39 0331 751111,,,yes,,45.657610299999995,8.791640600000001
71,10071,Azienda Ospedaliera Universitaria - sassari,,,,,,,,,,,40.7208265,8.5553419
72,10072,Azienda Ospedaliera Universitaria Federico II,,,,,,,,,,,40.8677902,14.222571599999998
73,10073,"Azienda Ospedaliera Universitaria Policlinico ""Paolo Giaccone""",,,,,,,,,,,38.1049977,13.362663699999999
74,10074,Azienda Ospedaliera Universitaria di Careggi,,,,,,,,,yes,,43.8121396,11.248345500000001
75,10075,Azienda Ospedaliera Zappatoni,Via Quintiliano Di Vona,,,,,,,,no,,45.523387400000004,9.5158962
76,10076,Azienda Ospedaliera di Caserta Sant'Anna e San Sebastiano,,,,,,,,,yes,,41.0861206,14.331361900000001
77,10077,Azienda Ospedaliera di Padova,Via Nicolò Giustiniani,,,,,,,,yes,,45.4043283,11.887328
78,10078,Azienda Ospedialiera San Carlo,,,,,,,,,,,40.834897399999996,15.394537900000001
79,10079,Azienda Sanitaria Locale,,,,,,,,,,,40.6678912,15.101422099999999
80,10080,Azienda Sanitaria Locale Gavardo,,,,,,,,,,,45.5822151,10.4374088
81,10081,Azienda Sanitaria Provinciale Caltanissetta,,,,,,,,,,,37.4920024,14.043853400000001
82,10082,Azienda Sanitaria Provinciale Caltanissetta,,,,,,,,,,,37.4832816,14.060456400000001
83,10083,Azienda Sanitaria Provinciale Catanzaro Polo Sanitario,,,,,,,,,yes,,38.681574299999994,16.4205712
84,10084,Azienda Sanitaria Provinciale di Palermo,,,,,,,,,,,37.704656299999996,13.256759299999999
85,10085,Azienda USL - Casa della Salute,,,,,,,,,,,44.7592424,10.1366605
86,10086,Azienda USL Toscana Nord Ovest - Distretto Collesalvetti,,,,,,,,,,,43.588392600000006,10.477680699999999
87,10087,"Azienda Universitario-Ospedaliera ""Maggiore della Carità""",,,,,,,,,yes,,45.4416489,8.6201327
88,10088,Azienda ospedaliera Arcispedale Santa Maria Nuova,Viale Risorgimento,,,,,,,,yes,,44.6871708,10.6317061
89,10089,Azienda ospedaliera Sant'Elia,,,,,,,,,yes,,37.4914865,14.030393799999999
90,10090,Azienda ospedaliere Cannizzaro,,,,,,,,,yes,,37.5448561,15.113343599999999
91,10091,Bagno WC,,,,,,,,,,,40.3375999,15.674985000000001
92,10092,Bassa Val di Cecina,,,,,,,,,,,43.3150551,10.5293701
93,10093,Bezirkskrankenhaus Schlanders - Ospedale di distretto Silandro,Krankenhausstraße,,,,,,,,yes,,46.62869620000001,10.7776997
94,10094,C.N.S.A.S. Serv.Reg.Emilia Romagna,,,,,,,,,,,44.4523884,10.467176400000001
95,10095,CAsa di cura Villa Fiorita,Via Venti Settembre,,,,,+39 075 575981,,,no,,43.1036509,12.382542599999999
96,10096,COF Lanzo,,,,,,,,,,,45.993526200000005,9.0398079
97,10097,COT,,,,,,,,,,,38.1898283,15.5439559
98,10098,CRI Cesenatico,,,,,,,,,,,44.1989169,12.3964471
99,10099,Casa Della Salute di Colorno-Torrile,,,,,,,,,,,44.934225299999994,10.3756501
100,10100,Casa Di Cura Villa Pini D'Abruzzo,,,,,,,,,,,42.3797246,14.187876699999999
101,10101,Casa Serena,,,,,,,,,,,45.7209452,9.5842648
102,10102,Casa Sollievo della Sofferenza,,,,,,,,,,,41.7090351,15.7086633
103,10103,Casa del Sole,,,,,,+39 0771 324901,,,no,,41.2520501,13.589024800000002
104,10104,Casa della Divina Provvidenza,,,,,,,,,,,41.2456159,16.498848000000002
105,10105,"Casa della Divina Provvidenza Ospedale ""Don Uva""",,,,,,,,,,,41.4682505,15.524307
106,10106,Casa della Salute,Via Agostino Paci,,,,,,,,,,44.113974799999994,9.9632599
107,10107,Casa della Salute,Piazzale P. Vaccaro e G. Laurito,,,,,,,,,,39.728429399999996,16.1420241
108,10108,Casa della Salute,Piazzale Rita Levi Montalcini,,,,,,,,,,44.4761092,11.2737471
109,10109,"Casa della Salute ""Finale Emilia""",Piazza Antonio Gramsci,,,,,,,,yes,,44.8332136,11.2973219
110,10110,Casa della Salute del Comune di Capannori,,,,,,,,,,,43.896620500000004,10.5587567
111,10111,Casa della salute,,,,,,,,,,,43.3074958,13.315307999999998
112,10112,Casa della salute,Viale Roma,,,,,,,,no,,44.317665600000005,11.800519300000001
113,10113,Casa di Betania Honlus,,,,,,,,,,,39.936915500000005,18.3578131
114,10114,"Casa di Cura ""Maria Grazia Barone""",,,,,,,,,,,41.456664700000005,15.5470064
115,10115,"Casa di Cura ""San Raffaele""",,,,,,,,,,,42.0723713,13.911657199999999
116,10116,"Casa di Cura ""Villa Bianca""",,,,,,,,,,,46.0625375,11.126471800000001
117,10117,"Casa di Cura ""Villa Tirrena""",,,,,,,,,,,43.5377439,10.3070389
118,10118,"Casa di Cura ""Villa dei Pini""",,,,,,,,,no,,43.7594684,11.2334997
119,10119,Casa di Cura - Padre Pio,,,,,,,,,no,,41.0019213,16.859202
120,10120,Casa di Cura Ambrosiana,,,,,,,,,,,45.4494513,9.0898964
121,10121,Casa di Cura Città di Aprilia,,,,,,,,,,,41.5869133,12.6492127
122,10122,Casa di Cura Città di Parma,,,,,,,,,,,44.785261,10.338608599999999
123,10123,Casa di Cura Cobellis,Contrada Badia,,,,,+39 0974 75888,,,,,40.2311585,15.242301300000001
124,10124,Casa di Cura Dottor Pederzoli,Via Monte Baldo,,,,,+39 045 644 91 11,,,yes,,45.4435685,10.705620300000001
125,10125,Casa di Cura La Madonnina,Via Quadronno,,,,,,,,,,45.4548598,9.1948442
126,10126,Casa di Cura Liotti,Via Serafino Siepi,,,,,+39 075 5721647,,,no,,43.1132806,12.380603500000001
127,10127,Casa di Cura Maddonna della Salute,,,,,,,,,,,45.0259392,12.2229745
128,10128,Casa di Cura Montanari,Via Giuseppe Montanari,,,,,,,,,,43.9137281,12.6479464
129,10129,Casa di Cura Montevergine,,,,,,,,,,,40.922649299999996,14.745791699999998
130,10130,Casa di Cura Nuova ITOR,,,,,,,,,,,41.92442379999999,12.54221
131,10131,Casa di Cura Ospedale Internazionale Villa Benti,,,,,,,,,,,40.8367678,14.2273975
132,10132,Casa di Cura Papa Giovanni XXIII,,,,,,,,,,,45.6581811,12.426241099999999
133,10133,Casa di Cura Privata Città di BRA,Strada Montenero,,,,,+39,,,no,,44.697223799999996,7.859147900000001
134,10134,Casa di Cura Privata Villa Santa Apollonia,,,,,,,,,no,,45.7136855,9.6787998
135,10135,Casa di Cura Privata di S. M. Maddalena,Via Gorizia,,,,,+39 0425 768 411,,,,,44.89220170000001,11.6110905
136,10136,Casa di Cura Privata “Villa Serena”,,,,,,,,,,,42.519816,14.1114848
137,10137,Casa di Cura Quarenghi,,,,,,,,,,,45.836785799999994,9.6632997
138,10138,Casa di Cura San Giorgio,,,,,,,,,no,,45.9459036,12.660107
139,10139,Casa di Cura San Giovanni,Via Matteo Civitali,,,,,,,,,,45.4742552,9.1287649
140,10140,Casa di Cura San Rossore,Viale delle Cascine,,,,,+39 050 586111,,,no,,43.724677500000006,10.3744385
141,10141,Casa di Cura Sant'Anna,,,,,,,,,no,,39.0557448,17.0893051
142,10142,Casa di Cura Sant'Anna,,,,,,,,,yes,,39.06193029999999,17.1301854
143,10143,Casa di Cura Toniolo,Via Toscana,,,,,,,,,,44.4668955,11.3708864
144,10144,Casa di Cura Villa Cintia,,,,,,,,,no,,40.8449265,14.204386900000001
145,10145,Casa di Cura Villa Esther,Via Gino Di Biase,,,,,+39 0874 751001,,,,,41.4882342,14.473394899999999
146,10146,Casa di Cura Villa Gemma,Corso Giuseppe Zanardelli,,,,,,,,no,,45.62508,10.5730675
147,10147,Casa di Cura Villa Maria,Viale Principe di Piemonte,,,,,+39 0874 91723,,,no,,41.553729100000005,14.659685399999999
148,10148,Casa di Cura Villa Montallegro,,,,,,,,,,,44.402150899999995,8.9644858
149,10149,Casa di Cura Villa Pini,,,,,,,,,,,43.3129766,13.718626500000001
150,10150,Casa di Cura Villa Salus,Via Ulderico Levi,,,,,,,,,,44.696659000000004,10.621747599999999
151,10151,Casa di Cura Villa dei Pini,,,,,,,,,,,41.4638283,12.615815
152,10152,Casa di Cura del Policlinico,,,,,,,,,,,45.4597641,9.1615106
153,10153,Casa di Cura privata Villa Berica,,,,,,,,,,,45.5485867,11.5595324
154,10154,Casa di Riposo,,,,,,,,,,,45.7788885,12.83837
155,10155,Casa di Riposo,,,,,,,,,,,44.3384539,8.509966499999999
156,10156,Casa di Riposo,,,,,,,,,,,45.957294299999994,12.4990354
157,10157,"Casa di Riposo ""I.R.C.E.R. Villa Cozza""",,,,,,,,,,,43.2939799,13.4610143
158,10158,"Casa di Riposo ""San Giuseppe""",,,,,,,,,,,43.6620276,11.191988199999999
159,10159,Casa di Riposo di Lonigo,,,,,,,,,,,45.3854327,11.399576199999998
160,10160,"Casa di cura ""Domus Nova""",,,,,,,,,no,,44.420322600000006,12.1844769
161,10161,"Casa di cura ""Il Pigneto""",,,,,,,,,,,41.6911799,12.7901812
162,10162,"Casa di cura ""Le Betulle""",,,,,,,,,,,45.7285659,8.996842800000001
163,10163,"Casa di cura ""Villa Regina""",,,,,,,,,,,45.9173679,10.8873211
164,10164,"Casa di cura ""Villa Verde""",,,,,,,,,,,40.4479911,17.2754303
165,10165,"Casa di cura ""Villa Vialarda""",,,,,,,,,,,45.57337329999999,8.0471369
166,10166,Casa di cura Cristo Re,,,,,,,,,,,38.196184499999994,15.5489888
167,10167,Casa di cura Eremo,,,,,,,,,,,45.919416299999995,10.869941699999998
168,10168,Casa di cura Monte Imperatore,,,,,,+39 080 4978616,,,,,40.7478711,17.0198165
169,10169,Casa di cura San Camillo,,,,,,,,,,,45.1376214,10.0386431
170,10170,Casa di cura Sant'Alessandro,,,,,,+39 06 41400356,,,,,41.9657846,12.598271400000002
171,10171,Casa di cura Sant'Anna,,,,,,,,,,,39.2260305,9.1175083
172,10172,Casa di cura Santa Rita,,,,,,,,,no,,41.087333,16.8654405
173,10173,Casa di cura Santa Rita,,,,,,,,,no,,41.087810100000006,16.866012100000003
174,10174,Casa di cura Solatrix,,,,,,,,,no,,45.8972416,11.0456741
175,10175,Casa di cura Villa Fiorita,,,,,,,,,,,44.53772360000001,10.792875
176,10176,Casa di cura Villa S. Giuliana,,,,,,,,,no,,45.468278399999996,10.9999531
177,10177,Casa di cura Villa Serena,,,,,,,,,,,44.9913162,7.456976200000001
178,10178,Casa di cura policlinica Villa Verde,,,,,,,,,,,44.680019,10.6191873
179,10179,Casa di riposo  Villa San Fortunato,Via Gerbida,,,,,,,,,,44.837605700000005,8.621417999999998
180,10180,Casa di riposo sant'antonio pucci,,,,,,,,,,,43.8619817,10.2489609
181,10181,Centrale 118 e Nue 112,,,,,,,,,,,44.6533328,7.469564699999999
182,10182,Centro Cardiologico Monzino,,,,,,,,,yes,,45.4436829,9.262571000000001
183,10183,Centro Chirurgico Toscano,Via dei Lecci,,,,,+39 0575 3335,,,,,43.480355700000004,11.879902900000001
184,10184,Centro Cuore Morgagni,,,,,,,,,no,,37.617255799999995,15.053039800000002
185,10185,Centro Cura e Salute,,,,,,,,,,,40.8184864,8.4631788
186,10186,Centro Dialisi,,,,,,,,,,,45.890144,9.918282000000001
187,10187,Centro Iperbarico,Via Augusto Torre,,,,,,,,yes,,44.410592799999996,12.164042199999999
188,10188,Centro Medicina Nucleare Italiano Villa Bianca,,,,,,,,,,,41.9249363,12.5113289
189,10189,Centro Medico,,,,,,,,,,,45.6160419,9.2814604
190,10190,Centro Radiologico Polispecialistico dei Laghi,,,,,,,,,no,,45.768896399999996,8.678042800000002
191,10191,Centro Regionale del Lazio per i Trapianti e le patologie collegate,,,,,,,,,,,41.8537269,12.634893400000001
192,10192,Centro Riabilitativo Polifunzionale T. Borsalino,Piazzale Ravazzano,,,,,+39 0131 206111,,,,,44.9388084,8.6155674
193,10193,Centro Riabilitativo Polifunzionale T. Borsalino,Piazzale Ravazzoni,,,,,+39 0131 206111,,,,,44.9416714,8.6181536
194,10194,Centro Sanitario Polifunzionale Maraschin-Zannini,,,,,,,,,,,45.656559200000004,11.601448199999998
195,10195,Centro Sant'Ambrogio - Fatebenefratelli,,,,,,,,,no,,45.5221071,9.3445865
196,10196,Centro Servizi Socio Sanitari Guido de Rossignoli,Via Cao del Mondo,,,,,+39049 9822232,,,,,45.563135100000004,11.9286291
197,10197,Centro Socio Riabilitativo,Via Lampugnana,,,,,,,,,,45.051917200000005,9.596111800000001
198,10198,Centro Traumatologico Ortopedico,,,,,,,,,,,38.1520733,13.3408733
199,10199,Centro di Assistenza Primaria (CAP),Via San Carlo,,,,,,,,,,45.761728999999995,8.558587
200,10200,Centro di Medicina,Viale della Repubblica,,,,,+39 042 26 98 111,,,no,,45.6987258,12.2556582
201,10201,Centro di Protonterapia,Via al Desert,,,,,,,,,,46.0497596,11.1149643
202,10202,"Centro di Riabilitazione Intensiva Ospedaliera ""Santa Rita da Cascia""",,,,,,,,,no,,42.715522799999995,13.0145382
203,10203,Centro di Riabilitazione Santo Stefano,Viale 30 giugno,,,,,,,,,,43.2136016,13.280722
204,10204,"Centro di Riabilitazione Santo Stefano ""Venerabile Marcucci""",,,,,,,,,,,42.8525401,13.6234189
205,10205,Centro di Riabilitazione Villa San Pietro,,,,,,+39 0464 516839,,,no,,45.915737,10.8898856
206,10206,"Centro di riabilitazione ""La Nostra Famiglia""",,,,,,+39 0332 866080,,,,,45.7707221,8.8947739
207,10207,Centro polifunzionale di Valeggio sul Mincio - ULS22,Via Santa Maria Crocefissa,,,,,,,,no,,45.357959,10.7422019
208,10208,Cittadella Socio Sanitaria,,,,,,,,,,,45.138057399999994,12.091674699999999
209,10209,Città della salute,,,,,,,,,,,44.120719799999996,12.3401826
210,10210,Città di Alessandria Policlinico di Monza,Via Vittorio Moccagatta,,,,,+39 0131 314500,,,no,,44.9132701,8.6370874
211,10211,Clinic Center,,,,,,,,,no,,40.837060799999996,14.1869893
212,10212,Clinic center Hera,,,,,,,,,,,40.9392146,14.2041288
213,10213,Clinica Castelli,,,,,,,,,,,45.695647799999996,9.6586078
214,10214,Clinica Città di Roma,Via Francesco Maidalchini,,,,,+39 06 58471,,,,,41.8748667,12.456245
215,10215,Clinica Eporediese,Via Castiglia,,,,,,,,,,45.470776,7.866305099999999
216,10216,Clinica Giovanni Battista Morgagni,Via del Bosco,,,,,+39 800 464332,,,no,,37.5335783,15.079928500000001
217,10217,Clinica LAY,,,,,,,,,,,39.2197333,9.1103824
218,10218,Clinica La Quiete,,,,,,,,,no,,45.8212494,8.8143317
219,10219,Clinica Mater Dei,,,,,,,,,,,41.924331099999996,12.4878259
220,10220,Clinica Privata,,,,,,,,,,,41.91536729999999,12.5172838
221,10221,Clinica S. Francesco,,,,,,,,,,,41.44360089999999,15.5447607
222,10222,Clinica San Carlo,,,,,,,,,,,45.57241629999999,9.157461999999999
223,10223,Clinica San Clemente,,,,,,,,,,,45.1476196,10.7707543
224,10224,Clinica San Felice,,,,,,,,,,,40.91418970000001,14.402393
225,10225,Clinica San Gaudenzio,Via Enrico Bottini,,,,,+39 0321 3831,,,,,45.4505753,8.616221300000001
226,10226,Clinica San Marco,,,,,,,,,,,41.4623292,12.9025464
227,10227,Clinica San Michele,,,,,,,,,yes,,41.039554100000004,14.3741242
228,10228,Clinica Sanatrix,,,,,,,,,,,41.9305036,12.5141645
229,10229,Clinica Sant'Anna,,,,,,,,,no,,45.1321594,8.453035
230,10230,Clinica Santa Maria,,,,,,,,,,,41.1087585,16.8629247
231,10231,Clinica Santa Rita,,,,,,,,,,,43.8822338,10.767073199999999
232,10232,Clinica Stella Maris,,,,,,,,,no,,42.9546343,13.874082399999999
233,10233,Clinica Villa Benedetta,,,,,,,,,,,41.901164,12.4248856
234,10234,Clinica Villa S.Elena,,,,,,,,,,,39.2263946,9.1257837
235,10235,Clinica Villa Stabia,,,,,,,,,no,,40.7035803,14.490256
236,10236,Clinica di Riabilitazione Villa Adria,,,,,,,,,,,43.614059499999996,13.439643300000002
237,10237,Clinica privata Villalba,Via di Roncrio,,,,,,,,,,44.4694903,11.336805499999999
238,10238,Co.Me.Te. Cooperativa Medici del Territorio - Societa' Cooperativa a R. L.,Via Don Paolo Antonini,,,,,,,,,,44.989183600000004,10.4239116
239,10239,Complesso Integrato Columbus,,,,,,,,,,,41.927873999999996,12.4301188
240,10240,Complesso Ospedaliero di Noventa Vicentina,,,,,,,,,yes,,45.292203799999996,11.5355714
241,10241,"Complesso Socio-Sanitario ""Ai Colli""",,,,,,,,,,,45.4014393,11.844651800000001
242,10242,Conference Hall,,,,,,,,,,,40.883644200000006,17.1568182
243,10243,Corberi,,,,,,,,,,,45.6104641,9.124474000000001
244,10244,Corpo Nazionale Soccorso Alpino Speleologico,,,,,,,,,,,44.6929827,10.103456900000001
245,10245,Cottolengo,,,,,,,,,no,,44.8859266,7.3201834
246,10246,Country Hospital - Guardia Medica,,,,,,,,,,,44.156215700000004,11.7947439
247,10247,Croce Bianca,,,,,,,,,,,44.542675200000005,7.7214913
248,10248,Croce Bianca Albenga,Piazza Francesco Petrarca,,,,,,,,,,44.047017700000005,8.2147739
249,10249,Croce Bianca Laigueglia,Piazza San Matteo,,,,,,,,ambulance_station,,43.9798135,8.1579384
250,10250,Croce Bianca Savona,Corso Giuseppe Mazzini,,,,,,,,,,44.3048814,8.480094300000001
251,10251,Croce Rossa,,,,,,,,,,,43.7645194,11.181425500000001
252,10252,Croce Rossa Italiana,,,,,,,,,,,44.5182441,7.4781571
253,10253,Croce Rossa Italiana - Delegazione di Paesana,Via Erasca,,,,,,,,yes,,44.678467100000006,7.2739134000000005
254,10254,Croce Rossa Italiana - L'Aquila,Viale della Croce Rossa,,,,,+39 0862 26061,,,,,42.3570974,13.404754
255,10255,Croce Rossa Italiana - Medicina,,,,,,,,,yes,,44.474219700000006,11.635156
256,10256,Croce Rossa Italiana - Palestrina,,,,,,,,,,,41.8390222,12.887768099999999
257,10257,Croce Rossa Italiana Comitato di Bardolino Baldo Garda,Via Gardesana dell'Acqua,,,,,+39 045 6212133,,,yes,,45.5534274,10.7196873
258,10258,Croce verde,Via Malfatti,,,,,,,,,,45.0585521,12.048590699999998
259,10259,Dalla Rosa Prati - Poliambulatorio,,,,,,,,,,,44.8063452,10.2996632
260,10260,Dipartimento di Salute Mentale A.S.S. 4,,,,,,,,,,,46.0378972,13.221077300000001
261,10261,Distretto Sanitario,,,,,,,,,no,,40.6440355,14.414272199999997
262,10262,Distretto Sanitario,,,,,,+39 0854910350,,,,,42.4246358,14.2746006
263,10263,Distretto Sanitario 3 di Cerea,Via Monte Carega,,,,,+39044230500,,,,,45.190707200000006,11.2231994
264,10264,Distretto Sanitario 59,,,,,,,,,,,40.632597100000005,14.3986348
265,10265,Distretto Sanitario ASL n.5 Bassa Friulana,,,,,,,,,,,45.908413700000004,13.310309900000002
266,10266,Distretto Sanitario Codroipo,,,,,,,,,no,,45.9633343,12.9963537
267,10267,Distretto Sanitario di Udine,,,,,,,,,,,46.0670278,13.2434365
268,10268,Distretto Socio Sanitario,,,,,,,,,no,,44.44384779999999,11.473753599999998
269,10269,Distretto Socio Sanitario ASL2 San Vito,,,,,,,,,no,,43.85500510000001,10.533206300000002
270,10270,Distretto Socio Sanitario Conegliano,,,,,,,,,,,45.8754372,12.2954728
271,10271,Distretto sanitario,Piazzale Vittoria,,,,,,,,no,,45.7622211,11.4316356
272,10272,Don Gnocchi,,,,,,,,,,,40.61831779999999,16.1487297
273,10273,Don Gnocchi - Santa Maria alla Pineta,,,,,,,,,,,44.0181718,10.0841345
274,10274,Don Orione,,,,,,,,,,,45.7159318,9.6929398
275,10275,Dono Svizzero,,,,,,,,,yes,,41.261677899999995,13.6182661
276,10276,Ecomedica,,,,,,,,,,,43.7180723,10.960899099999999
277,10277,Eliporto di Emergenza,Via Valle Pupina,,,,,,,,yes,,40.3453804,15.6552511
278,10278,"Elisuperficie ""Ospedale Chiello""",,,,,,,,,,,37.397868,14.379714800000002
279,10279,"Ente Ecclesiastico Ospedale Generale regionale ""F. Miulli""",,,,,,,,,yes,,40.863651000000004,16.8025682
280,10280,Eremo di Lanzo,,,,,,,,,,,45.278699700000004,7.496355599999999
281,10281,European Hospital,,,,,,,,,,,41.8543882,12.437162800000001
282,10282,Evangelico Internazionale,,,,,,,,,,,44.414292100000004,8.942673
283,10283,Ex Ospedale Militare,Via Raimondo Palmerio,,,,,,,,no,,45.0482408,9.6844711
284,10284,Ex Ospedale Umberto Primo,,,,,,,,,,,41.6383179,13.347694400000002
285,10285,Ex Ospedale di Toritto,,,,,,,,,,,41.00044320000001,16.6789321
286,10286,Ex Silos,,,,,,,,,,,45.7700433,12.839257
287,10287,Felettino,,,,,,,,,,,44.1328124,9.8446324
288,10288,Fondazione Elisabetta Germani,,,,,,,,,,,45.0851551,10.2600689
289,10289,Fondazione Gaetano e Piera Borghi,,,,,,,,,,,45.8326816,8.6595844
290,10290,Fondazione Istituto Giuseppe Giglio,,,,,,,,,,,38.027618700000005,14.012433900000001
291,10291,Fondazione Raimondi Francesco,,,,,,+39 0331 601133,,,,,45.6360325,8.899017599999999
292,10292,Fondazione Salvatore Maugeri,,,,,,,,,,,45.6520157,10.2515127
293,10293,Fondazione Santa Lucia,,,,,,,,,,,41.8392296,12.5152706
294,10294,Fondazione Seràgnoli - Hospice Bentivoglio,,,,,,,,,,,44.6373694,11.411259900000001
295,10295,Francesco Lastaria,,,,,,,,,,,41.513959,15.332513
296,10296,Franz-Tappeiner-Krankenhaus - Ospedale Franz Tappeiner,,,,,,+39 0473 263333,,,yes,,46.676385499999995,11.1503578
297,10297,Fratellanza popolare,,,,,,,,,,,40.6578769,17.7132936
298,10298,Fraternità di Misericordia Sinnai,Via Giambattista Tiepolo,,,,,,,,,,39.3037279,9.1978952
299,10299,Gaetano Rummo,,,,,,,,,yes,,41.1200476,14.7934953
300,10300,Guardia Medica,Via Sannita,,,,,,,,no,,41.0626929,14.560054699999998
301,10301,Guardia Medica,,,,,,,,,,,39.0044346,16.3188145
302,10302,Guardia Medica,,,,,,,,,,,40.23237329999999,15.270462400000001
303,10303,Guardia Medica,,,,,,,,,no,,40.4483964,17.922358300000003
304,10304,Guardia Medica,,,,,,,,,,,41.740004799999994,14.851487599999999
305,10305,Guardia Medica,,,,,,,,,,,38.1638691,15.316028699999999
306,10306,Guardia Medica,,,,,,,,,no,,40.3962852,8.6576813
307,10307,Guardia Medica,,,,,,,,,yes,,37.037498299999996,14.6806071
308,10308,Guardia Medica,,,,,,,,,,,37.0889143,14.5523747
309,10309,Guardia Medica,,,,,,,,,,,37.635528799999996,14.943095399999999
310,10310,Guardia Medica - VV. UU.,,,,,,,,,,,40.345029499999995,15.656657500000001
311,10311,Guardia medica,Via Roma,,,,,,,,,,38.0346921,14.021595199999998
312,10312,Guardia medica,Via G. G. D'Amore,,,,,+39 0823 911196,,,,,41.3550998,14.3756372
313,10313,Guglielmo Da Saliceto,,,,,,,,,,,45.0542255,9.6816219
314,10314,Guglielmo da Saliceto,,,,,,,,,yes,,45.0554897,9.679224900000001
315,10315,Habilita,,,,,,,,,,,45.590455799999994,9.6050186
316,10316,Habilita San Marco s.p.a. - sede,,,,,,,,,,,45.6986115,9.6673668
317,10317,Habilita San Marco s.p.a. - sezione,,,,,,,,,,,45.6995106,9.6688559
318,10318,Hospice,,,,,,,,,,,45.802009399999996,9.1023034
319,10319,Hospice Villa Speranza,,,,,,,,,,,41.9314352,12.4266147
320,10320,Humanitas Mater Domini,Via Gerenzano,,,,,+39 0331 476111,,,yes,,45.61025479999999,8.9072244
321,10321,Hôpital régional d'Aosta Umberto Parini,,,,,,,,,,,45.741228899999996,7.3124687999999995
322,10322,I.C.O.T.,Via Franco Faggiana,,,,,,,,,,41.44319779999999,12.900914
323,10323,I.N.I. Istituto Traumatologico Italiano,Via di Sant'Anna,,,,,+39 06 942851,,,,,41.778261900000004,12.6627296
324,10324,I.R.S.T.,,,,,,,,,,,44.1251359,12.0645184
325,10325,IDI (Istituto Dermopatico dell'Immacolata),,,,,,,,,,,41.90155,12.4293134
326,10326,IRCCS Fondazione Pascale - Day Hospital,,,,,,,,,,,40.861859100000004,14.221915099999999
327,10327,IRCCS Fondazione Pascale - Degenze,,,,,,,,,,,40.862188,14.2231753
328,10328,IRCCS Fondazione Pascale - Palazzina scientifica,,,,,,,,,,,40.8628586,14.2214372
329,10329,IRCCS Saverio De Bellis,,,,,,,,,,,40.88434470000001,17.155833800000003
330,10330,IRCCS Stella Maris,,,,,,,,,no,,43.6084126,10.291962199999999
331,10331,IRCSS Centro Neurolesi Bonino - Pulejo,,,,,,,,,,,38.20647039999999,15.5185022
332,10332,IRCSS Neuromed,,,,,,,,,,,41.5145274,14.060483900000001
333,10333,Infermeria Presidiaria di Augusta,,,,,,,,,,,37.2204895,15.2229864
334,10334,International Medical Center,,,,,,,,,,,46.5526516,10.132437
335,10335,Ipab - Centro Residenziale per Anziani A. Danielato,,,,,,,,,no,,45.1360717,12.0902153
336,10336,Istituti Clinici Scientifici Maugeri,Via Crotto Roncaccio,,,,,,,,,,45.7200646,8.9112962
337,10337,Istituti Clinici Scientifici Maugeri,Via Crotto Roncaccio,,,,,,,,,,45.719730799999994,8.9110508
338,10338,Istituti Clinici Zucchi,Via Bartolomeo Zucchi,,,,,+39 039 83831,,,,,45.5859191,9.2721905
339,10339,Istituti Ospedalieri Carlo Poma,,,,,,,,,yes,,45.1491169,10.772739900000001
340,10340,Istituto Auxologico Piancavallo,,,,,,,,,,,46.0092136,8.6288705
341,10341,Istituto Clinico Beato Matteo,Corso Pavia,,,,,,,,,,45.30709279999999,8.870209599999999
342,10342,Istituto Clinico Città Studi,,,,,,,,,yes,,45.485473299999995,9.224751800000002
343,10343,Istituto Clinico Città Studi,,,,,,,,,yes,,45.484918900000004,9.2256971
344,10344,Istituto Clinico Città di Brescia,,,,,,,,,,,45.5533956,10.2265245
345,10345,Istituto Clinico Humanitas,,,,,,,,,,,45.37137,9.1673424
346,10346,Istituto Clinico Porta Sole,Via del Giochetto,,,,,+39 075 575999,,,no,,43.114341700000004,12.4030495
347,10347,Istituto Clinico Sant'Ambrogio,,,,,,,,,,,45.4845039,9.152927400000001
348,10348,Istituto Clinico Sant'Anna,,,,,,,,,,,45.5544435,10.180460400000001
349,10349,Istituto Clinico Valle d'Aosta,,,,,,,,,,,45.7176776,7.2410701
350,10350,Istituto Don Gnocchi,,,,,,,,,,,43.758337299999994,11.206742599999998
351,10351,Istituto Europeo di Oncologia,Via Giuseppe Ripamonti,,,,,+39 02 574891,,,,,45.415344899999994,9.2086346
352,10352,Istituto Fisioterapico di Riabilitazione Clara Franceschini,,,,,,,,,,,41.2516619,13.0503933
353,10353,Istituto Nazionale dei Tumori,,,,,,,,,,,45.4743844,9.230531800000001
354,10354,Istituto Neurologico Carlo Besta,,,,,,,,,,,45.477130700000004,9.2302239
355,10355,Istituto Oncologico Veneto,,,,,,,,,,,45.4033973,11.893687
356,10356,Istituto Ortopedico Galeazzi,,,,,,,,,,,45.5226256,9.1738263
357,10357,Istituto Ortopedico Rizzoli - Ospedale,,,,,,,,,,,44.4814033,11.343263
358,10358,Istituto Ortopedico Rizzoli - Poliambulatorio - Centro di Ricerca,,,,,,,,,,,44.4763167,11.3414161
359,10359,Istituto Ortopedico del Mezzogiorno d'Italia,,,,,,,,,no,,38.114455799999995,15.669177900000001
360,10360,Istituto Ospedaliero di Sospiro,,,,,,,,,,,45.1078413,10.1601436
361,10361,Istituto Ospedaliero di Sospiro,,,,,,,,,,,45.10783920000001,10.1600465
362,10362,Istituto Policlinico San Donato,,,,,,,,,,,45.4111776,9.276585800000001
363,10363,Istituto Privato di Riabilitazione Madre della Divina Provvidenza,,,,,,,,,no,,43.4474156,11.8273876
364,10364,Istituto S.Giovanni Di Dio Fate Bene Fratelli,,,,,,,,,,,41.6996373,12.6753999
365,10365,Istituto Sant'Anna,,,,,,,,,,,44.490970000000004,11.368517
366,10366,Istituto Santo Stefano,Via Aprutina,,,,,,,,,,43.3684659,13.6937164
367,10367,Istituto Scientifico Romagnolo per lo Studio e la Cura dei Tumori (I.R.S.T.) S.r.l.,,,,,,,,,,,44.1250142,12.0647205
368,10368,Istituto Scientifico di Nervi,,,,,,,,,,,44.3849084,9.029659599999999
369,10369,Istituto Scientifico di Riabilitazione di Veruno - Fondazione Salvatore Maugeri,Via per Revislate,,,,,,,,no,,45.6957583,8.533192
370,10370,Istituto Villa Marelli,,,,,,,,,,,45.4965018,9.1932791
371,10371,Istituto delle Figlie di San Camillo - Ospedale M. G. Vannini,Via di Acqua Bullicante,,,,,,,,,,41.8815579,12.543349699999998
372,10372,Istituto di Cura Città di Pavia,Via Parco Vecchio,,,,,,,,no,,45.1923105,9.1667091
373,10373,"Istituto di riabilitazione ""Salvatore Maugeri""",,,,,,+39 0331 829111,,,,,45.719533,8.911005300000001
374,10374,Istituto di riabilitazione e di cura Santa Margherita,,,,,,,,,no,,45.1963962,9.1718411
375,10375,Istituto di ricovero e cura a carattere scientifico - Centro regionale oncologico Basilicata,,,,,,,,,,,40.931923499999996,15.6740095
376,10376,"Istituto nazionale per le malattie infettive ""Lazzaro Spallanzani""",Via Portuense,,,,,,,,,,41.8679126,12.460659
377,10377,"Istituto oncologico ""Giovanni Paolo II""",,,,,,,,,,,41.105524100000004,16.858992899999997
378,10378,Istituto per la Ricerca e la Cura del Cancro Candiolo (IRCCS),,,,,,,,,,,44.9687723,7.566115400000001
379,10379,Italian Red Cross volunteers,,,,,,,,,no,,40.2893174,8.4836069
380,10380,Krankenhaus Brixen - Ospedale Bressanone,,,,,,,,,yes,,46.725677600000004,11.6464246
381,10381,Krankenhaus Bruneck - Ospedale Brunico,,,,,,,,,yes,,46.7995291,11.9343996
382,10382,Krankenhaus Sterzing - Ospedale Vipiteno,,,,,,,,,yes,,46.897898299999994,11.4252648
383,10383,La Colletta,,,,,,+39 010 84981,,,no,,44.4007791,8.6631088
384,10384,Madonnina,,,,,,,,,,,45.6696145,12.2217907
385,10385,Madre Teresa di Calcutta,Via Altura,,,,,,,,,,44.464388799999995,11.396934800000002
386,10386,Marrelli Hospital,,,,,,,,,no,,39.0772325,17.1096078
387,10387,Mater Dei,,,,,,,,,,,41.112098700000004,16.8515161
388,10388,Matteo Pagliari,,,,,,+39 099 8801512,,,yes,,40.583009499999996,17.121786
389,10389,Medicina Universitaria,,,,,,,,,,,41.4539794,15.5234642
390,10390,Mellino Mellini - Richiedei,,,,,,,,,,,45.599987,9.886364599999999
391,10391,Misericordia del Galluzzo,,,,,,,,,,,43.7366712,11.2239065
392,10392,Misericordia di Impruneta,,,,,,,,,,,43.6843276,11.2558485
393,10393,Misericordia di Pisa,,,,,,,,,yes,,43.7098095,10.3728364
394,10394,Montalcino,,,,,,,,,,,43.0593819,11.492706199999999
395,10395,Montecatone Rehabilitation Institute,Via Montecatone,,,,,+39 0542 632811,,,,,44.348198499999995,11.632411900000001
396,10396,Multimedica,Via Milanese,,,,,02242091,,,,,45.536233100000004,9.218178300000002
397,10397,Multimedica - Clinica Santa Maria,,,,,,,,,yes,,45.600623999999996,8.870832400000001
398,10398,Mutua,,,,,,,,,,,45.501336,9.2373234
399,10399,Neuropsichiatria infantile territoriale,,,,,,,,,,,45.154267,10.780528
400,10400,Nostra Famiglia - Lungodegenza/Riabilitazione per Disabili Gravi,,,,,,,,,,,45.7861794,9.288813300000001
401,10401,Nostra Signora di Montallegro,,,,,,,,,,,44.3593458,9.2138288
402,10402,Nuova Villa Claudia Casa di Cura convenzionata,Via Flaminia Nuova,,,,,+39 06 36 79 71,,,,,41.951938299999995,12.4740636
403,10403,Nuovo Ospedale Apuano,,,,,,,,,yes,,44.019520799999995,10.0977017
404,10404,Nuovo Ospedale Civile,,,,,,,,,,,44.5298792,10.7922341
405,10405,Nuovo Ospedale San Giovanni di Dio,,,,,,,,,yes,,43.7587494,11.2027401
406,10406,Nuovo Ospedale degli Infermi,,,,,,,,,,,45.5435541,8.060928599999999
407,10407,Nuovo Policlinico,,,,,,,,,,,41.06234620000001,14.354487300000002
408,10408,Nuovo Robbiani,Via Inzani,,,,,+39 0374 415411,,,,,45.2820157,9.8702732
409,10409,O.O. R.R. S. Giovanni di Dio e Ruggi D'Aragona,,,,,,,,,,,40.6823214,14.7654551
410,10410,OO.RR. San Giovanni di Dio Ruggi d'Aragona - Scuola Medica Salernitana,,,,,,,,,,,40.6499669,14.827016500000001
411,10411,Obitorio,,,,,,,,,,,41.1475874,16.4238916
412,10412,Obitorio Comunale,Viale Risorgimento,,,,,,,,,,44.0290268,10.144038499999999
413,10413,Opera Pia Lupis,,,,,,,,,no,,36.918313500000004,14.719010899999999
414,10414,Ospedale,,,,,,,,,,,44.644503,7.660396799999999
415,10415,Ospedale,,,,,,,,,,,45.5735468,9.1567445
416,10416,Ospedale,,,,,,,,,,,40.817004499999996,16.4202766
417,10417,"Ospedale ""Ascoli-Tomaselli""",,,,,,,,,,,37.528474700000004,15.0749483
418,10418,"Ospedale ""Binaghi""",,,,,,,,,,,39.2103594,9.1383551
419,10419,"Ospedale ""Costanzo e Gaetano Mazzoni""",,,,,,,,,yes,,42.8504386,13.6182388
420,10420,"Ospedale ""Domenico Lentini""",,,,,,,,,yes,,40.052278,15.8381783
421,10421,"Ospedale ""Felice Lotti""",,,,,,,,,yes,,43.660295500000004,10.6336788
422,10422,"Ospedale ""Francesca Fallacara""",,,,,,,,,yes,,41.06600039999999,16.9273858
423,10423,"Ospedale ""Francesca Fallacara"" Padiglione Nord",,,,,,,,,,,41.0683954,16.9259521
424,10424,"Ospedale ""G. Jazzolino""",Piazza Fleming,,,,,+39 0963 962111,,,yes,,38.680162,16.1035888
425,10425,"Ospedale ""Gaetano Bernabeo""",,,,,,,,,,,42.3516342,14.3890967
426,10426,"Ospedale ""Giuseppe Casati""",,,,,,,,,,,45.5485244,9.044073599999999
427,10427,"Ospedale ""Giuseppe Cutroni Zodda""",,,,,,+39 090 9751714,,,,,38.1512653,15.220514900000001
428,10428,"Ospedale ""Immacolata Concezione""",Via Unità d'Italia,,,,,,,,yes,,46.1733185,12.7128651
429,10429,"Ospedale ""Marcello Magalini""",Via Ospedale Marcello Magalini,,,,,+39 045 6338111,,,yes,,45.3489569,10.8392614
430,10430,"Ospedale ""Morelli""",,,,,,,,,,,38.095050799999996,15.646700599999999
431,10431,"Ospedale ""Paolo Merlo""",,,,,,,,,,,41.2177304,9.406816300000001
432,10432,"Ospedale ""Poveri Infermi""",,,,,,,,,,,44.3777944,8.0378361
433,10433,"Ospedale ""Poveri Infermi""",,,,,,,,,,,44.3775874,8.037995599999999
434,10434,"Ospedale ""San Giacomo Apostolo""",,,,,,,,,,,45.677417600000005,11.9277191
435,10435,"Ospedale ""San Giovanni dei Battuti""",Via Raffaello Sanzio,,,,,,,,yes,,46.1124706,12.892126699999999
436,10436,"Ospedale ""San Gregorio""",Via Ettoreo,,,,,,,,yes,,45.956525799999994,12.5007166
437,10437,"Ospedale ""Santa Maria dei Battuti""",Via Savorgnano,,,,,,,,yes,,45.9122532,12.856931800000002
438,10438,"Ospedale ""Santa Scolastica""",,,,,,+39 0776 39291,,,yes,,41.5033648,13.843865099999999
439,10439,"Ospedale ""Santo Spirito""",,,,,,,,,yes,,45.1216468,8.4447545
440,10440,"Ospedale ""Tiberio Evoli""",,,,,,,,,yes,,37.9170986,15.780563399999998
441,10441,"Ospedale ""Vittorio Emanuele II""",,,,,,,,,,,37.6746696,12.795847300000002
442,10442,"Ospedale ""Vittorio Emanuele III""",,,,,,,,,,,37.82947,12.802594599999999
443,10443,Ospedale A. G. Mastino,,,,,,,,,,,40.3012517,8.4951224
444,10444,Ospedale A. Galateo Di San Cesario,,,,,,,,,,,40.30574429999999,18.1577639
445,10445,Ospedale Alessandro Manzoni,Via dell'Eremo,,,,,,,,yes,,45.8512528,9.4156046
446,10446,Ospedale Amedeo di Savoia,,,,,,,,,,,45.087886,7.657816400000001
447,10447,"Ospedale Amico ""Gaetano Fucito""",,,,,,,,,yes,,40.7749736,14.7455299
448,10448,Ospedale Andosilla di Civita Castellana,,,,,,,,,yes,,42.2899572,12.4210978
449,10449,Ospedale Andrea Gallino,Via Ospedale Andrea Gallino,,,,,010 849 11,,,yes,,44.4997787,8.899776
450,10450,Ospedale Antonio Cardarelli,,,,,,+39 0874 4091,,,,,41.5481117,14.6207445
451,10451,Ospedale Antonio Cardarelli,Via Antonio Cardarelli,,,,,+39 081 7471111,,,yes,,40.86850220000001,14.226749100000001
452,10452,Ospedale Antonio Segni,,,,,,,,,yes,,40.5812974,9.0018276
453,10453,Ospedale Antonio e Carlo Cartoni,,,,,,,,,,,41.794436499999996,12.756800300000002
454,10454,Ospedale Arnaboldi,,,,,,,,,,,45.0675936,9.264305199999999
455,10455,Ospedale Asilo Vittoria,,,,,,,,,,,45.2518789,8.7541579
456,10456,Ospedale Bambin Gesù,Lungomare Guglielmo Marconi,,,,,,,,no,,42.0329527,11.850290699999999
457,10457,Ospedale Bambin Gesù,Lungomare Guglielmo Marconi,,,,,,,,,,42.032087100000005,11.8507842
458,10458,Ospedale Bambino Gesù,,,,,,,,,yes,,41.8961081,12.4602073
459,10459,Ospedale Barone Lombardo,,,,,,,,,,,37.3525208,13.832094099999999
460,10460,Ospedale Barone Romeo,Via Giuseppe Mazzini,,,,,,,,yes,,38.1418455,14.968628500000001
461,10461,Ospedale Bassini,Via Gorki,,,,,+39 02 57991,,,yes,,45.5477766,9.215237400000001
462,10462,Ospedale Beauregard,Via Vaccari,,,,,,,,,,45.7429536,7.340474799999999
463,10463,Ospedale Belcolle,Strada Sammartinese,,,,,+39 0761 3391,,,yes,,42.3952429,12.1222508
464,10464,Ospedale Bellaria,,,,,,,,,,,44.463783899999996,11.3887955
465,10465,Ospedale Bernardo Nagar,,,,,,,,,,,36.8351409,11.945003
466,10466,Ospedale Biancavilla,,,,,,,,,,,37.645855100000006,14.870639
467,10467,Ospedale Buccheri La Ferla Fatebenefratelli,,,,,,,,,,,38.1056083,13.383614499999998
468,10468,Ospedale Busacca,,,,,,,,,yes,,36.7932845,14.6994521
469,10469,Ospedale C. Borella,,,,,,,,,,,45.6922691,9.206893699999998
470,10470,Ospedale C.T.O.,,,,,,,,,yes,,39.3095331,8.524127499999999
471,10471,Ospedale CTO,,,,,,,,,yes,,45.034030200000004,7.675619999999999
472,10472,Ospedale CTO Andrea Alesini,,,,,,,,,yes,,41.8573448,12.485217599999999
473,10473,Ospedale Ca' Foncello,,,,,,,,,no,,45.6593237,12.2551481
474,10474,Ospedale Caimi,Via Caimi,,,,,,,,no,,45.4622915,9.6030147
475,10475,Ospedale Camerino - San Maria della Pietà,,,,,,,,,yes,,43.1275593,13.0492011
476,10476,Ospedale Capilupi,,,,,,,,,,,40.5498049,14.237055499999999
477,10477,Ospedale Cardinal Massaia,,,,,,,,,yes,,44.9123218,8.1936234
478,10478,Ospedale Carle,Via Antonio Carle,,,,,,,,no,,44.39017570000001,7.518822599999999
479,10479,Ospedale Carlo Ondoli,Via Bordini,,,,,,,,yes,,45.776162899999996,8.5797009
480,10480,Ospedale Casa della Salute Regina Margherita,,,,,,,,,,,44.597610499999995,11.0476493
481,10481,Ospedale Ceccarini,,,,,,,,,yes,,43.9961846,12.6504616
482,10482,Ospedale Cesare Magati,,,,,,,,,yes,,44.598505700000004,10.690413900000001
483,10483,Ospedale Cesare Zonchello,,,,,,+39 0784 240237,,,no,,40.320308700000005,9.316294300000001
484,10484,Ospedale Chiarenzi,,,,,,,,,,,45.376188799999994,11.131259199999999
485,10485,Ospedale Cingoli,,,,,,,,,yes,,43.371786900000004,13.2175378
486,10486,"Ospedale Civico ""Abele Ajello""",,,,,,,,,yes,,37.657222,12.5995813
487,10487,"Ospedale Civico ""Conugi Bernardini""",,,,,,+39 06 95321,,,yes,,41.8363007,12.885627099999999
488,10488,Ospedale Civico Renzetti Lanciano,Via del Mare,,,,,,,,,,42.2298017,14.396024100000002
489,10489,Ospedale Civico Rossi,,,,,,,,,,,45.1697897,9.6533261
490,10490,Ospedale Civico di Codogno,Viale Guglielmo Marconi,,,,,,,,yes,,45.159377500000005,9.7104961
491,10491,Ospedale Civico di Settimo Torinese,Via Santa Cristina,,,,,,,,,,45.126143400000004,7.7555722000000005
492,10492,"Ospedale Civico e Benefratelli ""G. Di Cristina"" e ""M. Ascoli""",,,,,,,,,yes,,38.1020768,13.3561785
493,10493,"Ospedale Civico e Benefratelli ""G. Di Cristina"" e ""M. Ascoli""",,,,,,,,,no,,38.1029498,13.354879
494,10494,Ospedale Civile,,,,,,,,,,,38.690355100000005,16.541325699999998
495,10495,Ospedale Civile,,,,,,,,,yes,,36.918937799999995,14.7282405
496,10496,Ospedale Civile,,,,,,,,,,,45.8624291,11.5229272
497,10497,Ospedale Civile,,,,,,,,,yes,,44.638625299999994,8.6397299
498,10498,Ospedale Civile,Via dei Capitelli,,,,,,,,yes,,45.9192364,10.8738984
499,10499,Ospedale Civile,,,,,,,,,yes,,40.578936299999995,8.3190454
500,10500,"Ospedale Civile ""Ave Gratia Plena""",,,,,,,,,,,41.353097,14.357111199999999
501,10501,"Ospedale Civile ""Caracciolo""",,,,,,,,,,,41.8107811,14.3760505
502,10502,"Ospedale Civile ""Ferrari""",,,,,,,,,,,39.8178422,16.2106655
503,10503,"Ospedale Civile ""Madonna del Soccorso""",,,,,,,,,yes,,42.9486534,13.8765191
504,10504,"Ospedale Civile ""Monte Iacoviello""",,,,,,,,,,,40.7958031,16.7578416
505,10505,"Ospedale Civile ""SS. Rosario""",,,,,,,,,yes,,41.480300299999996,14.039304300000001
506,10506,"Ospedale Civile ""San Timoteo""",,,,,,,,,,,41.9893819,14.991466899999999
507,10507,"Ospedale Civile ""Santa Maria della Misericordia""",,,,,,,,,yes,,46.0760682,13.224530900000001
508,10508,Ospedale Civile FR5,,,,,,,,,,,41.5704786,13.340180199999999
509,10509,Ospedale Civile Giuseppe Mazzini,,,,,,,,,yes,,42.667225,13.7124845
510,10510,Ospedale Civile Giuseppe Sambiasi,,,,,,,,,,,40.1715988,18.034274800000002
511,10511,Ospedale Civile Ivrea,,,,,,,,,yes,,45.467211999999996,7.8724633
512,10512,Ospedale Civile Maggiore,Piazzale Aristide Stefani,,,,,,,,yes,,45.4527652,10.9867159
513,10513,Ospedale Civile Nicola Giannettasio,,,,,,,,,,,39.597231,16.6373982
514,10514,Ospedale Civile Pasquale Del Prete Pontecorvo,,,,,,,,,,,41.460310799999995,13.666855800000002
515,10515,Ospedale Civile San Camillo De Lellis,,,,,,,,,,,45.719337,11.3555745
516,10516,Ospedale Civile San Giovanni di Dio,,,,,,,,,yes,,39.0788935,17.118768499999998
517,10517,Ospedale Civile Sanremo,,,,,,,,,yes,,43.8225528,7.779486599999999
518,10518,Ospedale Civile Santa Maria,Viale Tristano di Joannuccio,,,,,+39 0744 2051,,,yes,,42.5555382,12.6577011
519,10519,Ospedale Civile Santa Maria,Viale Tristano di Joannuccio,,,,,+39 0744 2051,,,yes,,42.5555382,12.6577011
520,10520,Ospedale Civile Santa Maria Regina degli Angeli,,,,,,,,,yes,,45.048112100000004,12.0550668
521,10521,Ospedale Civile Santi Antonio e Biagio e Cesare Arrigo,,,,,,,,,yes,,44.916258299999996,8.6234215
522,10522,Ospedale Civile Santo Spirito,Via Fonte Romana,,,,,,,,yes,,42.465036600000005,14.198978899999998
523,10523,Ospedale Civile Ss. Annunziata,,,,,,,,,yes,,40.717481400000004,8.5545699
524,10524,Ospedale Civile Umberto I,,,,,,,,,yes,,40.833256799999994,17.356648899999996
525,10525,Ospedale Civile Vittorio Emanuele,Via Palazzi,,,,,,,,yes,,37.0727375,14.230401
526,10526,Ospedale Civile di Boscotrecase,Via Lenze,,,,,+39 081 535 21 11,,,yes,,40.76602929999999,14.4510336
527,10527,Ospedale Civile di Busca,,,,,,,,,,,44.5146381,7.471279400000001
528,10528,Ospedale Civile di Canosa di Puglia,,,,,,,,,yes,,41.2266277,16.070827800000004
529,10529,Ospedale Civile di Castellamonte,,,,,,,,,no,,45.3800807,7.708503100000001
530,10530,Ospedale Civile di Ciriè,,,,,,,,,yes,,45.2362951,7.599164699999999
531,10531,Ospedale Civile di Giaveno,,,,,,,,,,,45.0427541,7.3557488
532,10532,Ospedale Civile di Latisana,,,,,,,,,yes,,45.7697208,13.001800300000001
533,10533,Ospedale Civile di Lipari,,,,,,+39 090 9885929,,,yes,,38.4622996,14.954627100000002
534,10534,Ospedale Civile di Mirano,,,,,,,,,,,45.4993052,12.109969900000001
535,10535,Ospedale Civile di Montebelluna,,,,,,,,,yes,,45.7778956,12.0369567
536,10536,Ospedale Civile di Montefiascone,Via Donatori di Sangue,,,,,+39 0761 8331,,,,,42.5366564,12.0311869
537,10537,Ospedale Civile di Norcia,,,,,,,,,,,42.789879799999994,13.0956053
538,10538,Ospedale Civile di Norcia,Via dell'Ospedale,,,,,,,,yes,,42.789879799999994,13.0956053
539,10539,Ospedale Civile di Saluzzo,,,,,,,,,yes,,44.6429135,7.4941584
540,10540,Ospedale Civile di Tagliacozzo Umberto I,,,,,,,,,,,42.071844299999995,13.2555772
541,10541,Ospedale Civile di Teano,,,,,,,,,,,41.2499785,14.0665815
542,10542,Ospedale Civile di Thiesi,,,,,,,,,,,40.523686100000006,8.714829199999999
543,10543,"Ospedale Civile di Vicenza ""San Bortolo""",,,,,,,,,,,45.5562291,11.5485397
544,10544,"Ospedale Civile di Vicenza ""San Bortolo""",,,,,,,,,,,45.5571335,11.543188
545,10545,Ospedale Civile di Voghera,,,,,,,,,yes,,44.994798100000004,9.0176063
546,10546,Ospedale Civile di Volta Mantovana s.r.l.,,,,,,,,,no,,45.3234166,10.655679600000001
547,10547,Ospedale Civitanova Marche,,,,,,,,,yes,,43.3079118,13.694614300000001
548,10548,Ospedale Clinicizzato Santissima Annunziata,Via dei Vestini,,,,,+3908713571,,,yes,,42.365552,14.150127900000001
549,10549,Ospedale Codivilla-Putti,,,,,,,,,,,46.558150700000006,12.1341943
550,10550,Ospedale Codivilla-Putti,,,,,,,,,yes,,46.554436200000005,12.132209699999999
551,10551,Ospedale Costantino Cantu`,,,,,,,,,yes,,45.39423970000001,8.911316000000001
552,10552,Ospedale Cristo Re,,,,,,,,,,,41.918589000000004,12.4214675
553,10553,Ospedale Dario Camberlingo,,,,,,,,,,,40.538760100000005,17.5785883
554,10554,Ospedale De Luca e Rossano,,,,,,,,,,,40.660891299999996,14.4258029
555,10555,Ospedale De Santis,,,,,,,,,,,41.7045815,12.6796758
556,10556,Ospedale Delmati,,,,,,,,,no,,45.2301781,9.4137128
557,10557,Ospedale Di Caprino Veronese,,,,,,,,,yes,,45.6088781,10.7961688
558,10558,Ospedale Di Gugliemo,,,,,,,,,,,41.007555100000005,15.355931900000002
559,10559,Ospedale Di Summa,Via Consolazione,,,,,,,,,,40.635017,17.932198800000002
560,10560,Ospedale Di Venere,,,,,,,,,yes,,41.07465139999999,16.8641982
561,10561,Ospedale Don Tonino Bello,,,,,,,,,,,41.190800200000005,16.591430300000003
562,10562,Ospedale Emanuele Muscatello,,,,,,+39 0931 989111,,,yes,,37.245721200000006,15.2325766
563,10563,Ospedale Engles Profili,,,,,,,,,,,43.3415969,12.9065838
564,10564,Ospedale Enrico Albanese,,,,,,,,,,,38.15106110000001,13.3713236
565,10565,Ospedale Enrico Mattei,,,,,,,,,,,43.2454554,13.0086946
566,10566,Ospedale Ercole Franchini,,,,,,,,,,,44.7078636,10.4485804
567,10567,Ospedale Eugenio Morelli,Via Ausonio Zubiani,,,,,+39 0342 808 111,,,yes,,46.33274779999999,10.3333023
568,10568,Ospedale Evangelico Valdese,,,,,,,,,,,45.0578146,7.684539
569,10569,Ospedale Fatebenefratelli,,,,,,,,,,,40.816488899999996,14.1992551
570,10570,Ospedale Ferro Capra Branciforti,,,,,,,,,,,37.6536666,14.4111522
571,10571,Ospedale Figlie di San Camillo,,,,,,,,,,,45.1457123,10.010165800000001
572,10572,Ospedale Filippo Del Ponte,,,,,,,,,yes,,45.815997700000004,8.833627499999999
573,10573,Ospedale Fratelli Crobu,,,,,,,,,no,,39.327696,8.5318117
574,10574,Ospedale G. Criscuoli,,,,,,,,,,,40.9315616,15.1615644
575,10575,Ospedale G. F. Ingrassia,,,,,,,,,,,38.0909158,13.3092867
576,10576,Ospedale G. Salvini,,,,,,,,,,,45.583492799999995,9.0930794
577,10577,Ospedale G.A. Alivesi,,,,,,,,,,,40.6009599,8.5656587
578,10578,Ospedale G.B. Hodierna,,,,,,,,,,,36.9198791,14.7304669
579,10579,Ospedale G.P. Delogu,Corso Umberto I,,,,,,,,,,40.121006,8.8344472
580,10580,Ospedale Gaetano Pini,,,,,,,,,,,45.454192,9.1944261
581,10581,Ospedale Galliera,,,,,,,,,,,44.401476,8.9404009
582,10582,Ospedale Garibaldi Presidio San Luigi - Santi Currò,,,,,,,,,,,37.522878799999994,15.074048199999998
583,10583,Ospedale Ginecologico-Ostetrico Sant'Anna,,,,,,,,,,,45.0363063,7.6735958
584,10584,Ospedale Giovanni Da Procida,,,,,,,,,,,40.689953,14.769125599999999
585,10585,Ospedale Giovanni Paolo II,,,,,,,,,yes,,37.52615170000001,13.071305699999998
586,10586,Ospedale Giovanni Paolo II,,,,,,,,,yes,,40.9141093,9.4718396
587,10587,Ospedale Giovanni Paolo II,,,,,,,,,,,36.9060396,14.680701800000001
588,10588,Ospedale Girolamo Frà Castoro,Via delle Fontane,,,,,,,,yes,,45.390465999999996,11.2792801
589,10589,Ospedale Giuseppe Fornaroli,Via al donatore di sangue,,,,,+39 02 979631,,,yes,,45.4717693,8.8916496
590,10590,Ospedale Giustinian,,,,,,,,,,,45.4315424,12.3220103
591,10591,Ospedale Gravina,,,,,,,,,,,37.2233823,14.5159919
592,10592,Ospedale Guadagna,,,,,,,,,,,38.0955658,13.3643298
593,10593,Ospedale Infantile Burlo Garofolo,,,,,,,,,,,45.6362071,13.7842609
594,10594,Ospedale Infantile Burlo Garofolo,,,,,,,,,,,45.6351847,13.786230599999998
595,10595,Ospedale Infantile Cesare Arrigo,Spalto Marengo,,,,,,,,yes,,44.915889899999996,8.624934199999998
596,10596,Ospedale Infantile Regina Margherita,,,,,,,,,,,45.034030200000004,7.675619999999999
597,10597,Ospedale Infermi Rimini,,,,,,,,,yes,,44.045381899999995,12.5850808
598,10598,Ospedale Israelitico,Via Fulda,,,,,+3906602911,,,no,,41.835773700000004,12.4281808
599,10599,Ospedale Israelitico Roma,,,,,,,,,,,41.890736499999996,12.478069300000001
600,10600,Ospedale L. Curto,Via Luigi Curto,,,,,+39 0975 373111,,,yes,,40.517031599999996,15.500435699999999
601,10601,Ospedale La Schiana,,,,,,,,,,,40.8488875,14.0735467
602,10602,Ospedale La Schiana,,,,,,,,,,,40.8493307,14.072141
603,10603,Ospedale Leopoldo Parodi Delfino,,,,,,,,,yes,,41.726871700000004,13.005427599999999
604,10604,Ospedale Lorenzo Bonomo,,,,,,,,,yes,,41.2301452,16.303573999999998
605,10605,Ospedale Loreto,,,,,,,,,yes,,43.436333000000005,13.6081499
606,10606,Ospedale Luigi Sacco,,,,,,,,,,,45.5172691,9.1204663
607,10607,Ospedale M. Montessori,Via Fratelli Rosselli,,,,,,,,,,43.5982418,13.314783300000002
608,10608,Ospedale Macedonio Melloni,,,,,,,,,yes,,45.4666078,9.2184885
609,10609,Ospedale Macerata,,,,,,,,,yes,,43.2936425,13.4596346
610,10610,Ospedale Madonna delle Grazie,,,,,,,,,,,40.6538442,16.610814
611,10611,Ospedale Maggiore,Piazza dell'Ospitale,,,,,,,,yes,,45.6501755,13.7805859
612,10612,Ospedale Maggiore,,,,,,,,,,,45.3141112,9.5103651
613,10613,Ospedale Maggiore,,,,,,,,,yes,,36.8391826,14.764514800000002
614,10614,Ospedale Maggiore Carlo Alberto Pizzardi,,,,,,,,,,,44.507528,11.311867900000001
615,10615,Ospedale Maggiore Parma,,,,,,,,,,,44.797911799999994,10.308288000000001
616,10616,Ospedale Maria Adelaide,,,,,,,,,,,45.0759016,7.6938735000000005
617,10617,Ospedale Maria Immacolata Longo,,,,,,,,,,,37.585189,13.7473628
618,10618,Ospedale Maria Paternò Arezzo,,,,,,,,,,,36.9214417,14.7424131
619,10619,Ospedale Maria SS. dello Splendore,,,,,,,,,,,42.7459549,13.9606012
620,10620,Ospedale Maria Vittoria,,,,,,,,,yes,,45.08121920000001,7.6568838
621,10621,Ospedale Marino,,,,,,,,,,,39.2137915,9.1749659
622,10622,Ospedale Marino Regina Margherita,Viale I Maggio,,,,,,,,yes,,40.579361299999995,8.310665400000001
623,10623,Ospedale Martini,,,,,,,,,yes,,45.0668875,7.628347099999999
624,10624,Ospedale Martiri di Villa Malta,,,,,,,,,,,40.8119895,14.600110500000001
625,10625,Ospedale Mater Salutis,,,,,,,,,yes,,45.1870131,11.315061199999999
626,10626,Ospedale Mauriziano,,,,,,,,,,,45.0075907,8.6350198
627,10627,Ospedale Mauriziano,,,,,,,,,yes,,45.0531139,7.6654990000000005
628,10628,Ospedale Maurizio Bufalini,,,,,,,,,yes,,44.133731899999994,12.2591287
629,10629,Ospedale Maurizio Bufalini,,,,,,,,,yes,,44.134361600000005,12.258266599999999
630,10630,Ospedale Mauro Scarlato,,,,,,,,,,,40.755385600000004,14.525519000000001
631,10631,Ospedale Michele Sarcone,,,,,,,,,,,41.13061879999999,16.5358279
632,10632,Ospedale Microcitemico,,,,,,,,,,,39.2465761,9.112728500000001
633,10633,Ospedale Militare,,,,,,,,,,,44.1058827,9.8112685
634,10634,Ospedale Militare,,,,,,,,,,,42.3435676,14.1657313
635,10635,Ospedale Militare Amerigo Demurtas,,,,,,,,,,,39.2188202,9.111519300000001
636,10636,Ospedale Militare Celio,,,,,,,,,,,41.887451399999996,12.4962176
637,10637,Ospedale Militare di Padova,,,,,,,,,,,45.415361,11.8706698
638,10638,Ospedale Misericordia di Grosseto,,,,,,,,,yes,,42.7786714,11.1243015
639,10639,Ospedale Molinette,,,,,,,,,yes,,45.04214210000001,7.6726823
640,10640,Ospedale Monaldi,,,,,,,,,,,40.870062,14.2110387
641,10641,Ospedale Monsignor Dimiccoli,,,,,,,,,yes,,41.3140565,16.2526873
642,10642,Ospedale Monsignor Giovanni Galliano,Via Fatebenefratelli,,,,,,,,,,44.679078499999996,8.450041
643,10643,Ospedale Morgagni-Pierantoni,,,,,,,,,,,44.2038366,12.0201053
644,10644,Ospedale N. Melli,,,,,,,,,yes,,40.4793441,18.0036413
645,10645,Ospedale Niguarda Cà Granda,,,,,,,,,yes,,45.5067906,9.188435
646,10646,Ospedale Nostra Signora della Mercede,,,,,,,,,,,39.877543,9.5488929
647,10647,Ospedale Nostra Signora di Bonaria,,,,,,,,,,,39.5571502,8.7941739
648,10648,Ospedale Nuovo Regina Margherita,,,,,,,,,,,41.8859361,12.4709915
649,10649,Ospedale Oftalmico,,,,,,,,,yes,,45.074282000000004,7.671245699999999
650,10650,Ospedale Oftalmico,,,,,,,,,,,41.908163099999996,12.447999000000001
651,10651,Ospedale Oncologico Armando Businco,,,,,,,,,,,39.2448743,9.114008300000002
652,10652,Ospedale Orlandi,Via Ospedale,,,,,+39 045 6712111,,,,,45.4763468,10.847807300000001
653,10653,Ospedale Padre Antero Micone,,,,,,,,,,,44.43195789999999,8.850524499999999
654,10654,Ospedale Padre Pio,Via Santa Lucia,,,,,+39 06 998901,,,,,42.096544200000004,12.1704662
655,10655,Ospedale Paolo Borsellino,,,,,,,,,,,37.795984000000004,12.500230499999999
656,10656,Ospedale Paolo Dettori,,,,,,,,,,,40.8966054,9.102715
657,10657,Ospedale Pediatrico Bambino Gesù,,,,,,,,,,,41.8574447,12.4764858
658,10658,Ospedale Pediatrico Bambino Gesù,,,,,,,,,,,41.8569515,12.474083
659,10659,Ospedale Pediatrico Giannina Gaslini,,,,,,,,,,,44.3929046,8.9862676
660,10660,Ospedale Pediatrico Giovanni XXIII,,,,,,,,,,,41.0992151,16.886031699999997
661,10661,Ospedale Piero Palagi,,,,,,,,,,,43.7561995,11.270749400000001
662,10662,Ospedale Ponte Nuovo,,,,,,,,,,,43.8121066,11.2494341
663,10663,Ospedale Ramazzini,,,,,,,,,,,44.7872682,10.87986
664,10664,Ospedale Recanati Santa Lucia,,,,,,,,,yes,,43.39691320000001,13.550703699999998
665,10665,Ospedale Regina Margherita,,,,,,,,,,,36.959245700000004,14.6075598
666,10666,Ospedale Regina Montis Regalis,,,,,,,,,yes,,44.391946600000004,7.801046799999999
667,10667,"Ospedale Regionale ""Ca' Foncello""",,,,,,,,,yes,,45.66167670000001,12.2588841
668,10668,Ospedale Riabilitativo di Motta di Livenza,,,,,,,,,,,45.773840500000006,12.598821899999999
669,10669,Ospedale Riccardo Guzzardi,,,,,,,,,yes,,36.9542955,14.544399599999998
670,10670,Ospedale Ruffini,,,,,,,,,,,44.1726977,8.3404052
671,10671,Ospedale S. M. Angeli,,,,,,,,,yes,,40.8516429,17.117127800000002
672,10672,Ospedale Sacra Famiglia Fatebenefratelli,,,,,,,,,yes,,45.817394799999995,9.2259215
673,10673,Ospedale Sacro Cuore di Gesù Fatebenefratelli,Viale Principe di Napoli,,,,,,,,no,,41.1363934,14.773112300000003
674,10674,Ospedale San Antonio,Via Trento Trieste,,,,,,,,yes,,46.1553059,13.007760300000001
675,10675,Ospedale San Biagio,,,,,,,,,yes,,46.116512,8.2857289
676,10676,Ospedale San Bruno,,,,,,,,,,,38.576387700000005,16.3213064
677,10677,Ospedale San Camillo,,,,,,,,,,,40.021748200000005,9.100200300000001
678,10678,Ospedale San Camillo,,,,,,,,,,,46.064871600000004,11.1315591
679,10679,Ospedale San Camillo De Lellis,,,,,,,,,yes,,41.6335799,15.9173762
680,10680,Ospedale San Candido - Krankenhaus Innichen,,,,,,+39 0474 917111,,,yes,,46.73381679999999,12.2843508
681,10681,Ospedale San Carlo,,,,,,,,,yes,,44.42992879999999,8.7460374
682,10682,Ospedale San Carlo Borromeo,,,,,,,,,,,45.4661074,9.112960699999999
683,10683,Ospedale San Filippo Neri,,,,,,,,,,,41.949338899999994,12.4131273
684,10684,Ospedale San Francesco,Via Salvatore Mannironi,,,,,+39 0784 240237,,,yes,,40.3260708,9.3172357
685,10685,Ospedale San Francesco,,,,,,,,,,,44.070938299999995,10.480687
686,10686,Ospedale San Gerardo,Via Giovanni Battista Pergolesi,,,,,+39 039 2331,,,yes,,45.600466499999996,9.2599226
687,10687,Ospedale San Giacomo,,,,,,,,,yes,,44.759161299999995,8.7925758
688,10688,Ospedale San Giacomo,,,,,,,,,,,40.949375399999994,17.2975406
689,10689,Ospedale San Giacomo,,,,,,,,,,,37.1067274,13.9262976
690,10690,Ospedale San Giovanni Battista,,,,,,,,,,,45.3841225,11.394805499999999
691,10691,Ospedale San Giovanni Battista,,,,,,,,,,,41.8409143,12.8291147
692,10692,Ospedale San Giovanni Bosco,,,,,,,,,yes,,45.0982643,7.7004757
693,10693,Ospedale San Giovanni Bosco,,,,,,,,,yes,,40.8722932,14.275340099999998
694,10694,Ospedale San Giovanni Evangelista,Via Antonio Parrozzani,,,,,+39 07743164332,,,yes,,41.959903499999996,12.8017974
695,10695,Ospedale San Giovanni di Dio,,,,,,,,,yes,,37.35149620000001,13.6093503
696,10696,Ospedale San Giovanni di Dio,,,,,,,,,,,42.447211100000004,11.2355769
697,10697,Ospedale San Giovanni di Dio,,,,,,,,,yes,,40.9315662,9.502055300000002
698,10698,Ospedale San Giovanni di Dio,,,,,,,,,yes,,39.2227203,9.1124673
699,10699,Ospedale San Giuliano,Viale Piazza d'Armi,,,,,,,,,,45.435501,8.62852
700,10700,Ospedale San Giuseppe,,,,,,,,,,,39.74291029999999,9.1105304
701,10701,Ospedale San Giuseppe,,,,,,,,,yes,,43.7224871,10.931205199999999
702,10702,Ospedale San Giuseppe,Via San Vittore,,,,,+32 02 85991,,,yes,,45.4641287,9.171532899999999
703,10703,Ospedale San Giuseppe,,,,,,,,,yes,,41.7285921,12.6438361
704,10704,Ospedale San Giuseppe,,,,,,,,,yes,,44.4019667,8.2698295
705,10705,Ospedale San Giuseppe Moscati,Via per Martina Franca,,,,,+39 099 4585111,,,yes,,40.538722799999995,17.2759404
706,10706,Ospedale San Giuseppe Moscati,Via Antonio Gramsci,,,,,+39 081 5001111,,,,,40.9585092,14.2087699
707,10707,Ospedale San Giuseppe da Copertino,,,,,,,,,yes,,40.279404299999996,18.0459077
708,10708,Ospedale San Giuseppe e Melorio,,,,,,,,,yes,,41.076851299999994,14.262270800000001
709,10709,Ospedale San Jacopo,,,,,,,,,yes,,43.919210799999995,10.9051725
710,10710,Ospedale San Lazzaro,Via Pietrino Belli,,,,,,,,yes,,44.699127000000004,8.0303866
711,10711,Ospedale San Leonardo,,,,,,,,,yes,,40.7028239,14.489330599999999
712,10712,Ospedale San Leopoldo Mandic,Largo Beato Leopoldo Mandic,,,,,,,,yes,,45.6974223,9.425593300000001
713,10713,Ospedale San Liberatore,,,,,,,,,yes,,42.5779199,13.985397099999998
714,10714,Ospedale San Lorenzo,Via Galileo Galilei,,,,,,,,yes,,45.646851700000006,11.3074528
715,10715,Ospedale San Lorenzo,Via Galileo Galilei,,,,,,,,,,45.6465751,11.308964900000001
716,10716,Ospedale San Luca,,,,,,,,,,,45.028955700000004,11.4644446
717,10717,Ospedale San Luca,Via Francesco Cammarota,,,,,+39 0974 7111111,,,yes,,40.225886100000004,15.261867
718,10718,Ospedale San Luca,,,,,,,,,,,43.8437602,10.53024
719,10719,Ospedale San Luigi,,,,,,,,,,,45.02662279999999,7.5526371
720,10720,Ospedale San Marcellino,,,,,,,,,yes,,39.4203783,9.5695659
721,10721,Ospedale San Martino,,,,,,,,,,,46.1401469,12.2037589
722,10722,Ospedale San Martino,,,,,,,,,yes,,44.4102832,8.9769798
723,10723,Ospedale San Massimo,,,,,,,,,,,42.459798799999994,13.9218644
724,10724,Ospedale San Matteo degli Infermi,Via Loreto,,,,,+39 0743 2101,,,yes,,42.7327569,12.7250134
725,10725,Ospedale San Matteo degli Infermi,Via Loreto,,,,,+39 0743 2101,,,yes,,42.7327569,12.7250134
726,10726,Ospedale San Michele,Piazzale Alessandro Ricchi,,,,,,,,,,39.2507898,9.1090346
727,10727,Ospedale San Nicolò,Via Nostra Signora della Guardia,,,,,,,,,,44.1763756,9.6195371
728,10728,Ospedale San Pancrazio,,,,,,,,,,,45.9159427,10.8797388
729,10729,Ospedale San Paolo,Largo Donatori del Sangue,,,,,,,,,,42.0990318,11.8102914
730,10730,Ospedale San Paolo,,,,,,+39 019 84041,,,,,44.3193645,8.4898561
731,10731,Ospedale San Paolo,,,,,,,,,yes,,41.11879570000001,16.7804087
732,10732,Ospedale San Paolo,,,,,,,,,,,41.117603100000004,16.780793399999997
733,10733,Ospedale San Paolo,,,,,,+39 02 81 841,,,yes,,45.4342311,9.1588582
734,10734,Ospedale San Pellegrino di Castiglione,,,,,,,,,,,45.3900186,10.493933300000002
735,10735,Ospedale San Pietro Fatebenefratelli,Via Cassia,,,,,+39 06 33581,,,,,41.96415820000001,12.4501977
736,10736,Ospedale San Pietro Igneo,,,,,,,,,,,43.730436,10.8076158
737,10737,Ospedale San Pio da Pietrelcina,,,,,,,,,yes,,42.1186368,14.7098562
738,10738,Ospedale San Raffaele,,,,,,,,,yes,,45.5036287,9.2633957
739,10739,Ospedale San Raffaele,,,,,,,,,,,41.7022054,12.7567813
740,10740,Ospedale San Rocco,,,,,,,,,,,45.4824945,8.703967
741,10741,Ospedale San Salvatore di Pesaro sede Muraglia,Via Cesare Lombroso,,,,,,,,no,,43.890722100000005,12.9250876
742,10742,Ospedale San Salvatore di Pesaro sede centrale,Piazzale Carlo Cinelli,,,,,,,,yes,,43.9083008,12.905996400000001
743,10743,Ospedale San Sebastiano,,,,,,,,,,,44.776756899999995,10.7834403
744,10744,Ospedale San Sebastiano di Frascati,,,,,,,,,,,41.8121869,12.6737371
745,10745,Ospedale San Sebastiano di Frascati,Via Tuscolana,,,,,,,,yes,,41.8089591,12.6745499
746,10746,Ospedale San Severino Bartolomeo Eustachio,,,,,,+39 0733 6421,,,yes,,43.2357904,13.1870214
747,10747,Ospedale San Vincenzo,Contrada Sirina,,,,,,,,yes,,37.846181099999995,15.278248199999998
748,10748,Ospedale Sandro Pertini,via dei Monti Tiburtini,,,,,+39 06 41431,,,yes,,41.9189166,12.538225599999999
749,10749,Ospedale Sant'Alfonso Maria de' Liguori,,,,,,,,,,,41.105846899999996,14.5085826
750,10750,Ospedale Sant'Andrea,,,,,,,,,yes,,43.043620700000005,10.8903008
751,10751,Ospedale Sant'Andrea,,,,,,,,,,,41.981460399999996,12.472186500000001
752,10752,Ospedale Sant'Andrea,Corso Mario Abbiate,,,,,,,,,,45.3179737,8.414736300000001
753,10753,Ospedale Sant'Andrea,,,,,,,,,yes,,44.112291600000006,9.829715
754,10754,Ospedale Sant'Anna,Via dell'Ospedale Consorziale,,,,,+39 0761 651 254; 800 692 911,,,yes,,42.2926392,12.2111995
755,10755,Ospedale Sant'Anna di Como,,,,,,,,,yes,,45.79188370000001,9.046600199999999
756,10756,Ospedale Sant'Antonio,,,,,,,,,designated,,45.392348,11.8920099
757,10757,Ospedale Sant'Antonio,,,,,,,,,,,44.4778801,8.4876273
758,10758,Ospedale Sant'Antonio Abate,,,,,,,,,yes,,45.7395677,9.139130300000001
759,10759,Ospedale Sant'Eugenio,Piazzale dell'Umanesimo,,,,,,,,yes,,41.822098499999996,12.4710852
760,10760,Ospedale Sant'Orsola,,,,,,,,,yes,,45.5357776,10.216197300000001
761,10761,Ospedale Santa Barbara,,,,,,,,,yes,,39.316140000000004,8.5383659
762,10762,Ospedale Santa Caterina Novella,,,,,,,,,yes,,40.1771568,18.157346
763,10763,Ospedale Santa Croce,,,,,,,,,yes,,44.1130106,10.4144593
764,10764,Ospedale Santa Croce,Via Vittorio Veneto,,,,,,,,yes,,43.838148499999996,13.0207095
765,10765,Ospedale Santa Croce,Via Michele Coppino,,,,,+39 0171 641111,,,yes,,44.386432299999996,7.5366094
766,10766,Ospedale Santa Croce,,,,,,,,,yes,,45.0013483,7.6895952
767,10767,Ospedale Santa Maria Annunziata,,,,,,,,,yes,,43.7323934,11.304494199999999
768,10768,Ospedale Santa Maria Bianca,,,,,,,,,,,44.8840365,11.0659495
769,10769,Ospedale Santa Maria Goretti,,,,,,,,,,,41.4600454,12.9079238
770,10770,Ospedale Santa Maria degli Angeli,Via Montereale,,,,,,,,yes,,45.9707185,12.6509689
771,10771,Ospedale Santa Maria dei Laici,Via dell'Ospedale,,,,,+39 0744 9011,,,yes,,42.5593007,12.4115973
772,10772,Ospedale Santa Maria dei Laici,Via dell'Ospedale,,,,,+39 0744 9011,,,yes,,42.5593007,12.4115973
773,10773,Ospedale Santa Maria del Carmine,,,,,,,,,landing_site,,45.88245,11.0417728
774,10774,Ospedale Santa Maria della Pace,,,,,,,,,,,43.33235820000001,11.7228906
775,10775,Ospedale Santa Maria di Loreto Mare,,,,,,,,,yes,,40.8467754,14.2723975
776,10776,Ospedale Santa Marta e Santa Venera,,,,,,,,,,,37.616691700000004,15.1427085
777,10777,Ospedale Santa Verdiana,,,,,,,,,,,43.6101044,10.9699918
778,10778,Ospedale Santi Benvenuto e Rocco,Via Leopardi,,,,,+39 071 71301,,,yes,,43.4850904,13.4869006
779,10779,Ospedale Santi Giovanni e Paolo,,,,,,,,,yes,,45.439165,12.3453802
780,10780,Ospedale Santi Nicola e Filippo Avezzano,,,,,,,,,yes,,42.0537588,13.4270008
781,10781,Ospedale Santissima Trinità,,,,,,,,,yes,,41.7292992,13.6310374
782,10782,Ospedale Santissima Trinità,,,,,,,,,,,39.2369401,9.105821800000001
783,10783,Ospedale Santissima Trinità,,,,,,,,,yes,,45.5197902,9.7490002
784,10784,Ospedale Santissimo Salvatore,,,,,,,,,,,37.928662599999996,14.358221400000001
785,10785,Ospedale Santissimo Salvatore,,,,,,,,,yes,,44.634088500000004,11.1929356
786,10786,Ospedale Santo Spirito,Via Vittorio Emanuele II,,,,,,,,yes,,44.703268200000004,7.8490934999999995
787,10787,Ospedale Santo Stefano,,,,,,,,,yes,,43.8894055,11.062073
788,10788,Ospedale Sant’Agostino–Estense,,,,,,,,,,,44.606685600000006,10.868581800000001
789,10789,Ospedale Serbelloni - Gorgonzola,Via Vincenzo Bellini,,,,,,,,,,45.5348573,9.4111096
790,10790,Ospedale Serristori,,,,,,,,,yes,,43.612295700000004,11.475057699999999
791,10791,Ospedale Simiani di Loiano,,,,,,,,,yes,,44.267191700000005,11.3248644
792,10792,Ospedale Sirai,,,,,,,,,,,39.1861886,8.5093766
793,10793,Ospedale Spaziani,,,,,,,,,,,41.6367077,13.3221516
794,10794,"Ospedale Specializzato ""Luigi Spolverini""",Via delle Cerquette,,,,,+39 06 932 71,,,,,41.7226125,12.675697300000001
795,10795,Ospedale Teresa Masselli Mascia,,,,,,,,,,,41.689833,15.3828093
796,10796,Ospedale Tortona,,,,,,,,,,,44.893827200000004,8.863072
797,10797,Ospedale Trabattoni e Ronzoni,Via Giuseppe Verdi,,,,,,,,,,45.653766499999996,9.2048282
798,10798,Ospedale Uboldo,Via Ambrogio Uboldo,,,,,,,,yes,,45.5234411,9.3301356
799,10799,Ospedale Umberto I,,,,,,,,,yes,,37.0731162,15.2830326
800,10800,Ospedale Umberto I,,,,,,,,,,,40.744381,14.6500483
801,10801,Ospedale Umberto I,,,,,,,,,,,41.1465951,16.4235836
802,10802,Ospedale Umberto I,,,,,,,,,,,37.565272799999995,14.272573499999998
803,10803,Ospedale Umberto I,Viale Dante Alighieri,,,,,,,,yes,,44.416546399999994,11.9214213
804,10804,Ospedale Umberto I,,,,,,,,,yes,,40.832304,16.551236199999998
805,10805,Ospedale Umberto I,,,,,,,,,,,40.635136100000004,17.0281331
806,10806,Ospedale Umberto I (presidio Alessandro Rizza),,,,,,,,,no,,37.0817318,15.2706592
807,10807,Ospedale Unico Avola-Noto (Presidio G. Trigona),,,,,,,,,yes,,36.903519,15.0684946
808,10808,Ospedale Unico Avola-Noto (Presidio Giuseppe Di Maria),,,,,,,,,yes,,36.9251838,15.158802
809,10809,Ospedale V. Emanuele II,,,,,,,,,,,41.2431082,16.4892435
810,10810,Ospedale Val Vibrata Sant'Omero,,,,,,,,,,,42.79348220000001,13.799718400000001
811,10811,Ospedale Valdese,Via Matteo Gay,,,,,,,,no,,44.8191226,7.2051375
812,10812,Ospedale Valduce,,,,,,,,,yes,,45.8112778,9.0867972
813,10813,Ospedale Valli del Noce,Via Alcide Degasperi,,,,,,,,,,46.3607011,11.0321228
814,10814,Ospedale Vecchio,,,,,,,,,,,45.3135578,9.509400900000001
815,10815,Ospedale Vecchio di Montebelluna,Via Sant'Andrea,,,,,,,,no,,45.7706717,12.0338095
816,10816,Ospedale Versilia,Strada Statale Aurelia,,,,,+39 0584 6051,,,,,43.9155843,10.2223826
817,10817,Ospedale Villa Beretta,,,,,,,,,,,45.770787899999995,9.2696418
818,10818,Ospedale Villa Scassi,,,,,,,,,yes,,44.4127058,8.8962747
819,10819,Ospedale Villamarina,,,,,,,,,yes,,42.940759299999996,10.5103926
820,10820,Ospedale Vincenzo Cervello,,,,,,,,,yes,,38.1534417,13.3150601
821,10821,Ospedale Vittorio Emanuele II,,,,,,,,,,,42.9825985,13.363629500000002
822,10822,Ospedale Vittorio Emanuele III,Viale Mosè Bianchi,,,,,+39 0362 9841,,,yes,,45.6693945,9.246330699999998
823,10823,Ospedale città di Sesto San Giovanni,Viale Giacomo Matteotti,,,,,,,,,,45.5367615,9.2253385
824,10824,Ospedale civico di Partinico,,,,,,+39 091 8911111,,,yes,,38.0376359,13.116528500000001
825,10825,"Ospedale civile ""Francesco Pentimalli""",,,,,,,,,,,38.36222720000001,15.855042800000001
826,10826,Ospedale civile San Martino,,,,,,,,,,,39.898003499999994,8.586673300000001
827,10827,Ospedale civile di Isola della Scala,,,,,,,,,,,45.2678423,11.00746
828,10828,Ospedale de Carità Onlus,,,,,,,,,,,43.844746,7.8499737000000005
829,10829,Ospedale degli Infermi,,,,,,,,,yes,,44.2883908,11.8736171
830,10830,Ospedale degli Infermi,,,,,,,,,,,43.6810976,10.861632499999999
831,10831,"Ospedale dei Bambini ""Vittore Buzzi""",Via Lodovico Castelvetro,,,,,+39 02 57995359,,,,,45.4849727,9.166540199999998
832,10832,Ospedale dei Castelli,,,,,,,,,yes,,41.6794146,12.6476023
833,10833,Ospedale dei Pellegrini,Via Portamedina alla Pignasecca,,,,,+39 081 2543410,,,,,40.847553399999995,14.247164699999999
834,10834,Ospedale del Cadore Giovanni Paolo II,,,,,,,,,yes,,46.4318031,12.377054199999998
835,10835,Ospedale del Cuore,,,,,,,,,,,44.0186438,10.155251
836,10836,Ospedale dell'Alta Val d'Elsa,,,,,,,,,,,43.4498688,11.1467315
837,10837,Ospedale dell'Angelo,,,,,,,,,,,45.512942200000005,12.2207781
838,10838,Ospedale della Gruccia,,,,,,,,,,,43.54616,11.551306599999998
839,10839,"Ospedale della Murgia ""Fabio Perinei""","Strada Statale 96 Altamura – Gravina in Puglia Km. 73,800Altamura – Gravina in Puglia",,,,,,,,yes,,40.8199799,16.4680764
840,10840,"Ospedale della Murgia ""Fabio Perinei""","Strada Statale 96 Altamura – Gravina in Puglia Km. 73,800Altamura – Gravina in Puglia",,,,,,,,yes,,40.8201694,16.4684957
841,10841,"Ospedale della Valdichiana ""Santa Margherita""",,,,,,,,,,,43.2789419,11.923264999999999
842,10842,Ospedale della Valdinievole,,,,,,,,,yes,,43.9025404,10.6900701
843,10843,Ospedale di Arzignano,,,,,,,,,yes,,45.5266763,11.3317125
844,10844,Ospedale di Asolo Ulss 8,,,,,,,,,,,45.796246999999994,11.9128312
845,10845,Ospedale di Assisi,Via Valentin Muller,,,,,+39 075 81391,,,yes,,43.0641493,12.6217709
846,10846,Ospedale di Auronzo di Cadore,,,,,,,,,,,46.553805600000004,12.438951199999998
847,10847,Ospedale di Avigliana,Via Sant'Agostino,,,,,,,,no,,45.075643799999995,7.4032865
848,10848,Ospedale di Bentivoglio,Via Guglielmo Marconi,,,,,,,,,,44.6343938,11.417390699999999
849,10849,Ospedale di Bentivoglio,,,,,,,,,yes,,44.633895,11.416275
850,10850,Ospedale di Bollate,,,,,,,,,yes,,45.5396843,9.1181856
851,10851,Ospedale di Bolzano - Krankenhaus Bozen,,,,,,+39 0471 908111,,,yes,,46.4987671,11.3067086
852,10852,Ospedale di Borgosesia,,,,,,,,,,,45.7127279,8.2604677
853,10853,Ospedale di Borgosesia,,,,,,,,,,,45.71265,8.2604868
854,10854,Ospedale di Budrio,,,,,,,,,yes,,44.5354044,11.5345868
855,10855,"Ospedale di Calcinate ""F.M. Passi""",Piazza Ospedale,,,,,,,,yes,,45.619758399999995,9.7983646
856,10856,Ospedale di Campizzi,,,,,,,,,,,39.0931846,16.790691199999998
857,10857,Ospedale di Camposampiero,,,,,,,,,,,45.563643299999995,11.9293587
858,10858,Ospedale di Caprino Veronese,,,,,,,,,,,45.609226,10.7963034
859,10859,Ospedale di Carrara,,,,,,,,,,,44.0797546,10.1038859
860,10860,Ospedale di Castel San Pietro Terme,,,,,,,,,yes,,44.3990529,11.5917662
861,10861,Ospedale di Circolo - Fondazione Macchi,Viale Luigi Borri,,,,,,,,,,45.807425,8.8406071
862,10862,Ospedale di Circolo - Rho,Corso Europa,,,,,,,,yes,,45.5337104,9.0332586
863,10863,Ospedale di Conselve,,,,,,,,,,,45.2335257,11.8706308
864,10864,Ospedale di Cosenza,,,,,,,,,,,39.293088399999995,16.2492029
865,10865,Ospedale di Cuasso al Monte,,,,,,,,,no,,45.913880299999995,8.8591316
866,10866,Ospedale di Cuggiono,,,,,,,,,,,45.510140299999996,8.8213706
867,10867,Ospedale di Desio,Via Mazzini,,,,,+39 0362 385 610,,,yes,,45.6276736,9.1942649
868,10868,Ospedale di Dolo,,,,,,,,,,,45.4242416,12.0722869
869,10869,Ospedale di Edolo,Piazza Donatori di Sangue,,,,,+39 0364 7721,,,,,46.178350200000004,10.3305323
870,10870,Ospedale di Fiemme,,,,,,,,,,,46.288582,11.4545996
871,10871,Ospedale di Gardone Val Trompia,Via Papa Giovanni Ventitreesimo,,,,,+39 030 8933273,,,,,45.675276600000004,10.1838538
872,10872,Ospedale di Gavardo,,,,,,,,,,,45.588663200000006,10.4400492
873,10873,"Ospedale di Imola ""Santa Maria della Scaletta""",,,,,,,,,yes,,44.36018,11.6907239
874,10874,Ospedale di Imperia,,,,,,,,,yes,,43.8910617,8.0310908
875,10875,Ospedale di Leno,Piazzetta Donatori di sangue,,,,,+39 030 90541,,,,,45.3656737,10.2164538
876,10876,Ospedale di Lentini,,,,,,,,,yes,,37.28443239999999,14.984210899999999
877,10877,Ospedale di Lissone,Via Monsignore Ennio Bernasconi,,,,,+39 039 2333931,,,,,45.6214393,9.2372028
878,10878,Ospedale di Maratea,,,,,,,,,,,39.998329600000005,15.7191061
879,10879,Ospedale di Marzana,,,,,,,,,,,45.499294299999995,11.0166191
880,10880,Ospedale di Montecchio Maggiore,,,,,,,,,yes,,45.50921470000001,11.4008691
881,10881,Ospedale di Naso,,,,,,,,,no,,38.1273553,14.788129199999998
882,10882,Ospedale di Noale,,,,,,,,,yes,,45.5526184,12.0747669
883,10883,Ospedale di Oderzo,,,,,,,,,yes,,45.7805574,12.489108199999999
884,10884,Ospedale di Oppido Mamertina,,,,,,,,,,,38.290725,15.9862372
885,10885,Ospedale di Pavullo,,,,,,,,,yes,,44.334065100000004,10.836611
886,10886,Ospedale di Pederobba,,,,,,,,,,,45.8779196,11.949345300000001
887,10887,Ospedale di Pietrasanta,,,,,,,,,,,43.9604995,10.229971800000001
888,10888,Ospedale di Portogruaro,,,,,,,,,yes,,45.77124439999999,12.8405579
889,10889,Ospedale di Rivoli,,,,,,,,,yes,,45.0602643,7.519188400000001
890,10890,Ospedale di Salò,Piazza Sergio Bresciani,,,,,+39 036 53781,,,,,45.605209,10.5222784
891,10891,Ospedale di San Donà di Piave,,,,,,,,,,,45.6356946,12.5723315
892,10892,Ospedale di San Giovanni Bianco,,,,,,,,,no,,45.8718253,9.6539155
893,10893,Ospedale di Sant'Agostino,Piazza Antonio Gramsci,,,,,+39 075 95261,,,yes,,43.127464399999994,12.0550528
894,10894,Ospedale di Santa Maria Nuova,,,,,,,,,yes,,43.774403899999996,11.2600648
895,10895,Ospedale di Sant’Anna,,,,,,,,,yes,,44.4345299,10.4083278
896,10896,Ospedale di Saronno,Piazza don Giuseppe Borella,,,,,,,,yes,,45.6315075,9.039601
897,10897,Ospedale di Senigallia,,,,,,,,,yes,,43.7153421,13.2092949
898,10898,Ospedale di Soveria Mannelli,,,,,,,,,,,39.0783172,16.3804435
899,10899,Ospedale di Susa,Corso Inghilterra,,,,,+39 0122 621212,,,yes,,45.138214399999995,7.0507872
900,10900,Ospedale di Suzzara,Via Generale Cantore,,,,,+39 03 76 51 74 17,,,yes,,44.9866296,10.752707899999999
901,10901,Ospedale di Taurianova,,,,,,,,,,,38.35323220000001,16.005763199999997
902,10902,"Ospedale di Tradate ""Luigi Galmarini""",,,,,,,,,,,45.7189205,8.900893199999999
903,10903,Ospedale di Tropea,,,,,,,,,,,38.6678239,15.878829199999998
904,10904,Ospedale di Vaio,,,,,,,,,yes,,44.847493,10.0397918
905,10905,Ospedale di Vallecamonica,,,,,,,,,,,45.927102399999995,10.2443638
906,10906,Ospedale di Vaprio d'Adda,,,,,,,,,,,45.574263099999996,9.5274406
907,10907,Ospedale di Villa d'Agri,Viale S. Pio da Pietrelcina,,,,,+39 0975 312111,,,yes,,40.3616592,15.8268645
908,10908,Ospedale di Vimercate,Via Santi Cosma e Damiano,,,,,,,,yes,,45.6085456,9.359150699999999
909,10909,Ospedale e Casa di Riposo Nobile Paolo Richiedei,Via Paolo Richiedei,,,,,+39 030 25281,,,,,45.5905943,10.151866
910,10910,Ospedale ex Mauriziano di Lanzo,Via Marchese della Rocca,,,,,,,,yes,,45.2763814,7.4870118
911,10911,Ospedale generale di zona San Camillo,,,,,,,,,,,45.6746686,12.2507423
912,10912,Ospedale nuovo di Legnano,Via Giovanni Paolo II,,,,,+39 0331 449111,,,yes,,45.5828241,8.8877114
913,10913,Ospedale pediatrico Meyer,,,,,,,,,,,43.809542799999996,11.254233000000001
914,10914,Ospedale provinciale Camillo de Lellis,Kennedy,,,,,+39 0746 2781,,,yes,,42.423682899999996,12.9059537
915,10915,Ospedale unificato Broni-stradella,,,,,,,,,yes,,45.076927399999995,9.2846591
916,10916,Ospedale vecchio - Polo Sanitario territoriale,Viale Giovanni Amendola,,,,,+39 0542 604111,,,no,,44.3538766,11.705549900000001
917,10917,Ospedale vecchio di Legnano,Via Cesare Candiani,,,,,,,,no,,45.5939685,8.9318076
918,10918,Ospedale «Maria SS. Immacolata» - Guardiagrele,,,,,,,,,yes,,42.200603799999996,14.2180114
919,10919,Ospedale “Sant'Antonio Abate”,,,,,,,,,,,44.239716200000004,10.1317684
920,10920,Ospedaletto,,,,,,,,,,,40.569201299999996,9.6847245
921,10921,"Ospedali Riuniti ""Bianchi Melacrino Morelli""",,,,,,,,,yes,,38.1134609,15.6572473
922,10922,"Ospedali Riuniti Padova Sud ""Madre Teresa di Calcutta""",Via Albere,,,,,,,,yes,,45.2059761,11.7206234
923,10923,Ospedali Riuniti Valdichiana Senese,,,,,,,,,,,43.1201979,11.8245699
924,10924,Ospedali Riuniti di Foggia,,,,,,,,,,,41.456320899999994,15.5214729
925,10925,Ospedali Riuniti di Foggia,,,,,,,,,,,41.457897499999994,15.5218918
926,10926,Ospedali Villa Sofia Cervello,,,,,,,,,,,38.1546195,13.338093099999998
927,10927,P.O. Maresca,,,,,,,,,yes,,40.8021304,14.383274700000001
928,10928,P.O. Maria Santissima Addolorata,Piazza Scuola medica Salernitana,,,,,+39 0828 362111,,,,,40.6187637,15.049767600000001
929,10929,PAD.25 Rasori,,,,,,,,,,,44.7985321,10.3096043
930,10930,Padiglione 17 - C.R.T.,,,,,,,,,,,45.7988646,8.8485579
931,10931,Padiglione Allende,,,,,,,,,,,44.2065345,12.0176261
932,10932,Palazzetto prelievi,Via Marcantonio Ducco,,,,,,,,,,45.5546441,10.2305256
933,10933,Pediatra Panin,Viale della Scienza,,,,,,,,,,45.052049200000006,11.778280300000002
934,10934,Piccole Figlie Hospital,,,,,,,,,,,44.789561799999994,10.3192155
935,10935,Pio X,,,,,,,,,,,45.4953053,9.1888969
936,10936,Poli ambulatorio,,,,,,,,,,,45.040413,10.9280022
937,10937,Poliambulatori - Asst Mantova,,,,,,,,,,,45.1638259,10.7895818
938,10938,Poliambulatorio,Via Vittorio Veneto,,,,,,,,,,46.5029351,13.575903400000001
939,10939,Poliambulatorio,,,,,,,,,,,46.506934,13.3024948
940,10940,Poliambulatorio,,,,,,,,,,,39.8988813,8.5889864
941,10941,Poliambulatorio - Sede ASL,,,,,,,,,,,45.2544799,9.1289036
942,10942,Poliambulatorio ASL,Via IV Novembre,,,,,,,,,,45.1000691,7.5468308
943,10943,Poliambulatorio ASL,,,,,,,,,no,,39.078503999999995,17.1318512
944,10944,Poliambulatorio Giovanni Paolo II,,,,,,,,,,,41.708417499999996,15.7015104
945,10945,Poliambulatorio Le Forna,,,,,,,,,,,40.9097912,12.9568144
946,10946,Poliambulatorio Librino,,,,,,,,,,,37.4918528,15.0438644
947,10947,Poliambulatorio Morgagni (CUP),Viale Giovan Battista Morgagni,,,,,,,,no,,43.798522,11.242417699999999
948,10948,Poliambulatorio Orosei,,,,,,+39 0784 999117,,,,,40.377529100000004,9.692287400000001
949,10949,Poliambulatorio Villa Iris,Via Cesare Pavese,,,,,+39 0119682282,,,,,45.1049554,7.551227900000001
950,10950,Poliambulatorio di Muro Lucano,Via San Biagio,,,,,,,,yes,,40.75589179999999,15.4962892
951,10951,Poliambulatorio e Ospedale civile,Via Ospedale,,,,,,,,,,44.7663136,7.678211999999999
952,10952,"Policlinico ""Giambattista Rossi""",Piazzale Ludovico Antonio Scuro,,,,,,,,yes,,45.4014269,10.991192800000002
953,10953,Policlinico (Nuove aule),,,,,,,,,,,38.1030474,13.3608199
954,10954,Policlinico Casilino,Via Casilina,,,,,06 231881,,,yes,,41.8679375,12.5904366
955,10955,Policlinico Città di Udine Polo 1,,,,,,,,,no,,46.0523989,13.210734500000001
956,10956,Policlinico Italia,,,,,,,,,,,41.9161999,12.5231498
957,10957,Policlinico Madonna della consolazione,,,,,,,,,,,38.114557,15.6621495
958,10958,Policlinico San Marco,,,,,,,,,,,45.4933209,12.248933599999999
959,10959,Policlinico San Pietro,,,,,,,,,,,45.6986843,9.574601699999999
960,10960,Policlinico Santa Maria alle Scotte,Viale Mario Bracci,,,,,+39 0577 585111,,,yes,,43.343087700000005,11.327435699999999
961,10961,Policlinico Sassarese,,,,,,,,,yes,,40.7211478,8.557756
962,10962,Policlinico Tor Vergata,,,,,,,,,,,41.858716799999996,12.6318335
963,10963,Policlinico Universitario,,,,,,,,,no,,39.2709721,9.127106800000002
964,10964,Policlinico Universitario Agostino Gemelli,,,,,,,,,yes,,41.9286315,12.4305345
965,10965,Policlinico Universitario Campus Bio-Medico,,,,,,,,,,,41.7700581,12.4728924
966,10966,Policlinico Universitario Gaetano Martino,,,,,,,,,yes,,38.1636295,15.5380459
967,10967,Policlinico Universitario Umberto I,,,,,,,,,yes,,41.9042571,12.5111179
968,10968,Policlinico di Bari,,,,,,,,,yes,,41.114740600000005,16.8599782
969,10969,Policlinico di Modena,,,,,,,,,yes,,44.6323094,10.941391000000001
970,10970,Policlinico di Monza,Via Carlo Amati,,,,,+39 039 28101,,,,,45.5826342,9.2932616
971,10971,Polo Emergenze Finale Emilia,Via per Modena,,,,,,,,ambulance_station,,44.838558500000005,11.2755539
972,10972,Polo Logistico di Protezione Civile,Via Cascina del Gallo,,,,,,,,,,45.1408949,7.1340589
973,10973,Polo Sanitario di Medicina,,,,,,,,,no,,44.4743304,11.635480099999999
974,10974,Polo riabilitativo Istituto Gaetano Pini,,,,,,,,,,,45.507581,9.220464
975,10975,Posto di Primo Soccorso,,,,,,,,,,,41.9695459,12.080621699999998
976,10976,Presentazione,,,,,,,,,,,44.12381679999999,8.250319099999999
977,10977,Presidio Integrato Ospedale Territorio San Marcello Pistoiese,,,,,,,,,,,44.056280799999996,10.788044099999999
978,10978,Presidio Marzio Marini,,,,,,,,,,,42.3712827,12.4917659
979,10979,Presidio Medico,,,,,,,,,yes,,45.4583825,10.713235300000001
980,10980,"Presidio Ospedaliero ""A. Perrino""",,,,,,,,,,,40.623265100000005,17.9131863
981,10981,"Presidio Ospedaliero ""De Gironcoli""",,,,,,,,,,,45.8789576,12.2935481
982,10982,"Presidio Ospedaliero ""S.S. Salvatore"" Azienda U.S.L. n.3 Catania",,,,,,,,,yes,,37.5721967,14.8975916
983,10983,Presidio Ospedaliero Amiata Grossetana,,,,,,,,,yes,,42.890494700000005,11.533941699999998
984,10984,Presidio Ospedaliero Amiata Val d'Orcia,,,,,,,,,yes,,42.8833644,11.674437800000002
985,10985,Presidio Ospedaliero Angelo Bellini,Via Ospedale,,,,,,,,,,45.6834215,8.7138414
986,10986,Presidio Ospedaliero Giovanni Paolo II,Via Senatore Arturo Perugini,,,,,+39 0968 2081,,,yes,,38.959166100000004,16.3039505
987,10987,"Presidio Ospedaliero IRCCS San Matteo ""Ugo Dozzio""",,,,,,,,,,,45.1567946,9.312936
988,10988,Presidio Ospedaliero Pausillipon,,,,,,,,,,,40.8128557,14.2050691
989,10989,Presidio Ospedaliero San Bartolomeo,,,,,,,,,,,44.121767600000005,9.950795800000002
990,10990,Presidio Ospedaliero San Giuseppe Albano,,,,,,,,,,,41.7286474,12.645505
991,10991,Presidio Ospedaliero Sant'Antonio Abate,,,,,,,,,,,38.028395700000004,12.548845
992,10992,Presidio Ospedaliero Santa Maria dell'Olmo,,,,,,,,,yes,,40.6948689,14.7104304
993,10993,Presidio Ospedaliero Territoriale di Morbegno,Via Morelli,,,,,,,,ambulance_station,,46.132982,9.572890800000001
994,10994,Presidio Ospedaliero Valle d'Itria,,,,,,,,,yes,,40.7058883,17.3429
995,10995,Presidio Ospedaliero dell'Immacolata,,,,,,,,,yes,,40.0698372,15.617282199999998
996,10996,Presidio Ospedaliero di Conegliano,,,,,,+39 0438 663111,,,,,45.88230720000001,12.2910819
997,10997,Presidio Ospedaliero di Trebisacce,,,,,,,,,,,39.8739444,16.5352638
998,10998,Presidio Ospedaliero di Vittorio Veneto,,,,,,,,,yes,,45.98800670000001,12.323459699999999
999,10999,Presidio Ospedaliero di Vizzolo Predabissi,,,,,,,,,yes,,45.3596521,9.3389365
1000,11000,Presidio San Giovanni Antica Sede,,,,,,,,,no,,45.0634687,7.688674000000001
1001,11001,Presidio Sanitario Gradenigo,,,,,,+39 011 8151211,,,yes,,45.0700057,7.706678699999999
1002,11002,Presidio Sanitario Gradenigo,,,,,,+39 011 8151211,,,,,45.0701604,7.704808900000001
1003,11003,Presidio Sanitario Raffaele Apicella,,,,,,,,,,,40.852029200000004,14.3730468
1004,11004,"Presidio Territoriale Assistenziale - ex ""Ospedale Civile""",Largo Cappuccini,,,,,+039 0831 389111,,,,,40.6442294,17.5179497
1005,11005,Presidio ospedalieri G. Castelli,Via Fiume,,,,,,,,yes,,45.926418,8.548623300000001
1006,11006,Presidio ospedaliero Garibaldi Centro,,,,,,,,,,,37.5115665,15.074976500000002
1007,11007,Presidio ospedaliero Garibaldi Nesima,,,,,,,,,,,37.5119532,15.0410539
1008,11008,Presidio ospedaliero Gaspare Rodolico,,,,,,,,,,,37.5317235,15.0705603
1009,11009,Presidio ospedaliero Giuseppe Fogliani,,,,,,+39 090 9290111,,,yes,,38.1895251,15.251456099999999
1010,11010,Presidio ospedaliero Istituto di Medicina Fisica e Riabilitazione “Gervasutta”,,,,,,,,,no,,46.0499552,13.235879800000001
1011,11011,Presidio ospedaliero Maria delle Grazie,,,,,,,,,,,41.2795126,14.565397099999998
1012,11012,Presidio ospedaliero San Marco,,,,,,,,,,,37.4810607,15.0429239
1013,11013,Presidio ospedaliero Santa Marta,,,,,,,,,,,37.504926,15.081527300000001
1014,11014,Presidio sanitario multifunzionale,,,,,,,,,,,44.3292197,7.5479178
1015,11015,Presidio sanitario “Vittorio Valletta”,,,,,,,,,no,,45.0158482,7.632027099999999
1016,11016,Presiodio Ospedaliero di Piove di Sacco,,,,,,,,,yes,,45.2935594,12.029200099999999
1017,11017,Primo Soccorso e Farmacia,,,,,,,,,,,44.1696828,11.21596
1018,11018,Principe di Piemonte,,,,,,,,,,,43.7488293,11.2441265
1019,11019,Pronto Soccorso,,,,,,,,,,,45.93608,13.604853599999998
1020,11020,Pronto Soccorso,,,,,,+39 0544 285111,,,yes,,44.4097814,12.188438699999999
1021,11021,Pronto Soccorso,,,,,,,,,yes,,45.572841499999996,9.1569985
1022,11022,Pronto Soccorso,,,,,,,,,yes,,45.5835349,9.093911199999999
1023,11023,Pronto Soccorso,,,,,,,,,yes,,44.8003202,10.3064082
1024,11024,Pronto Soccorso,,,,,,,,,yes,,45.5584162,10.2298301
1025,11025,Pronto Soccorso,Via Nazionale Ponente,,,,,,,,yes,,44.6121401,11.8354239
1026,11026,Pronto Soccorso Generale e Ortopedico,Via Pietro Albertoni,,,,,,,,yes,,44.489984899999996,11.3616853
1027,11027,"Pronto Soccorso Ospedale ""San Giuseppe""",,,,,,,,,,,41.7289708,12.643850099999998
1028,11028,Pronto Soccorso Ospedale Caorle,,,,,,,,,yes,,45.602067299999995,12.8812733
1029,11029,Pronto Soccorso Ospedale Saint Charles,,,,,,,,,yes,,43.783657700000006,7.648206399999999
1030,11030,Pronto Soccorso Pediatrico Cavaliere del Lavoro Francesco Folonari,,,,,,,,,yes,,45.5559652,10.2306585
1031,11031,Pronto Soccorso Sabaudia,,,,,,,,,no,,41.3030562,13.0200845
1032,11032,Pronto Soccorso e Guardia Medica Turistica,,,,,,,,,yes,,45.68187929999999,13.1198693
1033,11033,Pronto soccorso,,,,,,,,,yes,,45.5809756,8.8862425
1034,11034,Pubblica Assistenza Crevalcore,Via Candia,,,,,,,,yes,,44.71582,11.149881500000001
1035,11035,Pubblica Assistenza Fidenza,via Don Enrico Tincati,,,,,052482943,,,,,44.8484973,10.0392559
1036,11036,Punto di Primo Soccorso (estivo),,,,,,,,,,,41.858220700000004,12.201444
1037,11037,R.S.A. Isabella d'Este - R.S.A. Luigi Bianchi,,,,,,,,,,,45.1529816,10.774320800000002
1038,11038,R.S.A. Villa San Martino,,,,,,,,,no,,43.6647634,11.171092
1039,11039,RSA,,,,,,,,,,,42.99766339999999,13.759078
1040,11040,"RSA ""Angeli Custodi""",,,,,,,,,,,46.069803799999995,11.1302573
1041,11041,RSA Mons. Speranza,,,,,,,,,no,,45.793857200000005,9.6662844
1042,11042,RSA Mons. Speranza,,,,,,,,,no,,45.7935299,9.666447999999999
1043,11043,RSA Residenza al Castello,,,,,,,,,no,,45.0972281,7.5288224
1044,11044,RSA San Francesco,,,,,,,,,,,45.696985299999994,9.6562258
1045,11045,Residenza Eremo dei Camaldolesi,Strada Eremo,,,,,,,,,,45.0381865,7.7381465
1046,11046,"Residenza Protetta Pra' Ellera, Comunità Terapeutica",Strada Pra' Ellera,,,,,+39 019 500260,,,,,44.40656679999999,8.306525500000001
1047,11047,Residenza Sanitaria Teresiana,,,,,,,,,,,41.4531244,12.6245893
1048,11048,Residenza per Anziani Villa Speranza,,,,,,,,,,,43.8241041,7.7862905
1049,11049,Ricovero RSA Noceti,,,,,,,,,,,44.346813700000006,8.4363435
1050,11050,Romolo Hospital,,,,,,,,,no,,39.180431,16.9869285
1051,11051,Roncati,,,,,,,,,,,44.4943158,11.3300899
1052,11052,SALUS,,,,,,,,,,,45.651884499999994,13.7860775
1053,11053,Salus,,,,,,,,,,,46.1478915,12.2179359
1054,11054,Salus D,,,,,,,,,,,45.7966852,13.526547400000002
1055,11055,Salvator Mundi international Hospital,Viale delle Mura Gianicolensi,,,,,+39  06 588961,,,,,41.88262720000001,12.463241199999999
1056,11056,San Camillo,,,,,,,,,,,43.972005200000005,10.1589559
1057,11057,San Camillo,Circonvallazione Gianicolense,,,,,,,,,,41.866828600000005,12.454399699999998
1058,11058,San Camillo,,,,,,,,,,,45.0574572,7.7054092999999995
1059,11059,San Carlo Azienda Ospedaliera Regionale,,,,,,,,,yes,,40.6525965,15.802052300000001
1060,11060,San Carlo di Nancy,,,,,,,,,,,41.8978263,12.437505900000001
1061,11061,San Dionigi Hospital,,,,,,,,,no,,39.053472,17.0860078
1062,11062,San Donato,,,,,,,,,,,43.461723799999994,11.865078800000001
1063,11063,San Francesco di Paola,,,,,,,,,yes,,39.354436299999996,16.039360199999997
1064,11064,San Giovanni di Dio,,,,,,,,,yes,,41.36126779999999,13.4157815
1065,11065,San Lorenzo,,,,,,,,,yes,,46.056554600000005,11.463192
1066,11066,San Michele Hospital,,,,,,,,,,,41.595147999999995,12.6305209
1067,11067,San Pier Damiano Hospital,Via Portisano,,,,,+390546671111,,,no,,44.2861355,11.8662048
1068,11068,San Raffaele Flaminia - Residenza Sanitaria Assitenziale,Via del Labaro,,,,,,,,,,41.9891092,12.4915529
1069,11069,San Raffaele Montecompatri,Via di S. Silvestro,,,,,+39 06947811,,,,,41.804261100000005,12.7361484
1070,11070,Sanatorio,,,,,,,,,,,40.8194328,14.6165812
1071,11071,Sanatorio - Casa di Cura Pineta del Carso,,,,,,+39 040 3784111,,,,,45.7518236,13.686344
1072,11072,Sanatorio Triestino,,,,,,,,,,,45.6462527,13.7885315
1073,11073,Santa Chiara,Largo Medaglie d'Oro,,,,,,,,yes,,46.0556549,11.135097199999999
1074,11074,Santa Maria della Misericordia,,,,,,,,,,,45.0737472,11.8135424
1075,11075,Santa Maria della Pietà,,,,,,,,,,,40.9253177,14.541147699999998
1076,11076,Santa Maria delle Croci,Viale Vincenzo Randi,,,,,+39 0544285111,,,yes,,44.408700200000006,12.186518
1077,11077,Santa Maria di Misericordia,Via Martiri della Foce,,,,,,,,yes,,44.0551295,8.1991541
1078,11078,Santissima Annunziata,,,,,,,,,yes,,40.4643508,17.2471625
1079,11079,Santissima Annunziata,Via Giovanni Vicini,,,,,+39 051 6838111,,,yes,,44.7237009,11.2890005
1080,11080,Servizio continuità assistenziale,Via Grecale,,,,,+39 0922 970604,,,,,35.5067167,12.612302
1081,11081,Servizio continuità assistenziale (ex Guardia Medica),Via Rombo',,,,,+39 0922 950569,,,,,37.2539766,13.7926916
1082,11082,Servizio tossicodipendenze e alcologia,Via Calabria,,,,,,,,no,,45.4856065,12.209811300000002
1083,11083,Sistema Polimodulare di REMS Provvisorie,,,,,,,,,,,45.407008700000006,10.5023184
1084,11084,Soccorso degli Alpini,Via degli Alpini,,,,,,,,yes,,45.9181919,9.3228105
1085,11085,Spedali Riuniti,,,,,,,,,yes,,43.5489989,10.3245618
1086,11086,Struttura Medici di Base convenzionati,,,,,,,,,,,38.682913799999994,16.4055989
1087,11087,Struttura polispecialistica Cittanova,Viale Merano,,,,,0966613731,,,,,38.356567600000005,16.0782893
1088,11088,Studio Logopedico Ariel,Via San Paolo,,,,,,,,,,44.943090600000005,7.940469500000001
1089,11089,Studio dentistico,,,,,,,,,,,41.8331427,15.574044899999999
1090,11090,Terme di Firenze,,,,,,,,,no,,43.685121,11.2141763
1091,11091,Terme di Sirmione Virgilio,,,,,,,,,,,45.464578499999995,10.6113409
1092,11092,Torre Medicine,,,,,,,,,,,44.8001718,10.307103
1093,11093,U.S.L. n°7,,,,,,,,,,,43.4712296,11.1508924
1094,11094,USL 5,,,,,,,,,no,,43.717704,10.4179507
1095,11095,Ufficio Igiene,,,,,,,,,,,41.226163899999996,16.295337099999998
1096,11096,Umberto I,,,,,,,,,yes,,37.5549919,14.3016995
1097,11097,Universita' degli studi di Verona-Dipartim. Scienze chirurgiche,Piazzale Ludovico Antonio Scuro,,,,,,,,yes,,45.4034833,10.9940596
1098,11098,Università SUN - Poliambulatorio,,,,,,,,,,,40.851592700000005,14.2533399
1099,11099,Università SUN - Policlinico,,,,,,,,,,,40.85126760000001,14.2526899
1100,11100,Università SUN - Policlinico,,,,,,,,,,,40.8507599,14.252787699999997
1101,11101,Università SUN - Policlinico,,,,,,,,,,,40.852828,14.2534104
1102,11102,Vecchio Ospedale Sant'Anna,,,,,,,,,,,45.7917705,9.086747500000001
1103,11103,Villa Al Lago,,,,,,,,,,,45.156503799999996,10.7702841
1104,11104,Villa Albani,,,,,,,,,,,41.451221399999994,12.628172300000001
1105,11105,Villa Azzurra,,,,,,,,,,,44.2796434,11.7288552
1106,11106,Villa Azzurra - Hospice Poliambulatorio,,,,,,+39 0773 7971,,,,,41.28605039999999,13.256187699999998
1107,11107,Villa Bianca - Multimedica,Via Fratelli Bandiera,,,,,,,,,,45.6049988,9.1165109
1108,11108,Villa Chiarugi,Via Giuseppe Atzori,,,,,,,,,,40.741464,14.6339483
1109,11109,Villa Cristina,,,,,,,,,,,45.1081174,7.614791599999999
1110,11110,Villa Donatello,,,,,,,,,no,,43.8249381,11.2230513
1111,11111,Villa Donatello,,,,,,,,,,,43.778734299999996,11.2671285
1112,11112,Villa Laura,,,,,,,,,,,44.4793767,11.3850252
1113,11113,Villa Letizia,Via Amiternina,,,,,,,,,,42.3762786,13.295368300000002
1114,11114,Villa Margherita,,,,,,,,,,,45.51246879999999,11.5444616
1115,11115,Villa Maria,,,,,,,,,,,41.049246999999994,15.026950199999998
1116,11116,Villa Maria Pia,,,,,,,,,,,45.0697513,7.7433978
1117,11117,Villa Monna Tessa,,,,,,,,,,,43.80707520000001,11.250994699999998
1118,11118,Villa Paola,Piazzale Madonna del Piano,,,,,,,,,,42.2588571,12.1720946
1119,11119,Villa Rosa,,,,,,,,,no,,44.63098,10.9186198
1120,11120,Villa Santa Croce,Corso Francia,,,,,,,,,,44.37657120000001,7.5313379000000005
1121,11121,Villa Serena,,,,,,,,,,,43.508213,13.182258800000001
1122,11122,Villa Serena,,,,,,,,,,,44.4499877,11.3601102
1123,11123,Villa Serena,,,,,,,,,,,44.4495533,11.3602554
1124,11124,Villa Stuart,,,,,,,,,,,41.9278357,12.4502706
1125,11125,Villa Verde,,,,,,,,,,,43.158595899999995,13.714239300000001
1126,11126,Villa Von Siebenthal,,,,,,,,,no,,41.7140686,12.690633
1127,11127,Villa dei fiori,,,,,,,,,,,40.9110302,14.1959801
1128,11128,Villaggio Amico,,,,,,,,,no,,45.6444551,9.0008821
1129,11129,Ville di Nozzano,,,,,,,,,,,43.8439225,10.421339699999999
1130,11130,Vito Fazzi,,,,,,,,,yes,,40.3314237,18.1581021
1131,11131,ex Ospedale,,,,,,,,,,,37.5064134,13.0895463
1132,11132,ex ospedale civile - former civil hospital,,,,,,,,,,,42.3518327,14.173538
1133,11133,obitorio,,,,,,,,,,,42.0537471,13.4282995
1134,11134,ospedale C. Mira,,,,,,,,,,,45.3087368,9.0129204
1135,11135,presidio ospedaliero Fiorenzo Jaia,,,,,,,,,,,40.965602600000004,17.1100125
1136,11136,punto salute,,,,,,,,,no,,41.044262700000004,15.783180300000001
