,id,name,address,city,state,zip,county,phone,type,ownership,emergency,quality,LAT,LON
0,10000,Biomedicínské centrum,,,,,,,,,,,49.762365700000004,13.3760559
1,10001,Bohumínská městská nemocnice,,,,,,,,,,,49.917439,18.3349987
2,10002,Centrum zdravotní péče,,,,,,,,,,,50.1156539,14.699038199999999
3,10003,Dětská léčebna Cvikov,,,,,,,,,no,,50.78452539999999,14.639865900000002
4,10004,Dětská léčebna Dr. Filipa,,,,,,,,,,,50.1468174,15.119184900000002
5,10005,"Dětské ""D""",,,,,,,,,,,49.474990399999996,17.088073100000003
6,10006,Emergency / Pohotovost,,,,,,,,,,,49.2129208,15.889340300000002
7,10007,FN u sv. Anny,,,,,,,,,,,49.188868799999995,16.601739000000002
8,10008,FN u sv. Anny - Doléčovací a rehabilitační oddělení,,,,,,,,,,,49.1836666,16.560500899999997
9,10009,Fakultní nemocnice,,,,,,,,,yes,,50.201874700000005,15.825096300000002
10,10010,Fakultní nemocnice Bohunice,,,,,,,,,,,49.176303999999995,16.5787082
11,10011,Fakultní nemocnice Královské Vinohrady,,,,,,,,,yes,,50.076168599999995,14.473889000000002
12,10012,Fakultní nemocnice Motol,,,,,,,,,,,50.07499620000001,14.3493238
13,10013,Fakultní nemocnice Olomouc,,,,,,,,,yes,,49.5818652,17.2401479
14,10014,Fakultní nemocnice Ostrava,,,,,,,,,,,49.8298762,18.1620009
15,10015,Fakultní nemocnice Plzeň,,,,,,,,,yes,,49.733445399999994,13.3747185
16,10016,Fakultní poliklinika Všeobecné fakultní nemocnice v Praze,,,,,,+420 224 961 111,,,,,50.0760429,14.421306699999999
17,10017,Gynekologicko-porodnická klinika,,,,,,,,,,,50.0706027,14.4281035
18,10018,Gynekologická klinika,,,,,,,,,no,,50.1029361,14.5340441
19,10019,Hamzova dětská léčebna,,,,,,,,,,,49.8894985,16.0309868
20,10020,Hornická nemocnice s poliklinikou,,,,,,,,,,,50.5409057,13.7827606
21,10021,Horní areál Nemocnice České Budějovice,,,,,,,,,,,48.9614081,14.4702966
22,10022,Hospic,,,,,,,,,,,49.6286189,17.3383759
23,10023,IKEM,,,,,,,,,,,50.0234508,14.4661331
24,10024,IV. Poliklinika,,,,,,,,,,,49.755016999999995,13.416383900000001
25,10025,Informace,,,,,,,,,,,49.4752958,17.0874385
26,10026,Institut onkologie a rehabilitace Na Pleši,,,,,,,,,,,49.8337334,14.2894049
27,10027,Interna,,,,,,,,,,,49.882362,16.8631438
28,10028,Jesenická nemocnice,,,,,,,,,,,50.2279077,17.195873499999998
29,10029,Karlovarská krajská nemocnice a.s.,,,,,,,,,,,50.233856700000004,12.873968199999998
30,10030,Klaudiánova nemocnice,,,,,,,,,yes,,50.4186549,14.910521300000001
31,10031,Krajská nemocnice Liberec,,,,,,,,,,,50.7706674,15.063747699999999
32,10032,Krajská nemocnice Tomáše Bati,,,,,,,,,,,49.2286815,17.6934465
33,10033,Krankenhaus Varnsdorf,,,,,,,,,,,50.8936783,14.6100893
34,10034,LDN,,,,,,,,,,,50.5243566,14.981426999999998
35,10035,LDN,,,,,,,,,,,49.882175200000006,16.8627143
36,10036,LRS Chvaly,,,,,,,,,,,50.1084629,14.591394199999998
37,10037,Lečební ústav Červená Voda,,,,,,+420 465 626 321,,,,,50.0435679,16.735530400000002
38,10038,Litomyšlská nemocnice,,,,,,+420 461 655 111,,,,,49.8650749,16.3120361
39,10039,Lužická nemocnice Rumburk,,,,,,,,,,,50.948918299999995,14.545531299999999
40,10040,Léčebna TRN Janov,U léčebny,,,,,+420 371 512 111,,,,,49.7048777,13.6644218
41,10041,Léčebna dlouhodobě nemocných,,,,,,,,,,,49.8188843,18.351539399999997
42,10042,Léčebna pro dlouhodobě nemocné,,,,,,,,,,,49.1814112,16.5858252
43,10043,Léčebna respiračních chorob pro dospělé,,,,,,,,,,,50.790110799999994,14.617851199999999
44,10044,Masarykova městská nemocnice,,,,,,,,,,,50.613079299999995,15.4992293
45,10045,Masarykova nemocnice,,,,,,,,,,,50.678229200000004,14.0264981
46,10046,Masarykova nemocnice,,,,,,,,,,,50.5607969,15.9185065
47,10047,Masarykova nemocnice,,,,,,,,,,,50.1090176,13.7146089
48,10048,Masarykovo sanatorium,,,,,,,,,,,49.78985170000001,14.152698000000001
49,10049,Mulačova nemocnice,,,,,,,,,,,49.727510200000005,13.369685999999998
50,10050,Městská nemocnice Ostrava Fifejdy,,,,,,,,,,,49.8347221,18.272856100000002
51,10051,"Městská nemocnice s poliklinikou Uh. Brod, s.r.o.",Partyzánů,,,,,,,,yes,,49.02897120000001,17.6533259
52,10052,Městská nemocnice Čáslav,,,,,,,,,yes,,49.9032537,15.401453899999998
53,10053,Městská poliklinika Slovany,Francouzská třída,,,,,+420 378 014 111,,,,,49.7310253,13.400727800000002
54,10054,Nemocnice,,,,,,,,,,,49.6918981,14.009097800000001
55,10055,Nemocnice,,,,,,,,,,,50.0719765,14.8502878
56,10056,Nemocnice Boskovice,,,,,,,,,,,49.49164520000001,16.6433953
57,10057,Nemocnice Brandýs nad Labem,,,,,,,,,,,50.1870451,14.6514864
58,10058,Nemocnice Bílovec,,,,,,,,,,,49.7642479,18.0164834
59,10059,Nemocnice Břeclav p.o.,,,,,,,,,,,48.7514291,16.8817671
60,10060,Nemocnice Cheb,,,,,,,,,,,50.0692705,12.363178900000001
61,10061,Nemocnice Chomutov,,,,,,,,,,,50.453774100000004,13.406480800000002
62,10062,Nemocnice Děčín,,,,,,,,,,,50.782775,14.2249729
63,10063,Nemocnice Frýdek-Místek,,,,,,,,,,,49.690918200000006,18.3565468
64,10064,Nemocnice Hořovice,,,,,,,,,,,49.8403843,13.913674800000003
65,10065,Nemocnice Hranice,,,,,,,,,,,49.5548959,17.7438825
66,10066,Nemocnice Hustopeče p.o.,,,,,,,,,,,48.94561029999999,16.7301701
67,10067,Nemocnice Ivančice,Široká,,,,,,,,yes,,49.1018213,16.3714762
68,10068,Nemocnice Jihlava,,,,,,,,,yes,,49.3988566,15.570136100000001
69,10069,Nemocnice Klatovy,,,,,,,,,,,49.4045239,13.2919049
70,10070,Nemocnice Kutná Hora,,,,,,,,,yes,,49.9469531,15.2511758
71,10071,Nemocnice Kyjov,,,,,,,,,yes,,49.0104209,17.1096008
72,10072,Nemocnice Mariánské Lázně,,,,,,,,,,,49.9602198,12.7043505
73,10073,Nemocnice Milosrdných bratří,,,,,,,,,,,49.2191713,17.8502021
74,10074,Nemocnice Milosrdných bratří,,,,,,+420 532 299 111,,,yes,,49.185039,16.5953946
75,10075,Nemocnice Milosrdných bratří Letovice,,,,,,,,,,,49.544836600000004,16.579072500000002
76,10076,Nemocnice Most,,,,,,,,,yes,,50.50882429999999,13.623266899999999
77,10077,Nemocnice Mělník,,,,,,,,,yes,,50.3476392,14.4831661
78,10078,Nemocnice Na Bulovce,,,,,,,,,yes,,50.115567600000006,14.4646655
79,10079,Nemocnice Na Homolce,,,,,,,,,,,50.0736721,14.3527297
80,10080,Nemocnice Na Strahově,Šermířská,,,,,+420 225 003 111,,,no,,50.0792136,14.391183300000002
81,10081,Nemocnice Nový Bydžov,,,,,,,,,,,50.2441356,15.4804126
82,10082,Nemocnice Nový Jičín,,,,,,,,,,,49.5886731,18.0073401
83,10083,Nemocnice Nymburk,,,,,,,,,yes,,50.1876453,15.036304199999998
84,10084,Nemocnice Odry,,,,,,,,,,,49.66538370000001,17.8284277
85,10085,Nemocnice Pelhřimov,,,,,,,,,,,49.433030200000005,15.2285851
86,10086,"Nemocnice Podlesí, a.s.",,,,,,,,,,,49.681674900000004,18.6406928
87,10087,Nemocnice Prachatice,,,,,,,,,,,49.008426,14.0099671
88,10088,Nemocnice Prostějov,,,,,,,,,yes,,49.4773831,17.0832354
89,10089,"Nemocnice Písek, a.s.",,,,,,,,,,,49.3010675,14.1548704
90,10090,Nemocnice Přerov,,,,,,,,,yes,,49.4576644,17.4764317
91,10091,Nemocnice Rokycany,,,,,,,,,yes,,49.7472337,13.604094400000001
92,10092,Nemocnice Rudolfa a Stefanie Benešov,,,,,,,,,yes,,49.78748579999999,14.6822282
93,10093,Nemocnice Sedlčany,Tyršova,,,,,,,,,,49.6586197,14.425792900000001
94,10094,Nemocnice Semily,,,,,,,,,,,50.5977294,15.351685
95,10095,Nemocnice Slaný,,,,,,,,,,,50.2352308,14.0854517
96,10096,Nemocnice TGM,,,,,,,,,,,48.86416,17.144997500000002
97,10097,Nemocnice Tanvald,,,,,,,,,yes,,50.740269899999994,15.3009296
98,10098,Nemocnice Teplice,,,,,,,,,,,50.6358639,13.808420000000002
99,10099,"Nemocnice Tábor, a.s.",,,,,,,,,yes,,49.4181039,14.6509461
100,10100,Nemocnice Třebíč,,,,,,,,,,,49.2131406,15.888438899999999
101,10101,Nemocnice Třinec,,,,,,,,,,,49.6728078,18.6900448
102,10102,Nemocnice Valtice,,,,,,,,,,,48.7444524,16.7592693
103,10103,Nemocnice Vrchlabí,,,,,,,,,,,50.622927399999995,15.6050718
104,10104,Nemocnice Vsetín,,,,,,,,,,,49.3313526,17.9976375
105,10105,Nemocnice Vysoké Mýto,,,,,,,,,,,49.9552098,16.1507315
106,10106,Nemocnice Vyškov,,,,,,,,,yes,,49.276825200000005,16.982480300000002
107,10107,Nemocnice následné péče,Jana Žižky,,,,,,,,,,50.516411100000006,13.633772800000001
108,10108,Nemocnice následné péče,,,,,,,,,,,50.52775820000001,15.371109900000002
109,10109,Nemocnice následné péče Moravská Třebová,,,,,,,,,,,49.7575601,16.6540855
110,10110,Nemocnice následné péče Svatá Anna,,,,,,+420 374 751 911,,,,,49.8797648,12.7214363
111,10111,Nemocnice s poliklinikou Havířov,,,,,,,,,,,49.7817511,18.440220899999996
112,10112,Nemocnice s poliklinikou Kadaň,,,,,,,,,,,50.390319500000004,13.2688283
113,10113,Nemocnice s poliklinikou Karviná-Ráj pracoviště Orlová,,,,,,,,,yes,,49.8746773,18.433375199999997
114,10114,Nemocnice v Podhájí,,,,,,,,,,,50.9462416,14.541066899999999
115,10115,Nemocnice Česká Lípa,,,,,,,,,yes,,50.6850347,14.5465999
116,10116,Nemocnice Český Krumlov,Na Moráni,,,,,,,,yes,,48.8123869,14.324276199999998
117,10117,Nemocnice Český Těšín,,,,,,,,,,,49.7449126,18.608825699999997
118,10118,Nemocnice Žatec,,,,,,,,,,,50.31937979999999,13.537773800000002
119,10119,Neurologická klinika 1. lékařské fakulty Univerzity Karlovy a Všeobecné fakultní nemocnice,,,,,,+420 224 961 111,,,,,50.073681,14.425182999999999
120,10120,Oblastní nemocnice,,,,,,,,,yes,,50.142728000000005,14.088958100000001
121,10121,Oblastní nemocnice Náchod,,,,,,,,,,,50.4106109,16.165424800000004
122,10122,Oblastní nemocnice Náchod - Nemocnice Jaroměř,,,,,,,,,,,50.3586233,15.9054005
123,10123,Odborný léčebný ústav Jevíčko - Sanatorium,,,,,,,,,no,,49.633926200000005,16.673155100000002
124,10124,Odborný léčebný ústav Paseka o.p.,,,,,,,,,no,,49.8086133,17.2265813
125,10125,Olivova dětská léčebna,,,,,,,,,,,49.9890298,14.690958199999999
126,10126,Orlickoústecká Nemocnice,,,,,,+420465710111,,,,,49.970984,16.404498999999998
127,10127,Oční klinika Gemini,,,,,,,,,,,49.2207177,17.7065576
128,10128,Panochova nemocnice Turnov,,,,,,,,,yes,,50.589099700000006,15.167898800000001
129,10129,Pardubická krajská nemocnice,Kyjevská,,,,,,,,yes,,50.0293531,15.790186800000003
130,10130,Plicní oddělení,,,,,,,,,,,49.4750489,17.0883917
131,10131,Podhorská nemocnice a.s.,,,,,,,,,,,49.93212,17.2616785
132,10132,Podřipská nemocnice s poliklinikou,,,,,,,,,,,50.4233391,14.247341500000001
133,10133,Pohotovost,,,,,,,,,,,49.475313799999995,17.0866427
134,10134,Poliklinika Kaplice,,,,,,,,,,,48.739665,14.4875536
135,10135,Poliklinika Modřany,,,,,,,,,,,50.0060555,14.4142642
136,10136,Poliklinika Moravské Budějovice,,,,,,,,,yes,,49.0529552,15.807063199999998
137,10137,Poliklinika Moravské Budějovice - budova 2,,,,,,,,,yes,,49.0529624,15.8070255
138,10138,Poliklinika Plzeň,,,,,,,,,,,49.745732000000004,13.3928704
139,10139,Poliklinika Therapon,,,,,,,,,,,49.595616,18.1456901
140,10140,Poliklinika Vltavínská,Vltavínská,,,,,,,,no,,49.203850200000005,15.878638800000001
141,10141,Porodnice Náchod,,,,,,,,,,,50.4062794,16.165787599999998
142,10142,Porodnice Obilní trh,,,,,,,,,,,49.1986284,16.5970307
143,10143,Psychiatrická klinika,,,,,,,,,,,50.0717664,14.4255199
144,10144,Psychiatrická léčebna Petrohrad,,,,,,,,,,,50.1262653,13.442260699999999
145,10145,Psychiatrická nemocnice,,,,,,,,,,,49.6107005,15.5676334
146,10146,Psychiatrická nemocnice,,,,,,,,,,,49.6468361,13.283409599999999
147,10147,Psychiatrická nemocnice Bohnice,,,,,,,,,no,,50.1355084,14.4160612
148,10148,Psychiatrická nemocnice Brno,,,,,,+420 548 123 111,,,,,49.1821881,16.641981
149,10149,Psychiatrická nemocnice Jihlava,Brněnská,,,,,567552123,,,,,49.397124,15.603981400000002
150,10150,Psychiatrická nemocnice Kosmonosy,,,,,,,,,,,50.4427059,14.9267844
151,10151,"Psychiatrická nemocnice Kosmonosy, pracoviště Sadská",Lázeňská,,,,,+420325594473,,,,,50.1524449,14.982177199999999
152,10152,RZS Vlčice,,,,,,,,,,,49.569616100000005,13.543157500000001
153,10153,Rehabilitační Nemocnice Beroun,,,,,,,,,,,49.9638254,14.0957245
154,10154,Rehabilitační ústav,,,,,,,,,,,50.0040164,16.2803815
155,10155,Rehabilitační ústav Hrabyně. Pracoviště Chuchelná,Komenského,,,,,+420 553 683 300,,,,,49.988984,18.1161453
156,10156,Sanatorium Jablunkov,,,,,,,,,,,49.572038899999995,18.757436300000002
157,10157,Sanus,,,,,,,,,no,,50.2037354,15.8230611
158,10158,Senior centrum Přepychy,,,,,,,,,,,50.233712100000005,16.1073751
159,10159,Slezská nemocnice v Opavě,,,,,,,,,yes,,49.9359221,17.881031
160,10160,Stará fakultní nemocnice,,,,,,,,,,,50.2080897,15.841056699999998
161,10161,"Svitavská nemocnice, a.s.",,,,,,,,,,,49.753719,16.4701314
162,10162,Swiss Medic Clinic,,,,,,,,,,,49.869742200000005,12.7492949
163,10163,Thomayerova nemocnice,,,,,,,,,,,50.0235183,14.460904800000002
164,10164,Trans Hospital (pohotovost),,,,,,,,,,,49.9113888,14.2384505
165,10165,Uherskohradišťská nemocnice a.s.,,,,,,,,,yes,,49.064686,17.4553953
166,10166,Uhličité koupele,,,,,,,,,,,50.890347999999996,15.189614
167,10167,Urologická klinika,,,,,,,,,,,50.071666,14.428111800000002
168,10168,V nemocnici,,,,,,,,,,,49.266646200000004,13.908500699999998
169,10169,Vojenská nemocnice,,,,,,,,,,,49.2017089,16.6313798
170,10170,Vojenská nemocnice - chirurgie,,,,,,,,,yes,,49.5988889,17.2711466
171,10171,Vysokomýtská nemocnice,,,,,,,,,,,49.955353,16.151838
172,10172,Vítkovická nemocnice,,,,,,,,,,,49.815264,18.2681858
173,10173,Zdravotní středisko,,,,,,,,,,,49.035554,16.591689300000002
174,10174,"Záchranná služba Plzeňského kraje, Výjezdové stanoviště Plzeň sever",,,,,,,,,yes,,49.766281299999996,13.3720388
175,10175,nemocnice Atlas,,,,,,,,,,,49.22282070000001,17.657075199999998
176,10176,psychiatrická léčebna,,,,,,,,,,,50.3610065,14.348183800000001
177,10177,zdravotní středisko,,,,,,,,,,,50.043983399999995,17.589335199999997
178,10178,Úrazová nemocnice v Brně,,,,,,+420 545 538 111,,,,,49.1979708,16.615112
179,10179,Ústav chirurgie ruky a plastické chirurgie Vysoké nad Jizerou,,,,,,+420481350905,,,yes,,50.6828414,15.4031923
180,10180,Ústav hematologie a krevní transfuze,,,,,,,,,,,50.075369099999996,14.420775099999998
181,10181,Ústav pro péči o matku a dítě Podolí,,,,,,,,,,,50.0615624,14.419543099999999
182,10182,Ústav sociální péče Ráby,,,,,,,,,,,50.0712578,15.8035883
183,10183,Územní zdravotnická záchranná služba Karlovarského kraje,Závodní,,,,,,,,yes,,50.2210586,12.825288
184,10184,Šumperská nemocnice,,,,,,,,,,,49.957182700000004,16.9621371
