,id,name,address,city,state,zip,county,phone,type,ownership,emergency,quality,LAT,LON
0,10000,Aita Menni ospitalea,,,,,,,,,,,43.063131899999995,-2.5290782000000003
1,10001,Almacén General,,,,,,,,,,,37.930562200000004,-1.1636973999999998
2,10002,Ambulatorio Vallobin,,,,,,,,,yes,,43.368742600000004,-5.8660012
3,10003,Ambulatorio de La Lila,Calle la Lila,,,,,+34 985 10 89 00,,,,,43.364775200000004,-5.8479925999999995
4,10004,Ambulatorio de La Luz,,,,,,,,,,,43.540857,-5.908407700000001
5,10005,Ambulatorio de Nueva Andalucia.,,,,,,,,,,,36.50117589999999,-4.974891400000001
6,10006,Ambulatorio de la luisiana,,,,,,,,,,,37.5268029,-5.2460505
7,10007,Anatomía Patológica,,,,,,,,,,,37.9337437,-1.1618989
8,10008,Antiguo Hospital Militar,,,,,,,,,,,37.3465475,-5.9721625
9,10009,Antiguo Hospital del Carmen,,,,,,,,,,,38.9908042,-3.9345187999999993
10,10010,Antiguo centro de salud,,,,,,,,,,,38.1685234,-3.0061717999999997
11,10011,Asepeyo,,,,,,,,,,,40.4366899,-3.6772779000000004
12,10012,Asepeyo,,,,,,,,,,,41.4904369,2.0783926
13,10013,Asunción klinika,,,,,,,,,,,43.1407953,-2.0691858
14,10014,Barbarela,,,,,,,,,,,36.7122694,-4.4458660000000005
15,10015,Basurtoko Ospitalea,,,,,,,,,,,43.259892799999996,-2.9525313
16,10016,Benito Menni,,,,,,,,,,,43.1445761,-1.5271273
17,10017,Bermeoko Ospitale Psikiatrikoa,,,,,,,,,,,43.4221235,-2.7210011
18,10018,Bloque Técnico,,,,,,,,,,,37.9314287,-1.1631718
19,10019,Bola Azul,,,,,,,,,,,36.8483304,-2.4517331
20,10020,C.A.E. Galdar,,,,,,,,,,,28.1439543,-15.6540197
21,10021,C.A.R.P.A.,Calle Obispo Lepe,,,,,+34 941 298000,,,,,42.4624656,-2.4305597000000003
22,10022,CAP - Ambulatori,Plaça Lluís Companys,,,,,+34 93 637 11 12,,,,,41.33725379999999,1.9956398999999998
23,10023,CAP ARENYS DE MUNT,Carrer Verge del Remei,,,,,+34 93 795 02 41,,,yes,,41.6100409,2.5386195
24,10024,CENTRO DE SALUD,,,,,,,,,,,28.235424300000002,-16.439522099999998
25,10025,CHARE,,,,,,,,,yes,,37.3987301,-4.751975700000001
26,10026,CM San José Norte,Calle Santuario de Cabañas,,,,,,,,,,41.6425469,-0.870712
27,10027,CME San José,Calle de Luis Aula,,,,,,,,no,,41.6383249,-0.8725209999999999
28,10028,CS Finca España,,,,,,,,,,,28.4727826,-16.300627
29,10029,Cap Roda de Bara,,,,,,,,,,,41.1843646,1.453057
30,10030,Capilla,,,,,,,,,,,43.4557361,-3.8312839999999997
31,10031,Capio Clideba,Calle Eladio Salinero Santos,,,,,,,,,,38.8713932,-6.9906061
32,10032,Capio Hospital Universitari Sagrat Cor,Carrer de Viladomat,,,,,,,,,,41.388633500000005,2.1458195
33,10033,Central Térmica,,,,,,,,,,,37.9312783,-1.1615356000000001
34,10034,Centre d'Atenció Primària (CAP),,,,,,,,,,,41.5463393,2.2684632999999996
35,10035,Centre de Salut Sant Jordi,,,,,,,,,no,,38.893023,1.3963807
36,10036,Centro Ambulatorio de Especialidades Prudencio Guzmán,Avenida Alcalde Díaz Saavedra Navarro,,,,,,,,no,,28.0963757,-15.4128054
37,10037,Centro Hospitalario Benito Menni,,,,,,,,,,,41.627236700000005,-4.7235054000000005
38,10038,Centro Hospitalario Padre Menni,,,,,,,,,,,43.4764422,-3.8029466
39,10039,Centro Materno Infantil Nosa Sra. de Belén,Rúa Filantropía,,,,,,,,yes,,43.365637799999995,-8.4148806
40,10040,Centro Médico,,,,,,,,,,,40.3827062,-3.4110822
41,10041,Centro Médico,,,,,,,,,no,,28.374360499999998,-16.8520213
42,10042,Centro Médico,,,,,,,,,,,28.365825399999995,-16.816511600000002
43,10043,Centro Médico Virgen de la Caridad,,,,,,,,,,,37.6154596,-0.9882822
44,10044,Centro Médico de La Matanza de Acentejo,,,,,,+34 922 57 90 16,,,,,28.453037800000004,-16.4540703
45,10045,Centro Psiquiatrico Zamudio,,,,,,,,,,,43.2909083,-2.8542002999999996
46,10046,Centro Salud Camargo Costa,,,,,,,,,,,43.4214658,-3.8416742
47,10047,Centro Salud Valtierra,,,,,,,,,,,42.1957516,-1.6308483
48,10048,Centro San Juan de Dios,,,,,,,,,,,40.1598718,-3.6121587999999996
49,10049,Centro San Rafael,,,,,,,,,,,38.3907015,-0.44289399999999995
50,10050,Centro Sociosanitario 'Cristo de los Mineros',,,,,,,,,,,37.6382901,-0.9055350000000001
51,10051,Centro de Alta Resolución,Plaza del Molinillo,,,,,,,,yes,,39.454629100000005,-5.8826599
52,10052,Centro de Atención a Minusválidos Físicos,,,,,,,,,,,38.3792562,-4.8406874
53,10053,Centro de Consultas Externas,,,,,,,,,,,37.18958,-3.6091703
54,10054,Centro de Cuidados paliativos Laguna,,,,,,,,,,,40.4008055,-3.7477513
55,10055,Centro de Día Renedo,,,,,,,,,,,43.3516495,-3.9509095000000003
56,10056,Centro de Especialidades Avenida de Portugal.,,,,,,,,,,,40.4109963,-3.7382376000000006
57,10057,Centro de Especialidades Coronel de Palma,,,,,,,,,no,,40.3188602,-3.8717183
58,10058,Centro de Especialidades Zaídin,,,,,,,,,yes,,37.1610753,-3.5997961000000003
59,10059,Centro de Especialidades de Peñagrande.,,,,,,,,,,,40.4748814,-3.7251019
60,10060,Centro de Especialidades de Torrijos,Camino Torrijos,,,,,,,,no,,39.9896783,-4.2784727
61,10061,"Centro de Investigación de Medicina Aeroespacial, Ejército del Aire",Calle de Arturo Soria,,,,,,,,,,40.4445398,-3.6429257000000006
62,10062,Centro de Parálisis Cerebral Infanta Elena,,,,,,,,,,,38.4150257,-0.4150092000000001
63,10063,Centro de Protonterapia de Quirónsalud,,,,,,+34 914 52 19 00,,,,,40.3975088,-3.790568
64,10064,Centro de Recuperación y Rehabilitación de Levante,,,,,,,,,,,39.553574499999996,-0.4798651
65,10065,Centro de Rehabilitación Psicosocial Santo Cristo de los Milagros,,,,,,,,,,,42.15075770000001,-0.41355820000000004
66,10066,Centro de Rehabilitación San Juan de Dios,,,,,,,,,,,40.345609,-1.1133016000000002
67,10067,Centro de Rehabilitación de Salud Mental de Cartagena,,,,,,,,,,,37.6108186,-0.9770129999999999
68,10068,Centro de Salud,Calle Plaza de Abajo,,,,,+34 949350676,,,yes,,40.4824495,-2.7325146
69,10069,"Centro de Salud ""La Chopera""",,,,,,,,,,,40.540793900000004,-3.6399595000000002
70,10070,"Centro de Salud ""Montijo-Puebla de la Calzada""",Avenida Puebla de la Calzada,,,,,,,,,,38.901047399999996,-6.6213396
71,10071,"Centro de Salud ""Rosa Luxemburgo""",,,,,,,,,,,40.5592664,-3.6325043
72,10072,Centro de Salud Adeje,,,,,,,,,yes,,28.118382399999998,-16.7271976
73,10073,Centro de Salud Aldea Moret,,,,,,,,,,,39.4514011,-6.3889596
74,10074,Centro de Salud Antiguo,Avenida Aragón,,,,,,,,,,41.0459843,-0.12968
75,10075,Centro de Salud Arroyo de la Vega,,,,,,,,,,,40.538069,-3.6316019999999996
76,10076,Centro de Salud Barrio de la Salud,,,,,,,,,yes,,28.4668162,-16.2699171
77,10077,Centro de Salud Dos de Mayo,,,,,,,,,no,,40.3188402,-3.8719864999999998
78,10078,Centro de Salud El Greco,,,,,,,,,,,40.298743200000004,-3.7373397000000006
79,10079,Centro de Salud Fronteras,,,,,,,,,,,40.458865100000004,-3.4837169
80,10080,Centro de Salud Guía de Isora,,,,,,,,,,,28.214186600000005,-16.781154100000002
81,10081,Centro de Salud Güímar,,,,,,,,,,,28.3169103,-16.4065608
82,10082,Centro de Salud La Condesa,Paseo Condesa de Sagasta,,,,,,,,,,42.5993875,-5.580319
83,10083,Centro de Salud La Isleta,,,,,,,,,yes,,28.1487683,-15.423967300000001
84,10084,Centro de Salud La Paz,Avenida del Parque de Asturias,,,,,+34 91 666 17 11,,,,,40.3646881,-3.5494017999999996
85,10085,Centro de Salud Las Ciudades,,,,,,,,,yes,,40.314801700000004,-3.7143714
86,10086,Centro de Salud Las Dehesas,,,,,,,,,,,28.394436,-16.5134568
87,10087,Centro de Salud Las Mercedes,,,,,,,,,,,28.4938647,-16.314050199999997
88,10088,Centro de Salud Loranca-Nuevos Versalles,,,,,,,,,no,,40.29772620000001,-3.8367203
89,10089,Centro de Salud Los Gladiolos,,,,,,,,,,,28.460205100000003,-16.2678929
90,10090,Centro de Salud Majadahonda,,,,,,,,,,,40.4763345,-3.867728
91,10091,Centro de Salud Marqués de la Valdavia,,,,,,,,,,,40.545035600000006,-3.645739
92,10092,Centro de Salud Mediterráneo - Torrecárdenas,,,,,,,,,,,36.8574163,-2.4460653
93,10093,Centro de Salud Mejorada del Campo,Calle de la Ciudad de París,,,,,,,,,,40.3967162,-3.4824897000000004
94,10094,Centro de Salud Miguel Servet,,,,,,,,,no,,40.347999200000004,-3.8335006000000003
95,10095,Centro de Salud Mina del Morro,,,,,,,,,,,43.2500443,-2.917769
96,10096,Centro de Salud Miraflores,,,,,,,,,,,40.5476247,-3.6375104
97,10097,Centro de Salud Nuevo,Calle Andrés Vives,,,,,,,,,,41.04557570000001,-0.12822750000000002
98,10098,Centro de Salud Ofra Delicias-Miramar,,,,,,,,,,,28.454545,-16.2838673
99,10099,Centro de Salud San Antonio,Calle Juan Solano Pedrero,,,,,,,,,,39.4558864,-6.3775839
100,10100,Centro de Salud San Juan de la Cruz,Calle San Juan de la Cruz,,,,,+34 913 52 47 47,,,,,40.43075220000001,-3.8149394
101,10101,Centro de Salud San Sebastián de la Gomera,,,,,,,,,,,28.1019376,-17.1231021
102,10102,Centro de Salud Sardinero,Calle del Alcalde Vega Lamera,,,,,+34 942 39 30 06,,,,,43.477444899999995,-3.7947632000000007
103,10103,Centro de Salud Sánchez Morate,,,,,,,,,no,,40.3133638,-3.7228993999999997
104,10104,Centro de Salud Valencia de Alcántara,Calle Extremadura,,,,,+34 927 580 295,,,,,39.40802120000001,-7.2433031
105,10105,Centro de Salud de Benijófar,,,,,,,,,,,38.0785558,-0.7368073
106,10106,Centro de Salud de Firgas,,,,,,,,,,,28.108319800000004,-15.5628129
107,10107,Centro de Salud de Guanarteme,,,,,,,,,yes,,28.127090600000002,-15.4410807
108,10108,Centro de Salud de Mislata,,,,,,,,,,,39.478471299999995,-0.41535340000000004
109,10109,Centro de Salud de Nuñomoral,Avenida Castilla Y León,,,,,,,,,,40.4062803,-6.248059
110,10110,Centro de Salud de Paracuellos de Jarama,,,,,,,,,access_point,,40.50661229999999,-3.5324188999999997
111,10111,Centro de Salud de Polientes,Calle Los Marineros,,,,,+34 942 770 545,,,no,,42.8051924,-3.9445994
112,10112,Centro de Salud de Serranillos del Valle,,,,,,,,,,,40.2046316,-3.8808617999999995
113,10113,Centro de Salud de Tejeda,,,,,,,,,,,27.998059100000003,-15.614740099999999
114,10114,Centro de Salud de Torrejón de Velasco,Calle del Hospital,,,,,,,,,,40.187105100000004,-3.7801824
115,10115,Centro de Salud de Triana,Calle Don Bernardino Correa Viera,,,,,,,,no,,28.101774100000004,-15.418289499999998
116,10116,Centro de Salud de Valterra,,,,,,,,,,,28.966391100000003,-13.5451228
117,10117,Centro de especialidades,Severo Ochoa,,,,,,,,yes,,39.0645715,-3.6155717000000003
118,10118,Centro de salud,Avenida del Barco,,,,,,,,yes,,38.0428518,-4.1730251
119,10119,Centro de salud,,,,,,,,,,,38.9893901,-4.945786599999999
120,10120,Centro de salud La Veredilla,,,,,,,,,no,,40.465082200000005,-3.4735745000000002
121,10121,Centro de salud Playa de Arinaga,,,,,,,,,yes,,27.8595131,-15.393569199999998
122,10122,Centro de salud de Nerva,,,,,,+34 959598531,,,,,37.6912793,-6.5392788
123,10123,Centro médico,Calle Ramón y Cajal,,,,,,,,no,,42.308960799999994,-1.8968634999999998
124,10124,Centro neuropsiquiatrico Nuestra señora del Carmen,,,,,,,,,,,41.678457,-0.9860394
125,10125,Ceram,,,,,,,,,,,36.5168816,-4.896959
126,10126,Cibir,,,,,,,,,,,42.4515818,-2.4251727
127,10127,Ciudad Sanitaria La Paz.,,,,,,,,,yes,,40.4824744,-3.6885105000000005
128,10128,Ciudad de la Salud y la Innovación,,,,,,,,,,,39.477600200000005,-6.329818700000001
129,10129,Clinica HLA Belén,,,,,,+34 968233500,,,,,37.99838629999999,-1.1308183
130,10130,Clinica del Pilar,,,,,,,,,,,43.3184331,-1.9583521000000002
131,10131,Cliníca Sagrada Família,Carrer de Torras i Pujalt,,,,,,,,,,41.40093710000001,2.1346003
132,10132,Clínica,,,,,,,,,,,40.05604829999999,-0.8324879999999999
133,10133,Clínica Asepeyo,,,,,,,,,yes,,40.4367453,-3.5320201
134,10134,Clínica Asturias,Calle Naranjo de Bulnes,,,,,+34 985 28 60 00,,,,,43.3676723,-5.8560677000000005
135,10135,Clínica Cemtro,,,,,,,,,,,40.494568799999996,-3.7166778
136,10136,Clínica Dam,Calle del Marques de Jura Real,,,,,+34 914 60 80 00,,,,,40.392943700000004,-3.7093314
137,10137,Clínica Diagonal,,,,,,,,,yes,,41.3786157,2.0970560000000003
138,10138,Clínica Fuensanta,Calle de Arturo Soria,,,,,,,,,,40.4400903,-3.6406985
139,10139,Clínica Juaneda,,,,,,,,,,,39.5763838,2.6277112000000002
140,10140,Clínica La Inmaculada,,,,,,,,,yes,,37.1639549,-3.6075349
141,10141,Clínica López Ibor,,,,,,,,,,,40.467836,-3.7243314
142,10142,Clínica MAZ,,,,,,,,,,,40.4346299,-3.6299562000000005
143,10143,Clínica Montpellier,,,,,,,,,,,41.636224,-0.9137069999999999
144,10144,Clínica Nostra Senyora del Remei,,,,,,,,,,,41.4093371,2.159912
145,10145,Clínica Parque,,,,,,,,,,,28.4702048,-16.2536813
146,10146,Clínica Perpetuo Socorro,,,,,,,,,,,38.3524766,-0.4765318
147,10147,Clínica Ponferrada,Avenida de Galicia,,,,,,,,,,42.5539323,-6.6116437
148,10148,Clínica Quirón Valencia,,,,,,,,,,,39.478216100000004,-0.3644135
149,10149,Clínica Quirúrgica Cacereña San Francisco,,,,,,+34 927 01 22 40,,,,,39.4689859,-6.368629599999999
150,10150,Clínica Rotger,,,,,,,,,,,39.5753611,2.6474142000000005
151,10151,Clínica Ruber Internacional,,,,,,,,,,,40.490218299999995,-3.7160737
152,10152,Clínica Ruber Juan Bravo,,,,,,+34 910 68 79 99,,,,,40.4326489,-3.6765046000000003
153,10153,Clínica Salus Infirmorum,Passeig de Mossèn Lluís Constans,,,,,,,,,,42.1147898,2.7610995
154,10154,Clínica San Miguel,Calle de Beloso Alto,,,,,,,,,,42.8189304,-1.6212955
155,10155,Clínica San Miguel (Hermanas Hospitalarias),Calle de Arturo Soria,,,,,,,,,,40.460346200000004,-3.6595047
156,10156,Clínica Sant Josep,,,,,,,,,,,41.72269420000001,1.831739
157,10157,Clínica Santa Elena,,,,,,,,,yes,,36.6462076,-4.4882498
158,10158,Clínica Santa Elena,Calle de la Granja,,,,,,,,,,40.4456886,-3.7166045
159,10159,Clínica Teknon,,,,,,,,,yes,,41.405116299999996,2.1276667999999996
160,10160,Clínica Universidad de Navarra,Avenida Pío XII,,,,,,,,yes,,42.804951700000004,-1.6634949
161,10161,Clínica Virgen Blanca,,,,,,,,,,,43.2585412,-2.9156014
162,10162,Clínica Vistahermosa,,,,,,,,,,,38.362888399999996,-0.4639782
163,10163,Clínica Vía de la Plata,,,,,,,,,,,38.4269255,-6.4082704
164,10164,Clínica del Pilar,Carrer de Balmes,,,,,+34 93 236 05 00,,,,,41.3997489,2.1482576
165,10165,Clínica el Ángel,Calle del Corregidor Nicolás Isidro,,,,,+34 952045000,,,,,36.715594,-4.4536753
166,10166,Complejo Asistencial Benito Menni,,,,,,,,,,,40.155325399999995,-3.6183754999999995
167,10167,Complejo Asistencial Universitario de León,,,,,,,,,yes,,42.61998010000001,-5.574308900000001
168,10168,Complejo Asistencial de Segovia,,,,,,,,,yes,,40.9424948,-4.1305351
169,10169,Complejo Hopitaliario Provincial de Toledo,,,,,,,,,yes,,39.8612803,-4.0144969
170,10170,Complejo Hospitalario Ciudad de Jaén,,,,,,,,,,,37.776558,-3.7917263
171,10171,Complejo Hospitalario Integral Privado,Avenida Carlos de Haya,,,,,,,,,,36.7230914,-4.4543517999999995
172,10172,Complejo Hospitalario Perpetuo Socorro - Materno Infantil,,,,,,,,,,,38.8671278,-6.9728958
173,10173,Complejo Hospitalario Quirón Bizkaia,,,,,,,,,,,43.3295517,-2.9507672
174,10174,Complejo Hospitalario de Navarra,Calle Irunlarrea,,,,,+34 848422222,,,yes,,42.8052635,-1.6728990000000001
175,10175,Complex Assistencial en Salut Mental Benito Menni,,,,,,+34 93 652 99 99,,,,,41.350416700000004,2.0377315
176,10176,Complexo Hospitalario Universitario da Coruña,As Xubias de Arriba,,,,,+34 981 178000,,,yes,,43.3428908,-8.388964300000001
177,10177,Complexo Hospitalario Universitario de Ourense,Rúa Ramón Puga Noguerol,,,,,+34988385500,,,yes,,42.324697,-7.8595439
178,10178,Complexo Hospitalario Universitario de Santiago,Rúa da Choupana,,,,,+34 981950000,,,yes,,42.869999,-8.565157000000001
179,10179,Consorci Mar Parc de Salut de Barcelona,Carrer de Llull,,,,,,,,,,41.4129852,2.2182738
180,10180,Consulterio Medico,,,,,,,,,,,42.4234864,-5.2189283
181,10181,Consultorio,,,,,,,,,,,41.81750770000001,-2.7132276
182,10182,Consultorio,,,,,,,,,,,39.402774799999996,-1.623392
183,10183,Consultorio,,,,,,,,,,,41.4892674,-6.1359045
184,10184,Consultorio Barrio Monachil,,,,,,+34 958 30 07 13,,,,,37.1334299,-3.5584763999999995
185,10185,Consultorio Brena Baja,,,,,,,,,,,28.6458382,-17.767903600000004
186,10186,Consultorio El Tanque,,,,,,,,,,,28.3579728,-16.7741937
187,10187,Consultorio Garachio,,,,,,,,,,,28.3726539,-16.7646217
188,10188,Consultorio Local,,,,,,,,,,,39.133877899999995,-1.6756057
189,10189,Consultorio Local,,,,,,,,,,,39.5963214,-2.6752224
190,10190,Consultorio Local El Bellotar,,,,,,,,,,,38.4733439,-2.5493675
191,10191,Consultorio Local de Tahíche,Calle Benito Pérez Galdós,,,,,,,,no,,29.0147397,-13.5419298
192,10192,Consultorio Médico,Calle de los Donantes de Sangre,,,,,,,,yes,,42.4297975,-2.4592576
193,10193,Consultorio de Panes,La Plaza,,,,,+34 985 414 043,,,yes,,43.322577200000005,-4.584151
194,10194,Consultorio periférico de Ujo,,,,,,,,,,,43.2079937,-5.7912528
195,10195,Cruz Roja,,,,,,,,,yes,,41.281578100000004,-4.681769999999999
196,10196,Cruz Roja,,,,,,,,,lifeguard_base,,38.2547188,-0.5168100999999999
197,10197,Cruz Roja,,,,,,,,,lifeguard_base,,37.20449,-7.028156500000001
198,10198,Cruz Roja,,,,,,,,,,,42.1981154,0.34111579999999997
199,10199,Cruz Roja,,,,,,,,,,,41.4765264,-1.3693008999999998
200,10200,Cruz Roja,,,,,,,,,,,38.1639381,-3.0056187999999997
201,10201,Cruz Roja,,,,,,,,,,,41.545039200000005,2.1159912999999997
202,10202,Cruz Roja,,,,,,,,,,,40.347071899999996,-5.1755402
203,10203,Cruz Roja,,,,,,,,,,,37.880208200000006,-4.7849482000000005
204,10204,Cruz Roja Alagon,,,,,,+34 976656263,,,ambulance_station,,41.7743398,-1.1260208999999999
205,10205,Donostia Unibertsitate Ospitalea,Begiristain doktorearen pasealekua,,,,,,,,,,43.292621999999994,-1.9712596999999998
206,10206,Edificio PET-TAC,,,,,,,,,,,37.9331653,-1.1611021000000001
207,10207,Edificio de Mantenimiento,,,,,,,,,,,37.932103999999995,-1.1612225
208,10208,Eibar Ospitalea,,,,,,,,,,,43.1822147,-2.4828398
209,10209,Equipo General Pozuelo De Alarcón,,,,,,,,,,,40.4460549,-3.8079379999999996
210,10210,Ernest Lluch,,,,,,,,,,,41.3365821,-1.6471639
211,10211,Escuela Universitaria de Enfermería,,,,,,,,,,,43.456315999999994,-3.8312682999999996
212,10212,Espitau Val d'Aran,,,,,,,,,yes,,42.702385299999996,0.7970658
213,10213,FINBA,,,,,,,,,,,43.3744119,-5.828075
214,10214,Facultad de Ciencias de la Salud,,,,,,,,,,,37.930798100000004,-1.1645722
215,10215,Farmacia,Calle Mosén León Andía,,,,,,,,,,40.9870239,0.0846423
216,10216,Fundació Puigvert - Iuna,Carrer de Cartagena,,,,,+34 934 16 97 00,,,,,41.413142,2.172291
217,10217,Fundació sanitaria Sant Pere Claver,,,,,,,,,,,41.373178499999995,2.1733979
218,10218,Fundación Hospital de Avilés,,,,,,,,,yes,,43.554982700000004,-5.9261644
219,10219,Fundación Instituto San José,Calle del Pinar de San José,,,,,,,,,,40.364148799999995,-3.7754027000000003
220,10220,Galdakao-Usansolo ospitalea,,,,,,,,,,,43.2244713,-2.8195895
221,10221,Gerencia de Salud de Área de Valladolid,Calle de Álvarez Taladriz,,,,,,,,no,,41.63763839999999,-4.7366524000000005
222,10222,Gernikako Ospitalea,,,,,,,,,yes,,43.3188882,-2.671891
223,10223,Gernikako Ospitalea,,,,,,,,,,,43.318504299999994,-2.6711066000000003
224,10224,Gerência de servicios sanitarios de Lanzarote,El Varadero,,,,,,,,,,28.866195,-13.8318629
225,10225,Groseko Osasun Zentroa,,,,,,,,,,,43.3254216,-1.9704901999999997
226,10226,Gurutzetako Ospitalea,,,,,,,,,yes,,43.2832627,-2.9838557999999997
227,10227,HCB Calpe Internacional,,,,,,+34 96 607 27 37,,,,,38.64643710000001,0.0439736
228,10228,HM San Francisco,,,,,,+34 987 251012,,,,,42.5902323,-5.572246099999999
229,10229,Hospital,,,,,,,,,,,38.7075745,1.4351314
230,10230,Hospital,,,,,,,,,yes,,40.3334846,-1.1065399
231,10231,"Hospital ""Capio Santa Justa""",,,,,,,,,,,38.973068100000006,-5.7954669999999995
232,10232,"Hospital ""Juan Ramón Jiménez""",Ronda Norte,,,,,,,,yes,,37.280861,-6.9276097000000005
233,10233,"Hospital ""Siberia-Serena""",,,,,,,,,,,39.0308078,-5.2253643
234,10234,Hospital Alta Resolución de Loja,,,,,,,,,,,37.171332299999996,-4.1552795
235,10235,Hospital Alto Guadalquivir,,,,,,,,,,,38.0408348,-4.0323867
236,10236,Hospital Ambulatorio Virgen del Mar,Calle del General López Pozas,,,,,+34 91 353 95 00,,,,,40.46463,-3.6852358
237,10237,Hospital Arnau de Vilanova,Calle San Clemente,,,,,,,,,,39.49152470000001,-0.4031758
238,10238,Hospital Arquitecto Marcide,Avenida Residencia,,,,,+34 981334000,,,yes,,43.5102356,-8.2168375
239,10239,Hospital Beata María Ana,,,,,,,,,,,40.4183115,-3.6669305
240,10240,Hospital Begoña,Avenida de Pablo Iglesias,,,,,,,,,,43.5348119,-5.6479800000000004
241,10241,Hospital Campo Arañuelo,Avenida Hospital,,,,,,,,,,39.888642499999996,-5.5606487
242,10242,Hospital Campoo Los Valles,,,,,,,,,,,43.006671000000004,-4.1321523000000004
243,10243,Hospital Can Misses,,,,,,,,,,,38.9169854,1.4184821
244,10244,Hospital Cardiovascular de San Vicente,,,,,,,,,,,38.4017586,-0.5303559
245,10245,Hospital Carlos III,,,,,,,,,,,40.475421600000004,-3.6973684
246,10246,Hospital Casa Blanca,,,,,,,,,,,41.121399200000006,1.2631856000000001
247,10247,Hospital Casa Maternitat,,,,,,,,,yes,,41.3850391,2.1229266
248,10248,Hospital Central de la Cruz Roja San José y Santa Adela,Avenida de la Reina Victoria,,,,,,,,,,40.447205700000005,-3.7069435
249,10249,Hospital Central de la Defensa Gómez Ulla.,,,,,,,,,,,40.3885363,-3.7447107
250,10250,Hospital Centro Médico Acuario,,,,,,,,,,,38.8230289,-0.0017234000000000001
251,10251,Hospital Ciudad de Coria,,,,,,,,,yes,,39.9903825,-6.542675
252,10252,Hospital Civil,Plaza del Hospital Civil,,,,,,,,,,36.7279442,-4.4345111
253,10253,Hospital Clinic Balear,,,,,,+34 971443030,,,,,39.4906903,2.7402371
254,10254,Hospital Clínic,,,,,,,,,yes,,41.3888263,2.1524099999999997
255,10255,Hospital Clínica Benidorm,Avinguda d'Alfonso Puchades,,,,,+34 965 85 38 50,,,yes,,38.5432766,-0.1293041
256,10256,Hospital Clínico Universitario,Paseo de San Vicente,,,,,+34 923 291 100,,,yes,,40.9640108,-5.6753893
257,10257,Hospital Clínico Universitario Lozano Blesa,,,,,,,,,,,41.6438842,-0.9027808
258,10258,Hospital Clínico Universitario Virgen de la Arrixaca,,,,,,,,,yes,,37.930220399999996,-1.1641351999999998
259,10259,Hospital Clínico Universitario Virgen de la Victoria,,,,,,+34 951 03 20 00,,,yes,,36.71941470000001,-4.4791055
260,10260,Hospital Clínico Universitario de Valladolid,Calle Real de Burgos,,,,,,,,yes,,41.6557982,-4.717103099999999
261,10261,Hospital Comarcal,,,,,,,,,yes,,35.2861272,-2.9482513
262,10262,"Hospital Comarcal ""Valle de los Pedroches""",,,,,,,,,,,38.3833934,-4.850233599999999
263,10263,Hospital Comarcal Del Alto Deba,,,,,,,,,,,43.0628475,-2.4821923
264,10264,Hospital Comarcal Sant Jaume,,,,,,,,,yes,,41.6156937,2.6567306
265,10265,Hospital Comarcal Santiago Apóstol,,,,,,,,,,,42.6689262,-2.9903591
266,10266,Hospital Comarcal Vega Baja,,,,,,,,,yes,,38.0867509,-0.8539921
267,10267,Hospital Comarcal Virgen de las Montañas,,,,,,,,,,,36.8630926,-5.6500144
268,10268,Hospital Comarcal d'Igualada,,,,,,,,,,,41.5894328,1.6202337
269,10269,Hospital Comarcal d'Inca,Camí vell de Llubí,,,,,,,,yes,,39.715383700000004,2.9197168999999996
270,10270,Hospital Comarcal da Barbanza,Lugar Salmón,,,,,+34 981835985,,,yes,,42.594326,-8.9998163
271,10271,Hospital Comarcal de Antequera,Avenida Muñoz Rojas,,,,,+34 951 061 600,,,yes,,37.0298039,-4.5265195
272,10272,Hospital Comarcal de La Axarquía,,,,,,,,,,,36.7511473,-4.0908017
273,10273,Hospital Comarcal de Móra d'Ebre,,,,,,,,,,,41.09505,0.6385736999999999
274,10274,Hospital Comarcal de Sant Antoni Abat,Carrer de Sant Josep,,,,,+34 938931616,,,,,41.2293056,1.7233115
275,10275,Hospital Comarcal de Valdeorras,Avenida Conde de Fenosa,,,,,+34 988339000,,,yes,,42.4172417,-6.9917452
276,10276,Hospital Comarcal de la Línea de la Concepción,,,,,,,,,yes,,36.175058299999996,-5.3542044
277,10277,Hospital Comarcal de la Marina Baixa,,,,,,,,,yes,,38.5307318,-0.19838470000000002
278,10278,Hospital Comarcal de la Merced,,,,,,,,,yes,,37.231435600000005,-5.0956803
279,10279,Hospital Comarcal del Noroeste,,,,,,,,,,,38.1043396,-1.8675686999999999
280,10280,Hospital Comarcal do Salnés,,,,,,+34 986568000,,,yes,,42.574769399999994,-8.725702400000001
281,10281,Hospital Divino Valles,,,,,,,,,,,42.3606981,-3.6919497000000003
282,10282,Hospital Doctor Gálvez,Calle San Agustín,,,,,+24 952224295,,,yes,,36.721095700000006,-4.4194864
283,10283,Hospital Doctor Moliner,,,,,,,,,no,,39.655564899999995,-0.47371369999999996
284,10284,Hospital Don Benito-Villanueva de la Serena,Avenida de las Vegas Altas,,,,,+34 924 38 68 00,,,yes,,38.963747600000005,-5.828177200000001
285,10285,Hospital Doña Blasa. Residencia de Ancianos,,,,,,,,,,,42.0433278,-4.911196599999999
286,10286,Hospital Dr. Josep Trueta,Avinguda de França,,,,,,,,yes,,41.9982129,2.819705
287,10287,Hospital Dr. Rodríguez Lafora (Psiquiátrico),,,,,,,,,,,40.53268920000001,-3.6930275000000004
288,10288,Hospital El Bierzo,,,,,,,,,,,42.5738813,-6.6446671
289,10289,Hospital Febles Campos,,,,,,,,,,,28.4694273,-16.2685366
290,10290,Hospital Fundación Alcorcón.,,,,,,,,,,,40.3514612,-3.8368247
291,10291,Hospital Fundación Jiménez Díaz,,,,,,,,,,,40.4397483,-3.7183897000000004
292,10292,Hospital Fátima,,,,,,,,,,,37.3684559,-5.9880924
293,10293,Hospital García Orcoyen,,,,,,,,,yes,,42.684129,-2.0382588
294,10294,Hospital General,,,,,,,,,yes,,39.4877633,-1.0897333999999999
295,10295,Hospital General,Plaça de l'Hospital,,,,,,,,,,39.574472,2.6464516
296,10296,Hospital General Jose Molina Orosa,,,,,,,,,,,28.975100899999997,-13.5677038
297,10297,Hospital General Santa Ana,Avenida Enrique Martin Cuevas,,,,,+34 958 03 82 00,,,,,36.7556933,-3.5203116000000003
298,10298,Hospital General Universitari,Avenida de las Tres Cruces,,,,,,,,yes,,39.4694036,-0.4064932
299,10299,Hospital General Universitari d'Elx,,,,,,,,,yes,,38.259424100000004,-0.6844712
300,10300,"Hospital General Universitario ""Reina Sofía""",,,,,,,,,yes,,37.9835265,-1.1198153999999998
301,10301,Hospital General Universitario Gregorio Marañón.,,,,,,,,,yes,,40.4182536,-3.6730115
302,10302,Hospital General Universitario Los Arcos del Mar Menor,Paraje Torre Octavio,,,,,,,,yes,,37.8211351,-0.8625417
303,10303,Hospital General Universitario Morales Meseguer,,,,,,,,,,,37.9937884,-1.1295895
304,10304,Hospital General Universitario Santa Lucía,,,,,,,,,yes,,37.600014200000004,-0.9633341999999999
305,10305,Hospital General Universitario Santa Lucía,,,,,,,,,yes,,37.5999169,-0.9622639999999999
306,10306,Hospital General Universitario Santa Lucía - SMS,,,,,,,,,yes,,37.600014200000004,-0.9633341999999999
307,10307,Hospital General Universitario Sta. María del Rosell,,,,,,,,,yes,,37.6090827,-0.9763466999999999
308,10308,Hospital General Universitario de Albacete,,,,,,,,,yes,,38.9861461,-1.8460198
309,10309,Hospital General Universitario de Alicante,,,,,,,,,yes,,38.3641619,-0.48811570000000004
310,10310,Hospital General Vall d'Hebron,,,,,,,,,yes,,41.4271042,2.1420979
311,10311,Hospital General de Almansa,,,,,,,,,,,38.8811782,-1.0949851000000002
312,10312,Hospital General de Barbastro,,,,,,,,,,,42.0340375,0.11060330000000002
313,10313,Hospital General de Baza,Carretera de Murcia,,,,,+34 958 86 31 52,,,yes,,37.5015002,-2.7533949
314,10314,Hospital General de Castellón,,,,,,,,,,,40.004148799999996,-0.0415804
315,10315,Hospital General de Catalunya,,,,,,,,,,,41.4746685,2.0433822
316,10316,Hospital General de Ciudad Real,,,,,,,,,yes,,38.96882960000001,-3.9320852
317,10317,Hospital General de Collado Villalba.,,,,,,,,,,,40.6559039,-4.0005642
318,10318,Hospital General de Elda,,,,,,,,,yes,,38.4941963,-0.8072375
319,10319,Hospital General de La Palma,,,,,,,,,,,28.6717419,-17.789914000000003
320,10320,Hospital General de Ontinyent,,,,,,,,,,,38.8201492,-0.6034705
321,10321,Hospital General de l'Hospitalet,,,,,,,,,yes,,41.3736461,2.1063481
322,10322,Hospital Geriátrico Virgen de la Poveda,,,,,,,,,,,40.2490095,-4.2768802
323,10323,Hospital HLA La Vega,Calle doctor Román Alberca,,,,,+34 968 27 81 00,,,,,37.99262879999999,-1.1337372
324,10324,Hospital HLA Mediterráneo,,,,,,,,,,,36.8206998,-2.4357863999999996
325,10325,Hospital HLA San Carlos,,,,,,+34 965 78 15 50,,,yes,,38.8381615,0.093222
326,10326,Hospital Hestia Balaguer,Carrer Gregori Gallego,,,,,,,,,,41.7894558,0.8196815000000001
327,10327,Hospital Hospiten de Estepona,,,,,,,,,yes,,36.4530586,-5.0851023
328,10328,Hospital IMED Levante,,,,,,,,,,,38.541255299999996,-0.1059458
329,10329,Hospital IMED-Valencia,Avenida de la Ilustración,,,,,+34 963 00 30 03,,,yes,,39.5016118,-0.40845909999999996
330,10330,Hospital Imed Elche,,,,,,+34965503030,,,,,38.2881626,-0.6165778000000001
331,10331,Hospital Infanta Cristina.,,,,,,,,,,,40.2198976,-3.7838388999999997
332,10332,Hospital Infanta Elena,,,,,,,,,,,37.280331,-6.9140811
333,10333,Hospital Infanta Elena.,,,,,,,,,yes,,40.197514399999996,-3.6986235
334,10334,Hospital Infanta Sofía.,,,,,,,,,,,40.5601184,-3.6109742
335,10335,Hospital Infantil San Rafael,,,,,,,,,,,40.452352399999995,-3.6818832
336,10336,Hospital Infantil Universitario del Niño Jesús.,,,,,,,,,,,40.413149,-3.6767293
337,10337,Hospital Insular Nuestra Señora de los Reyes,Calle Los Barriales,,,,,+34-922-553500,,,yes,,27.813664000000003,-17.9163241
338,10338,Hospital Insular de Lanzarote,,,,,,,,,,,28.963581899999998,-13.54425
339,10339,Hospital Internacional Vithas Medimar - II,,,,,,,,,,,38.358510100000004,-0.46564520000000004
340,10340,Hospital Internacional Vithas Medimar I,,,,,,,,,,,38.3587139,-0.4677902
341,10341,Hospital La Inmaculada,Avenida de la Doctora Ana Parra,,,,,,,,yes,,37.4019201,-1.9436087
342,10342,Hospital La Pedrera,Partida Plana Est,,,,,,,,,,38.8294844,0.09532289999999999
343,10343,Hospital Lluís Alcanyís,,,,,,,,,yes,,39.0076068,-0.5091424
344,10344,Hospital Los Montalvos,,,,,,,,,,,40.9289405,-5.7382274
345,10345,Hospital Los Morales,,,,,,+34 957 010 422,,,,,37.934502200000004,-4.8042127
346,10346,Hospital MAZ de Zaragoza,,,,,,,,,,,41.686167700000006,-0.8706296
347,10347,Hospital Madrid - Torrelodones,,,,,,,,,yes,,40.5703659,-3.9261367
348,10348,Hospital Mancha Centro,,,,,,,,,yes,,39.3957828,-3.2205388
349,10349,Hospital Mare de Déu de la Mercè,Passeig Universal,,,,,+34 934 27 52 50,,,yes,,41.4379097,2.1622909
350,10350,Hospital Marina Salud Denia,,,,,,,,,yes,,38.833935,0.0581953
351,10351,Hospital Marítimo de Oza,As Xubias de Arriba,,,,,+34 981 178000,,,no,,43.3460976,-8.384275200000001
352,10352,Hospital Marítimo de Torremolinos,,,,,,+34 951032000,,,,,36.63707470000001,-4.48586
353,10353,Hospital Materno Infantil,,,,,,,,,,,36.729770200000004,-4.4337436
354,10354,Hospital Materno Infantil,Calle La Violeta,,,,,,,,yes,,38.866054299999995,-6.971915400000001
355,10355,Hospital Materno Infantil Teresa Herrera,As Xubias de Abaixo,,,,,+34 981 178000,,,yes,,43.33898,-8.3878796
356,10356,Hospital Materno Infantil Zaragoza,,,,,,,,,,,41.6357968,-0.9000228000000001
357,10357,Hospital Materno-Infantil,,,,,,,,,,,37.932111799999994,-1.1627478999999998
358,10358,Hospital Maternoinfantil de la Vall d'Hebron,,,,,,,,,,,41.428240100000004,2.143306
359,10359,Hospital Mesa del Castillo,Ronda Sur,,,,,+34 968 246 116,,,no,,37.969045200000004,-1.1282934999999998
360,10360,Hospital Militar Juan Carlos I,,,,,,,,,,,28.104432199999998,-15.4241908
361,10361,Hospital Militar de San Carlos,,,,,,,,,,,36.480171399999996,-6.1948621
362,10362,Hospital Modelo,Rúa Virrey Osorio,,,,,+34 981147300,,,yes,,43.3665879,-8.418254300000001
363,10363,Hospital Monte Naranco,,,,,,,,,,,43.369791799999994,-5.8711187
364,10364,Hospital Monte San Isidro,,,,,,,,,,,42.6396143,-5.594041000000001
365,10365,Hospital Montecelo,Estrada Mourente,,,,,+34 986800000,,,yes,,42.4294011,-8.6150643
366,10366,Hospital Montepríncipe,,,,,,,,,,,40.414550399999996,-3.8438502999999997
367,10367,Hospital Municipal de Ribadeo,,,,,,,,,,,43.5347619,-7.040133900000001
368,10368,Hospital Mútua de Terrassa,,,,,,,,,yes,,41.5639461,2.0167973999999997
369,10369,Hospital Mútua de Terrassa,,,,,,,,,,,41.5651313,2.0178295
370,10370,Hospital Mútua de Terrassa,,,,,,,,,yes,,41.5638221,2.0162174
371,10371,Hospital NISA Aljarafe,Avenida Plácido Fernández Viagas,,,,,,,,yes,,37.3919539,-6.0627747
372,10372,Hospital Nacional de Parapléjicos de Toledo,Carretera de la Peraleda,,,,,,,,,,39.873129299999995,-4.053917500000001
373,10373,Hospital Naval,,,,,,,,,yes,,43.511897999999995,-8.208886900000001
374,10374,Hospital Neuropsiquiàtric Sagrat Cor,,,,,,,,,,,41.494832,1.9109398000000002
375,10375,Hospital Neurotraumatológico,,,,,,,,,,,37.7945994,-3.7797614999999998
376,10376,Hospital Nisa 9 de Octubre,Carrer de la Vall de la Ballestera,,,,,+34 963179100,,,yes,,39.478363200000004,-0.40231659999999997
377,10377,Hospital Nisa Aguas Vivas,,,,,,+34 96 258 88 00,,,,,39.0884874,-0.35398670000000004
378,10378,Hospital Nisa Pardo de Aravaca,,,,,,,,,,,40.466809000000005,-3.7849519
379,10379,Hospital Nosa Señora de Fátima,,,,,,,,,,,42.234517499999995,-8.7085942
380,10380,Hospital Ntra Sra de la Caridad,Calle Javier Osés,,,,,+34 948 700 149,,,,,42.5226843,-1.6778988000000001
381,10381,Hospital Nuestra Señora de Los Dolores,Calle Volcán Chaorra,,,,,+34 922239100,,,no,,28.449380199999997,-16.3087408
382,10382,Hospital Nuestra Señora de Sonsoles - CAÁvila,,,,,,,,,,,40.6654977,-4.6649175000000005
383,10383,Hospital Nuestra Señora de la Montaña,,,,,,,,,,,39.4729972,-6.3768652
384,10384,Hospital Nuestra Señora del Prado,,,,,,,,,,,39.965501,-4.807055
385,10385,Hospital Nuestra Sra. de Los Dolores,,,,,,,,,no,,28.686074600000005,-17.7646168
386,10386,Hospital Perpetuo Socorro,,,,,,,,,yes,,38.9884595,-1.8731877000000001
387,10387,Hospital Perpetuo Socorro,,,,,,,,,yes,,37.6145855,-0.9971209999999999
388,10388,Hospital Perpetuo Socorro,,,,,,,,,yes,,38.8664622,-6.9708727
389,10389,Hospital Perpetuo Socorro 2,,,,,,,,,,,37.608037700000004,-0.9916685
390,10390,Hospital Profesor Novoa Santos,Estrada de Catabois,,,,,+34 981 334000,,,yes,,43.5158693,-8.220060499999999
391,10391,Hospital Provincial,,,,,,,,,,,37.86868870000001,-4.7929864
392,10392,Hospital Provincial - CAÁvila,,,,,,,,,,,40.648779100000006,-4.6943949
393,10393,Hospital Provincial Ortiz de Zárate,,,,,,,,,yes,,40.6407346,-3.1724711
394,10394,Hospital Provincial de Castellón,,,,,,,,,,,39.9830318,-0.0451128
395,10395,Hospital Provincial de Conxo,Rúa de Ramón Baltar,,,,,+34 981 951900,,,yes,,42.8596386,-8.5523618
396,10396,Hospital Provincial de Pontevedra,Rúa Doctor Loureiro Crespo,,,,,+34 986807000,,,yes,,42.4277707,-8.6372844
397,10397,Hospital Psiquiatrico Parayas,Avenida de Carrero Blanco,,,,,,,,,,43.4183316,-3.8206106
398,10398,Hospital Psiquiátrico San Luis,,,,,,,,,,,41.993922,-4.5079229000000005
399,10399,Hospital Psiquiátrico Santa Isabel,,,,,,,,,no,,42.5764672,-5.544193900000001
400,10400,Hospital Psiquiátrico de Plasencia,,,,,,,,,,,40.0069417,-6.112375900000001
401,10401,Hospital Psiquiátrico do Rebullón,,,,,,,,,,,42.2054232,-8.6629778
402,10402,Hospital Psiquiátrico/Ospitale Pskiatrikoa,,,,,,,,,,,42.836084299999996,-2.6779745999999998
403,10403,Hospital Público Gutiérrez Ortega,Avenida de los Estudiantes,,,,,,,,yes,,38.7707255,-3.3936056000000003
404,10404,Hospital Público de Montilla,,,,,,,,,yes,,37.564367,-4.6482905
405,10405,Hospital Quiron,Plaça d'Alfonso Comín,,,,,+34902444446,,,,,41.4162994,2.1383732
406,10406,Hospital Quironsalud Marbella,,,,,,,,,,,36.50892,-4.8745084
407,10407,Hospital Quironsalud Sur,,,,,,+34 91 649 66 00,,,,,40.34294860000001,-3.8492235
408,10408,Hospital Quirón,,,,,,,,,,,36.1854339,-5.4321497
409,10409,Hospital Quirón Bizkaia,,,,,,,,,,,43.3296066,-2.9539515
410,10410,Hospital Quirón La Floresta,Avenida del Alcalde Gómez Laguna,,,,,+34 976579000,,,,,41.640137,-0.9184197000000001
411,10411,Hospital Quirón Murcia,Calle Miguel Hernández,,,,,+34 968 36 50 00,,,,,37.978383,-1.1200947
412,10412,Hospital Quirón Salud Infanta Luisa,,,,,,,,,,,37.3813722,-6.0084608
413,10413,"Hospital QuirónSalud ""Santa Cristina""",,,,,,,,,,,38.9896395,-1.8581287
414,10414,Hospital Quirónsalud,,,,,,+34 967 247 100,,,yes,,38.9851547,-1.8442386999999998
415,10415,Hospital Quirónsalud A Coruña,Rúa Londres,,,,,,,,yes,,43.328760100000004,-8.4001852
416,10416,Hospital Quirónsalud Toledo,,,,,,+34 925 26 61 00,,,,,39.8838654,-4.040807
417,10417,Hospital Recoletas,,,,,,,,,,,42.3442997,-3.6835349
418,10418,Hospital Recoletas,Calle del Doctor Velasco,,,,,+34 921 46 01 15,,,yes,,40.9527888,-4.1245156000000005
419,10419,Hospital Recoletas Campo Grande,Calle de la Estación del Norte,,,,,+34 983 13 55 55,,,yes,,41.6441737,-4.7278114
420,10420,Hospital Recoletas Palencia,Avenida Simón Nieto,,,,,+34 979 747 700,,,,,42.015768900000005,-4.5403555
421,10421,Hospital Recoletas Zamora,,,,,,,,,,,41.517182399999996,-5.7473387
422,10422,Hospital Regional Universitario de Málaga,,,,,,,,,yes,,36.7228578,-4.450693599999999
423,10423,Hospital Reina Sofía,,,,,,,,,,,42.0409953,-1.626271
424,10424,Hospital Residència Sant Camil,,,,,,,,,,,41.2546459,1.7641238000000001
425,10425,Hospital Rey Don Jaime,,,,,,,,,yes,,39.997575899999994,-0.037088
426,10426,Hospital Rey Don Jaime,Calle de Santa María Rosa Molas,,,,,,,,yes,,39.9974086,-0.0364203
427,10427,Hospital Rey Juan Carlos I,Calle Gladiolo,,,,,,,,yes,,40.3388721,-3.8734781000000003
428,10428,Hospital Río Carrión,,,,,,,,,,,42.0013429,-4.5405622
429,10429,Hospital San Agustin,,,,,,,,,yes,,38.0895711,-3.6445568999999995
430,10430,Hospital San Agustín,,,,,,,,,,,37.2806805,-5.936291799999999
431,10431,Hospital San Cecilio,,,,,,+34 958 02 30 00,,,yes,,37.1478516,-3.6071258000000004
432,10432,Hospital San Francisco de Asís,Calle de Joaquín Costa,,,,,,,,,,40.4429594,-3.6845979
433,10433,Hospital San Francisco de Asís,,,,,,,,,,,36.7283151,-4.3692058
434,10434,Hospital San Jorge,,,,,,,,,,,42.1318367,-0.4211915
435,10435,Hospital San Jose,,,,,,,,,,,40.3479131,-1.1154026000000001
436,10436,Hospital San Juan Bautista,,,,,,,,,,,43.3225274,-3.0250019
437,10437,Hospital San Juan Grande,Glorieta Félix Rodríguez de la Fuente,,,,,,,,yes,,36.69172329999999,-6.1507303
438,10438,Hospital San Juan de Dios,,,,,,,,,yes,,37.9096636,-4.7940016
439,10439,Hospital San Juan de Dios,,,,,,,,,,,42.8158186,-1.624674
440,10440,Hospital San Juan de Dios,,,,,,,,,no,,42.3391576,-3.7113818999999997
441,10441,Hospital San Juan de Dios,,,,,,,,,,,37.3820387,-5.9696527
442,10442,Hospital San Juan de Dios Aljarafe,Calle Averroes,,,,,,,,yes,,37.3742315,-6.0832656
443,10443,Hospital San Juan de la Cruz,Avenida de la Ciudad de Linares,,,,,,,,yes,,38.0203274,-3.3845506000000003
444,10444,Hospital San Pedro,,,,,,,,,yes,,42.451423299999995,-2.4277187999999996
445,10445,Hospital San Pedro de Alcántara,Ronda de San Francisco,,,,,,,,,,39.466091999999996,-6.3686602
446,10446,Hospital San Rafael,As Xubias de Arriba,,,,,,,,,,43.34588170000001,-8.3881201
447,10447,Hospital San Telmo,,,,,,,,,,,41.9970474,-4.520777099999999
448,10448,Hospital Sant Bernabé,Carretera de Ribes,,,,,+34 938243400,,,,,42.1068951,1.8521968
449,10449,Hospital Sant Jaume de Manlleu,,,,,,,,,,,42.00143129999999,2.2870221
450,10450,Hospital Sant Joan de Déu,,,,,,,,,,,41.3850976,2.1023824
451,10451,Hospital Sant Rafael,,,,,,,,,,,41.425878600000004,2.1420912
452,10452,Hospital Santa Bárbara,,,,,,,,,yes,,38.7053565,-4.1133384
453,10453,Hospital Santa Cruz de Liencres,,,,,,,,,,,43.4635661,-3.9145584
454,10454,Hospital Santa Marina,,,,,,,,,no,,43.262462799999994,-2.8828167000000002
455,10455,Hospital Santa María de Guia,,,,,,,,,,,28.140940999999998,-15.6338445
456,10456,Hospital Santa Ángela de la Cruz - Viamed,,,,,,,,,yes,,37.3276999,-5.966510700000001
457,10457,Hospital Santos Reyes,,,,,,+34 947522000,,,,,41.6692816,-3.6910104
458,10458,Hospital Santísima Trinidad,Paseo de Las Carmelitas,,,,,+34 923 269 300,,,,,40.9685107,-5.6694138
459,10459,Hospital Sanyres Aljaraque,,,,,,,,,,,37.286976,-7.0054525
460,10460,Hospital Serranía de Ronda,,,,,,,,,,,36.72244620000001,-5.148353599999999
461,10461,Hospital Severo Ochoa,,,,,,,,,,,40.321261,-3.7709434
462,10462,Hospital Sociosanitari de Mollet,Carrer de Sant Llorenç,,,,,+34 935636100,,,,,41.54108660000001,2.2114244
463,10463,Hospital Taulì,,,,,,,,,,,41.55808820000001,2.1091952999999997
464,10464,Hospital Tierra de barros,,,,,,,,,yes,,38.6560342,-6.3762517
465,10465,Hospital Universitari Arnau de Vilanova,,,,,,,,,yes,,41.6265007,0.610524
466,10466,Hospital Universitari Doctor Peset,Avinguda de Gaspar Aguilar,,,,,,,,,,39.4546438,-0.395031
467,10467,Hospital Universitari Quirón Dexeus,,,,,,,,,,,41.3847911,2.1245876
468,10468,Hospital Universitari Sant Joan,,,,,,,,,,,41.146190999999995,1.1215123
469,10469,Hospital Universitari de Bellvitge,,,,,,,,,yes,,41.34441760000001,2.107265
470,10470,Hospital Universitari de Santa Maria,,,,,,,,,,,41.624813200000006,0.6171526999999999
471,10471,Hospital Universitari de Tarragona Joan XXIII,,,,,,,,,yes,,41.124911,1.2377098
472,10472,Hospital Universitari de Vic,"Carrer d'en Francesc Pla ""El Vigatà""",,,,,+34 93 889 11 11,,,yes,,41.937349700000006,2.260719
473,10473,Hospital Universitari de la Santa Creu,,,,,,,,,,,41.9272926,2.2506142000000002
474,10474,Hospital Universitari i Politècnic La Fe,,,,,,,,,yes,,39.4440651,-0.3735219
475,10475,Hospital Universitario,,,,,,,,,yes,,40.6194739,-3.1554041
476,10476,Hospital Universitario 12 de Octubre.,,,,,,,,,yes,,40.3773505,-3.701247
477,10477,Hospital Universitario Clínico San Carlos,Calle Profesor Martín Lagos,,,,,+34 913 30 30 00; +34 913 30 30 01,,,yes,,40.4411751,-3.7218
478,10478,Hospital Universitario HM Madrid,Plaza del Conde del Valle de Suchil,,,,,,,,,,40.4313419,-3.7064162000000005
479,10479,Hospital Universitario HM Puerta del Sur,Avenida de Carlos V,,,,,,,,no,,40.314778999999994,-3.8584723
480,10480,Hospital Universitario HM Sanchinarro,,,,,,+34 91 756 78 00,,,,,40.4900319,-3.6663123
481,10481,Hospital Universitario Infanta Leonor,Avenida de la Gran Vía del Este,,,,,+34 911 91 80 00,,,,,40.387538899999996,-3.6191928
482,10482,Hospital Universitario La Moraleja Sanitas,Avenida de Francisco Pi y Margall,,,,,,,,yes,,40.4928205,-3.6633049
483,10483,Hospital Universitario Lucus Augusti,,,,,,,,,yes,,43.0221177,-7.5289622000000005
484,10484,Hospital Universitario Marqués de Valdecilla,,,,,,,,,yes,,43.4571598,-3.8268696
485,10485,Hospital Universitario Miguel Servet,,,,,,,,,yes,,41.6349646,-0.9011363000000001
486,10486,Hospital Universitario Príncipe de Asturias.,,,,,,,,,yes,,40.5120964,-3.3477476000000004
487,10487,Hospital Universitario Puerta de Hierro - Majadahonda,,,,,,,,,yes,,40.4516352,-3.8771815000000003
488,10488,Hospital Universitario Puerto Real,,,,,,,,,,,36.5206319,-6.1507472000000005
489,10489,Hospital Universitario Ramón y Cajal.,,,,,,,,,yes,,40.4871164,-3.6957239
490,10490,Hospital Universitario Reina Sofía,,,,,,,,,yes,,37.8687107,-4.7995969
491,10491,Hospital Universitario Río Hortega,Calle de la Dulzaina,,,,,+34 983 42 04 00,,,yes,,41.6276292,-4.7131972
492,10492,Hospital Universitario Virgen Macarena,Avenida Doctor Fedriani,,,,,,,,yes,,37.4076145,-5.987310099999999
493,10493,Hospital Universitario Virgen de Valme,,,,,,,,,,,37.3178777,-5.9733260999999995
494,10494,Hospital Universitario Virgen de las Nieves,Avenida Juan Pablo II,,,,,,,,yes,,37.1935729,-3.6081599000000004
495,10495,Hospital Universitario Virgen de las Nieves,Plaza de la Caleta,,,,,,,,yes,,37.187641,-3.6090197999999996
496,10496,Hospital Universitario Virgen del Rocío,,,,,,,,,yes,,37.3606289,-5.9811179
497,10497,Hospital Universitario de Burgos,Avenida Islas Baleares,,,,,+34 947 28 18 000,,,yes,,42.363364700000005,-3.6835166
498,10498,Hospital Universitario de Ceuta,Loma Colmenar,,,,,+34 856907000,,,yes,,35.8798467,-5.3430112
499,10499,Hospital Universitario de Fuenlabrada.,Camino del Molino,,,,,,,,yes,,40.2854858,-3.8134957000000003
500,10500,Hospital Universitario de Getafe.,,,,,,,,,,,40.3126059,-3.7450765
501,10501,Hospital Universitario de Gran Canaria Doctor Negrín,,,,,,,,,yes,,28.121969500000002,-15.443187099999998
502,10502,Hospital Universitario de Melilla,,,,,,,,,,,35.2800796,-2.9434937999999997
503,10503,Hospital Universitario de Móstoles.,,,,,,,,,yes,,40.315900799999994,-3.8785550000000004
504,10504,Hospital Universitario de la Princesa,,,,,,,,,,,40.4345108,-3.676367
505,10505,Hospital Universitario de la Ribera,,,,,,+34 962458100,,,yes,,39.1605128,-0.42015509999999995
506,10506,Hospital Urduliz-Alfredo Espinosa,,,,,,,,,,,43.374744799999995,-2.9608165
507,10507,Hospital Valle del Nalón,,,,,,,,,yes,,43.32780770000001,-5.7217969
508,10508,Hospital Vega Baja,,,,,,,,,,,38.0889705,-0.85367
509,10509,Hospital Verge Dels Lliris Alcoi,,,,,,,,,no,,38.7049931,-0.466683
510,10510,Hospital Viamed Bahía de Cádiz,Calle Ayala,,,,,,,,yes,,36.420660600000005,-6.1501457
511,10511,Hospital Viamed Montecanal,Calle Franz Schubert,,,,,+34 876241818,,,,,41.638588,-0.9493280999999999
512,10512,Hospital Viamed los Manzanos,,,,,,+34941499490,,,,,42.4371277,-2.4485653
513,10513,Hospital Victoria Eugenia,,,,,,,,,yes,,37.4013893,-5.9826034
514,10514,Hospital Virgen de Altagracia,,,,,,,,,yes,,38.999833200000005,-3.3616535000000005
515,10515,Hospital Virgen de la Bella,,,,,,,,,,,37.2607395,-7.1952031000000005
516,10516,Hospital Virgen de la Concha,,,,,,,,,,,41.514213299999994,-5.733506200000001
517,10517,Hospital Virgen de la Luz,,,,,,,,,yes,,40.0763906,-2.1489804
518,10518,Hospital Virgen de la Paloma,,,,,,+34 915 34 82 07,,,,,40.4457015,-3.7161447
519,10519,Hospital Virgen de la Salud,,,,,,,,,yes,,39.8712823,-4.0362507
520,10520,Hospital Virgen de la Torre,,,,,,,,,,,40.3811946,-3.6191052000000004
521,10521,Hospital Virgen del Alcazar,,,,,,,,,,,37.6699341,-1.6960155
522,10522,Hospital Virgen del Castañar,,,,,,,,,,,40.3852943,-5.7666765
523,10523,Hospital Virgen del Castillo,,,,,,,,,yes,,38.616460100000005,-1.1079458
524,10524,Hospital Virgen del Mar,Calle de Honduras,,,,,,,,yes,,40.459569099999996,-3.6788672
525,10525,Hospital Virgen del Puerto de Plasencia,,,,,,,,,,,40.04912120000001,-6.0892823
526,10526,Hospital Virgen del Valle,,,,,,,,,yes,,39.8436,-4.0219458
527,10527,Hospital Virxe da Xunqueira,"Recheo, Paseo Marítimo",,,,,+34 981706010,,,yes,,42.9532543,-9.191824800000001
528,10528,Hospital Vithas Nisa Valencia al Mar,Carrer del Riu Tajo,,,,,+34 963 35 25 00,,,,,39.476614899999994,-0.3316015
529,10529,Hospital Vithas Nisa Virgen del Consuelo,,,,,,+34 963 42 33 82,,,,,39.4608055,-0.38790040000000003
530,10530,Hospital Vithas Nuestra Señora de América,Calle de Arturo Soria,,,,,,,,,,40.449838899999996,-3.6519382000000005
531,10531,Hospital Vithas Parque San Antonio,Avenida del Pintor Joaquín Sorolla,,,,,,,,,,36.722973100000004,-4.397707700000001
532,10532,Hospital Vithas Virgen del Mar,Carretera de El Mamí a Viator,,,,,,,,yes,,36.856263,-2.4178817
533,10533,Hospital Vázquez Díaz,,,,,,,,,,,37.279729700000004,-6.9230637999999995
534,10534,Hospital Xeral,,,,,,,,,,,42.2302681,-8.7156799
535,10535,Hospital Xeral Juan Cardona,Rúa Pardo Bazán,,,,,+34 981 312500,,,yes,,43.4812385,-8.2029811
536,10536,Hospital da Costa,Rúa Médico Vior,,,,,+34 982589825,,,yes,,43.652348100000005,-7.3605594
537,10537,Hospital de Alta,,,,,,,,,,,37.93083060000001,-1.1638653
538,10538,Hospital de Alta Resolución El Toyo,,,,,,,,,yes,,36.8511433,-2.3129379
539,10539,Hospital de Alta Resolución Sierra de Segura,,,,,,,,,,,38.360808399999996,-2.7888517999999998
540,10540,Hospital de Alta Resolución Valle del Guadiato,,,,,,,,,,,38.30808820000001,-5.269978099999999
541,10541,Hospital de Alta Resolución de Cazorla,,,,,,,,,,,37.915726899999996,-3.0150241
542,10542,Hospital de Alta Resolución de Ecija,Calle Sor Cándida Saiz,,,,,,,,,,37.549437899999994,-5.082065200000001
543,10543,Hospital de Alta Resolución de Ecija,Avenida Dr. Sánchez Malo,,,,,,,,yes,,37.5320429,-5.0936737999999995
544,10544,Hospital de Alta Resolución de Guadix,,,,,,,,,,,37.310092499999996,-3.1471089
545,10545,Hospital de Alta Resolución de Lebrija,,,,,,,,,,,36.911353600000005,-6.0723053
546,10546,Hospital de Alta Resolución de Sierra Norte,,,,,,,,,yes,,37.8622277,-5.6198614000000005
547,10547,Hospital de Alta Resolución de Utrera,Avenida Brigadas Internacionales,,,,,+34 955 83 90 01,,,yes,,37.1759091,-5.7857335
548,10548,Hospital de Alta resolución,,,,,,,,,,,37.454659899999996,-3.9314953999999998
549,10549,Hospital de Barcelona,Avinguda Diagonal,,,,,,,,yes,,41.3901034,2.1296033
550,10550,Hospital de Cabueñes,Calle Los Prados,,,,,,,,,,43.5246095,-5.6054379
551,10551,Hospital de Calahorra,,,,,,,,,,,42.312589100000004,-1.9799596000000002
552,10552,Hospital de Calde,Rúa Calde,,,,,+34 982296000,,,yes,,42.9547574,-7.6025225999999995
553,10553,Hospital de Campdevànol,,,,,,,,,,,42.2229756,2.1665251
554,10554,Hospital de Cantoblanco.,,,,,,,,,,,40.539814,-3.6934794
555,10555,Hospital de Caubet,,,,,,,,,,,39.679669200000006,2.6879338
556,10556,Hospital de Dia Sant Jordi,,,,,,,,,,,41.555277200000006,2.0044394
557,10557,Hospital de Día Quirón Salud,Vía Complutense,,,,,,,,,,40.492890100000004,-3.3503029000000004
558,10558,Hospital de El Escorial,,,,,,,,,,,40.609556899999994,-4.122500700000001
559,10559,Hospital de Figueres,,,,,,,,,,,42.268457500000004,2.9525052000000005
560,10560,Hospital de Gandia,Avinguda de la Medicina,,,,,,,,,,38.9649525,-0.1700374
561,10561,Hospital de Gandia (Francisco de Borja),Avinguda de la Medicina,,,,,,,,yes,,38.9642626,-0.16910379999999997
562,10562,Hospital de Gorliz,,,,,,,,,,,43.418393200000004,-2.9449678
563,10563,Hospital de Guadarrama.,Paseo Molino del Rey,,,,,+34 918 56 20 00,,,,,40.6693588,-4.0870986
564,10564,Hospital de Hellín,,,,,,,,,yes,,38.503918299999995,-1.6903337
565,10565,Hospital de Jaca,,,,,,,,,,,42.5820549,-0.5373111999999999
566,10566,Hospital de Jerez,,,,,,,,,yes,,36.69738579999999,-6.1487902000000005
567,10567,Hospital de La Rioja,,,,,,,,,,,42.468736799999995,-2.4424943
568,10568,Hospital de Laredo,,,,,,,,,,,43.4135166,-3.4404512
569,10569,Hospital de Llevant,,,,,,,,,,,39.5449789,3.3288894
570,10570,Hospital de Llíria,,,,,,,,,,,39.642683,-0.6207773
571,10571,Hospital de Llíria,,,,,,,,,,,39.6413228,-0.6203845
572,10572,Hospital de Majadahonda FREMAP,,,,,,,,,,,40.451889,-3.8531812000000008
573,10573,Hospital de Manacor,,,,,,,,,,,39.579166,3.2066409
574,10574,Hospital de Manises,,,,,,,,,yes,,39.486303,-0.45291099999999995
575,10575,Hospital de Mataró i Maresme,,,,,,,,,,,41.5565864,2.4289005
576,10576,Hospital de Maó,,,,,,,,,,,39.880098,4.2519129
577,10577,Hospital de Molina,,,,,,,,,,,38.059694799999995,-1.2155277
578,10578,Hospital de Mollet,,,,,,,,,yes,,41.5447578,2.202177
579,10579,Hospital de Morón,,,,,,,,,,,37.117594,-5.453806500000001
580,10580,Hospital de Palamós,,,,,,,,,yes,,41.8524543,3.1314959
581,10581,Hospital de Poniente,,,,,,,,,yes,,36.7528593,-2.8034531000000005
582,10582,Hospital de Puigcerdà,Plaça de Santa Maria,,,,,+34 972880150,,,yes,,42.4322259,1.9263438000000002
583,10583,Hospital de Riotinto,,,,,,,,,,,37.69288220000001,-6.597517999999999
584,10584,Hospital de Sagunto (Mini Fe),,,,,,,,,yes,,39.6739794,-0.2329596
585,10585,Hospital de San Eloy,Avenida Miranda,,,,,,,,,,43.2968398,-2.9931092
586,10586,Hospital de San Juan de Dios,Calle San Juan de Dios,,,,,,,,no,,37.1810026,-3.603508
587,10587,Hospital de San Lázaro,,,,,,,,,,,37.4141183,-5.9812291
588,10588,Hospital de San Rafael,,,,,,,,,,,37.180801,-3.6031657999999998
589,10589,Hospital de San Vicente,,,,,,,,,yes,,38.4033878,-0.530071
590,10590,Hospital de Sant Joan Despí Moisès Broggi,Carrer de Jacint Verdaguer,,,,,,,,yes,,41.3744454,2.0731718999999997
591,10591,Hospital de Sant Joan de Déu,,,,,,,,,,,41.6002841,0.6344411999999999
592,10592,Hospital de Sant LLorenç,,,,,,,,,yes,,41.3125909,2.0144945
593,10593,Hospital de Sant Llàtzer,,,,,,,,,,,41.562962899999995,2.0174467000000003
594,10594,Hospital de Sant Miquel. Fundació Alba,,,,,,,,,,,41.4358545,2.1462015
595,10595,Hospital de Sant Pau i Santa tecla,,,,,,,,,,,41.1159205,1.2537892
596,10596,Hospital de Santa Clotilde,,,,,,,,,,,43.468058299999996,-3.7997811
597,10597,Hospital de Santa María Magdalena,,,,,,,,,,,36.83742720000001,-2.469046
598,10598,Hospital de Santa María del Puerto,Avenida de La Libertad,,,,,,,,yes,,36.598434999999995,-6.2381559
599,10599,Hospital de Sierrallana,Calle de Manuel Teira Fernández,,,,,,,,yes,,43.36351810000001,-4.075871299999999
600,10600,Hospital de Son Espases,,,,,,,,,,,39.6097241,2.645493
601,10601,Hospital de Son Llàtzer,,,,,,,,,,,39.57452670000001,2.7029235000000003
602,10602,Hospital de Terrassa,,,,,,,,,,,41.557334999999995,2.0520574000000003
603,10603,Hospital de Tomelloso,,,,,,,,,,,39.173652600000004,-3.0087789000000003
604,10604,Hospital de Torrevieja,,,,,,+34 965721200,,,,,37.9627133,-0.7179682
605,10605,Hospital de Tortosa Verge de la Cinta,,,,,,+34977519100,,,yes,,40.8110758,0.5239604
606,10606,Hospital de Villarrobledo,,,,,,,,,,,39.279293599999995,-2.6032808999999997
607,10607,Hospital de Xove/Jove,,,,,,,,,,,43.5503153,-5.700633900000001
608,10608,Hospital de Zafra,N-432,,,,,,,,,,38.431039899999995,-6.4220373
609,10609,Hospital de l'Esperit Sant,Avinguda de Mossèn Pons i Rabadà,,,,,+34933860202,,,yes,,41.43736989999999,2.2134529
610,10610,Hospital de la Cruz Roja,Carretera de Ronda,,,,,,,,,,36.843953799999994,-2.4523162
611,10611,Hospital de la Cruz Roja,Calle Uria,,,,,,,,,,43.5386537,-5.6543621
612,10612,Hospital de la Fuenfría.,,,,,,,,,,,40.761056599999996,-4.072804
613,10613,Hospital de la Gomera,,,,,,,,,,,28.1040707,-17.1293481
614,10614,Hospital de la Plana,,,,,,,,,,,39.92483370000001,-0.09840750000000001
615,10615,Hospital de la Real Piedad,,,,,,,,,no,,38.09656939999999,-1.7990976000000003
616,10616,Hospital de la Santa Creu,,,,,,,,,yes,,40.8273595,0.5103492999999999
617,10617,Hospital de la Santa Creu i Sant Pau,,,,,,,,,yes,,41.4148469,2.1740664
618,10618,Hospital de la V.O.T. de San Francisco,,,,,,,,,,,40.408829299999994,-3.7145219
619,10619,Hospital de la Vega Lorenzo Guirao,,,,,,,,,,,38.2292427,-1.409945
620,10620,Hospital de la Zarzuela,,,,,,,,,,,40.46227460000001,-3.7840217000000003
621,10621,Hospital del Henares,,,,,,,,,,,40.4199559,-3.5333623
622,10622,Hospital del Mar,,,,,,,,,yes,,41.3846595,2.193035
623,10623,Hospital del Mar-urgències,,,,,,,,,yes,,41.3835054,2.1938724
624,10624,Hospital del Oriente - Francisco Grande Covián,,,,,,,,,,,43.3822068,-5.1854345
625,10625,Hospital del Oriente - Salud Mental,,,,,,,,,,,43.382725,-5.1857816
626,10626,Hospital del Sur,,,,,,,,,,,28.0692027,-16.706796599999997
627,10627,Hospital del Sureste,,,,,,,,,yes,,40.297784,-3.4572336999999997
628,10628,Hospital del Tajo,,,,,,,,,yes,,40.056003499999996,-3.6128166
629,10629,Hospital del Vendrell,,,,,,,,,yes,,41.227208000000005,1.5527733
630,10630,Hospital del Vinalopó,calle Tonico Sansano Mora,,,,,,,,yes,,38.2564281,-0.7153506
631,10631,Hospital do Mexoeiro,Meixoeiro,,,,,,,,yes,,42.214777000000005,-8.682224099999999
632,10632,Hospital el Tomillar,,,,,,,,,,,37.2984537,-5.9020092
633,10633,Hospital quironsalud Tenerife,Calle Poeta Rodríguez Herrera,,,,,+34-922270700,,,yes,,28.470836199999997,-16.2669612
634,10634,Hospital transfronterer de la Cerdanya,,,,,,,,,,,42.44435429999999,1.9295898
635,10635,Hospital Álvarez Buylla,,,,,,,,,yes,,43.227419899999994,-5.7816168
636,10636,Hospital-Asil de Granollers,,,,,,,,,,,41.6128348,2.2960789
637,10637,Hospitales San Roque Traumatología,Calle Alcalde Francisco Hernández González,,,,,,,,,,28.0986937,-15.4128479
638,10638,Hospitall Valle de Laciana,,,,,,,,,,,42.9431991,-6.332056400000001
639,10639,Hospiten Bellvue,,,,,,+34 922 38 35 51,,,yes,,28.4073817,-16.5451651
640,10640,Hospiten Clínica Roca,Calle Buganvilla,,,,,,,,,,27.7728136,-15.542435699999999
641,10641,Hospiten Rambla,,,,,,,,,,,28.475261800000002,-16.2516505
642,10642,Hospiten Sur,,,,,,,,,,,28.0582977,-16.7254529
643,10643,IMQ Zorrotzaurre,,,,,,,,,,,43.268217799999995,-2.9533054
644,10644,INSTITUTO GALENE DE PSICOTERAPIA,Calle del Alba,,,,,+34 913 000 645,,,,,40.459420200000004,-3.6537896
645,10645,Institut Guttmann,Camí de Can Ruti,,,,,,,,no,,41.478778399999996,2.2370924
646,10646,Institut Pere Mata,,,,,,,,,,,41.1680908,1.0842667
647,10647,Instituto Nacional de Silicosis,,,,,,,,,,,43.373870000000004,-5.827343
648,10648,Instituto Provincial de Oftalmología,Calle del General Arrando,,,,,,,,yes,,40.431824799999994,-3.6930987
649,10649,Instituto Provincial de Rehabilitación,Calle de Francisco Silvela,,,,,,,,,,40.433057700000006,-3.6726970000000003
650,10650,Instituto Psiquiátrico José Germain - Complejo de Santa Teresa,,,,,,,,,,,40.3316003,-3.7740167000000002
651,10651,Instituto Psiquiátrico José Germain.,,,,,,,,,,,40.32737120000001,-3.7675385
652,10652,Instituto Social de la Marina - Casa del Mar,,,,,,,,,,,39.4609735,-0.3364807
653,10653,Instituto Valenciano de Oncología,,,,,,,,,,,39.482161299999994,-0.3904497
654,10654,Instituto de Enfermedades Neurológicas de Castilla-La Mancha,,,,,,,,,,,40.6406362,-3.1727011000000003
655,10655,Lavandería,,,,,,,,,,,37.931151299999996,-1.1616018999999997
656,10656,Lezako ospitalea/Hospital de Leza,,,,,,+34 945006900,,,,,42.5761718,-2.638033
657,10657,Manuel Lois,Vía Paisajista,,,,,,,,yes,,37.257096999999995,-6.944913799999999
658,10658,Matia Calvo,Zarautz kalea,,,,,,,,no,,43.3036723,-2.0031683
659,10659,Muro,Carrer Veler,,,,,,,,yes,,39.813581899999996,3.107409
660,10660,Nuestra Señora de la Concepción,,,,,,,,,,,28.374033100000002,-16.7589857
661,10661,Obra Hospitalaria Nuestra Señora de Regla,,,,,,+34 987 236900,,,yes,,42.6002368,-5.5670322
662,10662,Osasun zentrua,Beko bidea,,,,,,,,,,43.26794829999999,-2.0188381
663,10663,Pabellón 12,,,,,,,,,,,43.456736799999995,-3.8275521
664,10664,Pabellón 13,,,,,,,,,,,43.45652570000001,-3.8282504
665,10665,Pabellón 14,,,,,,,,,,,43.45652570000001,-3.8282504
666,10666,Pabellón 15,,,,,,,,,,,43.456336900000004,-3.8287939
667,10667,Pabellón 16,,,,,,,,,,,43.4561151,-3.8294384
668,10668,Pabellón 17,,,,,,,,,,,43.4559408,-3.8298517
669,10669,Pabellón 18,,,,,,,,,,,43.4558026,-3.8302516000000004
670,10670,Pabellón 19,,,,,,,,,,,43.455752399999994,-3.8303968
671,10671,Pabellón 20,,,,,,,,,,,43.45559779999999,-3.8308438999999996
672,10672,Pabellón 21,,,,,,,,,,,43.455774299999995,-3.8275744
673,10673,Pabellón Policlínico,,,,,,,,,,,37.9336165,-1.1618666000000002
674,10674,Pabellón de Dirección,,,,,,,,,,,37.932393,-1.1621792
675,10675,Parc Sanitari Pere Virgili,,,,,,,,,,,41.415949,2.1391822
676,10676,Parc Sanitari Sant Joan de Déu,,,,,,,,,,,41.3540775,2.0351822
677,10677,Policlinica Gipuzkoa,,,,,,,,,,,43.2902792,-1.9807682
678,10678,Policlinica IMED Teulada,,,,,,,,,yes,,38.726217999999996,0.1087744
679,10679,Policlínica Juaneda Miramar,,,,,,,,,yes,,39.584281299999994,2.6301732
680,10680,Policlínico Virgen Macarena,Avenida Doctor Fedriani,,,,,,,,no,,37.4058789,-5.987847
681,10681,Psiquiàtric,,,,,,,,,,,39.5828076,2.643208
682,10682,Puerta del Mar,Avenida Ana de Viya,,,,,,,,yes,,36.5093708,-6.2784864
683,10683,Quiron Klinika,,,,,,,,,,,43.315173,-1.9738771000000002
684,10684,Quirón Hospital Universitario,Calle Diego de Velázquez,,,,,+34 902 151 016,,,,,40.4032398,-3.7851779000000003
685,10685,Quirón San José,Calle de Cartagena,,,,,+34 902 02 47 47,,,,,40.4400815,-3.6742821000000006
686,10686,Quirónsalud Palmaplanas,,,,,,,,,yes,,39.5991876,2.642725
687,10687,Residencia Casa Quinta,,,,,,,,,,,40.161096,-3.6119798999999997
688,10688,Residencia Geriátrica y Hospital GIJÓN,Avenida de la Costa,,,,,,,,,,43.537800700000005,-5.6584343
689,10689,Residència Sant Martí - Fundació Vella Terra,,,,,,,,,no,,41.6098771,2.5395673
690,10690,Residència Verge del Remei,,,,,,,,,no,,41.608067600000005,2.5398335
691,10691,Royo Villanova,Avenida de San Gregorio,,,,,+34 976466910,,,,,41.692525,-0.8617997
692,10692,SUMMA112 - CUE El Molar.,,,,,,,,,,,40.738218100000005,-3.5820008000000003
693,10693,Sagrado Corazón de Jesus,,,,,,,,,,,42.1422494,-0.40193959999999995
694,10694,Salus XXI Medical Group,Carrer d'Amposta,,,,,,,,no,,41.481170399999996,2.0609718
695,10695,Salón de Actos,,,,,,,,,,,37.932303399999995,-1.1623981
696,10696,San Juan de Dios,Avenida San Ignacio de Loyola,,,,,,,,,,42.6064292,-5.5948137000000004
697,10697,San Juan de Dios Ospitalea,,,,,,,,,,,43.3246033,-3.0263263
698,10698,San Juan de Dios ospitalea,,,,,,,,,no,,43.0656545,-2.5289099999999998
699,10699,San Juan de Dios ospitalea,,,,,,,,,no,,43.066497999999996,-2.5285047
700,10700,Sanatori San Jordi,Oliver,,,,,,,,,,38.6929654,-0.4859255
701,10701,Sanatorio Neuropsiquiátrico San Ignacio de Loyola,,,,,,,,,,,43.3351834,-2.9864542000000003
702,10702,Sanatorio Psiquiátrico Esquerdo,,,,,,,,,,,40.3836222,-3.7594785
703,10703,Sanatorio San Francisco de Borja - Fontilles,,,,,,,,,,,38.7773264,-0.0898813
704,10704,Sanitas Mirasierra,Calle de Nuria,,,,,,,,,,40.4931737,-3.7074258
705,10705,Sant Joan de Déu,,,,,,,,,,,41.47212639999999,1.9200537
706,10706,Sant Joan de Déu,,,,,,,,,,,39.547664399999995,2.6994894
707,10707,Santiago Ospitalea/Hospital de Santiago,,,,,,+34 945007600,,,yes,,42.8460001,-2.6662209
708,10708,Santo y Real Hospital de Caridad,,,,,,,,,,,37.6288124,-0.9937891
709,10709,Sermesa,Carrer de l'Emparrat,,,,,+34 96 313 41 11,,,no,,39.475913299999995,-0.4182025
710,10710,Sescam Alovera,,,,,,,,,no,,40.594704,-3.252811
711,10711,Sociosanitari Francoli,,,,,,,,,no,,41.1253315,1.239426
712,10712,Torre A,Avenida de Valdecilla,,,,,,,,,,43.4571412,-3.8289428999999995
713,10713,"U.S. Naval Hospital - Rota, Spain",,,,,,,,,,,36.6353585,-6.349744599999999
714,10714,Unidad de Formación en Atención Primaria,,,,,,,,,,,43.4582179,-3.8360328000000004
715,10715,Unidad de Investigación,,,,,,,,,,,37.933952000000005,-1.1617582
716,10716,Urgencias,,,,,,,,,,,43.456651799999996,-3.8278854
717,10717,Usurbilgo Sendategia / Sanatorio de Usurbil,Urdaiaga,,,,,,,,,,43.2730575,-2.0622941999999997
718,10718,Viamed de Calahorra,,,,,,,,,,,42.3149086,-1.9802842
719,10719,Virgen del Camino,,,,,,,,,yes,,36.7685342,-6.3602072
720,10720,Virgen del Mirón,,,,,,,,,,,41.7717011,-2.4628813
721,10721,Zumarragako ospitalea,,,,,,,,,yes,,43.083695299999995,-2.3135293999999997
722,10722,centro de salud de isla cristina,calle sitges,,,,,,,,yes,,37.196940399999995,-7.323561200000001
723,10723,consultorio medico,Avenida Plaza del Pilar,,,,,,,,,,38.6147864,-4.1410161
724,10724,de Medina del Campo,,,,,,,,,,,41.294711799999995,-4.9105775000000005
725,10725,hospital de Sant Joan de Déu,,,,,,,,,,,39.7213914,2.9184937
726,10726,hospital de l'Esperança,,,,,,,,,yes,,41.410801,2.1539829
