,name,address,city,state,zip,phone,LAT,LON,hasSpecialties,ADDICTION MEDICINE,ADVANCED HEART FAILURE AND TRANSPLANT CARDIOLOGY,ALLERGY/IMMUNOLOGY,ANESTHESIOLOGY,ANESTHESIOLOGY ASSISTANT,AUDIOLOGIST,CARDIAC ELECTROPHYSIOLOGY,CARDIAC SURGERY,CARDIOVASCULAR DISEASE (CARDIOLOGY),CERTIFIED NURSE MIDWIFE,CERTIFIED REGISTERED NURSE ANESTHETIST,CHIROPRACTIC,CLINICAL NURSE SPECIALIST,CLINICAL PSYCHOLOGIST,CLINICAL SOCIAL WORKER,COLORECTAL SURGERY (PROCTOLOGY),CRITICAL CARE (INTENSIVISTS),DENTIST,DERMATOLOGY,DIAGNOSTIC RADIOLOGY,EMERGENCY MEDICINE,ENDOCRINOLOGY,FAMILY PRACTICE,GASTROENTEROLOGY,GENERAL PRACTICE,GENERAL SURGERY,GERIATRIC MEDICINE,GERIATRIC PSYCHIATRY,GYNECOLOGICAL ONCOLOGY,HAND SURGERY,HEMATOLOGY,HEMATOLOGY/ONCOLOGY,HEMATOPOIETIC CELL TRANSPLANTATION AND CELLULAR TH,HOSPICE/PALLIATIVE CARE,HOSPITALIST,INFECTIOUS DISEASE,INTERNAL MEDICINE,INTERVENTIONAL CARDIOLOGY,INTERVENTIONAL PAIN MANAGEMENT,INTERVENTIONAL RADIOLOGY,MAXILLOFACIAL SURGERY,MEDICAL ONCOLOGY,NEPHROLOGY,NEUROLOGY,NEUROPSYCHIATRY,NEUROSURGERY,NUCLEAR MEDICINE,NURSE PRACTITIONER,OBSTETRICS/GYNECOLOGY,OCCUPATIONAL THERAPY,OPHTHALMOLOGY,OPTOMETRY,ORAL SURGERY,ORTHOPEDIC SURGERY,OSTEOPATHIC MANIPULATIVE MEDICINE,OTOLARYNGOLOGY,PAIN MANAGEMENT,PATHOLOGY,PEDIATRIC MEDICINE,PERIPHERAL VASCULAR DISEASE,PHYSICAL MEDICINE AND REHABILITATION,PHYSICAL THERAPY,PHYSICIAN ASSISTANT,PLASTIC AND RECONSTRUCTIVE SURGERY,PODIATRY,PREVENTATIVE MEDICINE,PSYCHIATRY,PULMONARY DISEASE,RADIATION ONCOLOGY,REGISTERED DIETITIAN OR NUTRITION PROFESSIONAL,"RHEUMATOLOGY,",SLEEP MEDICINE,SPEECH LANGUAGE PATHOLOGIST,SPORTS MEDICINE,SURGICAL ONCOLOGY,THORACIC SURGERY,UNDEFINED PHYSICIAN TYPE (SPECIFY),"UROLOGY,",VASCULAR SURGERY,id
0,"""Promed"" NZOZ Przychodnia Rejonowo-Specjalistyczna",Siemońska 11,Będzin,Powiat Będziński,42-500,,50.3264501,19.1605797,False,,,,,,,,,,,,,,,,,,,,,,,,,,,,,,,,,,,,,,,,,,,,,,,,,,,,,,,,,,,,,,,,,,,,,,,,,,,,,,,,10000
1,ArtDent Medica Centrum Stomatologiczne,nan nan,Gniezno,Powiat Gnieźnieński,62-200,,52.5396295,17.6076401,False,,,,,,,,,,,,,,,,,,,,,,,,,,,,,,,,,,,,,,,,,,,,,,,,,,,,,,,,,,,,,,,,,,,,,,,,,,,,,,,,10001
2,ArtMedik,Robotnicza 1,Kielce,Kielce,25-525,,50.8865612,20.6270983,False,,,,,,,,,,,,,,,,,,,,,,,,,,,,,,,,,,,,,,,,,,,,,,,,,,,,,,,,,,,,,,,,,,,,,,,,,,,,,,,,10002
3,Artismed,Bukowińska 21/25,Warszawa,Warszawa,02-672,,52.1800046,21.026601,False,,,,,,,,,,,,,,,,,,,,,,,,,,,,,,,,,,,,,,,,,,,,,,,,,,,,,,,,,,,,,,,,,,,,,,,,,,,,,,,,10003
4,Bagłaj,nan nan,Wrocław,Wrocław,53-024,,51.0687264,17.0038434,False,,,,,,,,,,,,,,,,,,,,,,,,,,,,,,,,,,,,,,,,,,,,,,,,,,,,,,,,,,,,,,,,,,,,,,,,,,,,,,,,10004
5,Bi-Med,nan nan,Tarnowskie Góry,Powiat Tarnogórski,42-600,,50.4485688,18.8561291,False,,,,,,,,,,,,,,,,,,,,,,,,,,,,,,,,,,,,,,,,,,,,,,,,,,,,,,,,,,,,,,,,,,,,,,,,,,,,,,,,10005
6,BlueBall Centrum Rehabilitacji,Świętej Barbary 22,Siemianowice Śląskie,Siemianowice Śląskie,41-100,,50.3048477,19.0318362,False,,,,,,,,,,,,,,,,,,,,,,,,,,,,,,,,,,,,,,,,,,,,,,,,,,,,,,,,,,,,,,,,,,,,,,,,,,,,,,,,10006
7,CENTRUM DIALIZ FRESENIUS NEPHROCARE XVII,Tadeusza Sroczyńskiego 8,Jasło,Powiat Jasielski,38-200,+48 134453257,49.7512176,21.4852492,False,,,,,,,,,,,,,,,,,,,,,,,,,,,,,,,,,,,,,,,,,,,,,,,,,,,,,,,,,,,,,,,,,,,,,,,,,,,,,,,,10007
8,Centrum Dializ Fresenius,Marcelego Nenckiego 61,Wrocław,Wrocław,52-213,,51.0578909,17.0241769,False,,,,,,,,,,,,,,,,,,,,,,,,,,,,,,,,,,,,,,,,,,,,,,,,,,,,,,,,,,,,,,,,,,,,,,,,,,,,,,,,10008
9,Centrum Dializ Fresenius,nan nan,Sochaczew,Powiat Sochaczewski,96-500,+48 22 213 38 10,52.2380685,20.2295994,False,,,,,,,,,,,,,,,,,,,,,,,,,,,,,,,,,,,,,,,,,,,,,,,,,,,,,,,,,,,,,,,,,,,,,,,,,,,,,,,,10009
10,Centrum Kardiologiczne NZOZ KardioMED,Karmelicka 29,Wadowice,Powiat Wadowicki,34-100,+48 33 8737442,49.8784903,19.4890046,False,,,,,,,,,,,,,,,,,,,,,,,,,,,,,,,,,,,,,,,,,,,,,,,,,,,,,,,,,,,,,,,,,,,,,,,,,,,,,,,,10010
11,Centrum Leczniczo-Rehabilitacyjne i Medycyny Pracy Attis,nan nan,Warszawa,Warszawa,01-131,,52.2367786,20.9500531,False,,,,,,,,,,,,,,,,,,,,,,,,,,,,,,,,,,,,,,,,,,,,,,,,,,,,,,,,,,,,,,,,,,,,,,,,,,,,,,,,10011
12,Centrum Medycyny Oddechowej,Piasta 9A,Białystok,Białystok,15-007,,53.1349662,23.1800728,False,,,,,,,,,,,,,,,,,,,,,,,,,,,,,,,,,,,,,,,,,,,,,,,,,,,,,,,,,,,,,,,,,,,,,,,,,,,,,,,,10012
13,Centrum Medycyny Pracy Medicover,Cybernetyki 19,Warszawa,Warszawa,02-677,,52.1769604,20.9895136,False,,,,,,,,,,,,,,,,,,,,,,,,,,,,,,,,,,,,,,,,,,,,,,,,,,,,,,,,,,,,,,,,,,,,,,,,,,,,,,,,10013
14,Centrum Medyczne,Stefana Wyszyńskiego 99,Zielona Góra,Zielona Góra,65-052,,51.9375761,15.4826562,False,,,,,,,,,,,,,,,,,,,,,,,,,,,,,,,,,,,,,,,,,,,,,,,,,,,,,,,,,,,,,,,,,,,,,,,,,,,,,,,,10014
15,"Centrum Medyczne ""Batorego""",Aleja Stefana Batorego 77,Nowy Sącz,Nowy Sącz,33-300,+48 18 4420006,49.6104278,20.7008462,False,,,,,,,,,,,,,,,,,,,,,,,,,,,,,,,,,,,,,,,,,,,,,,,,,,,,,,,,,,,,,,,,,,,,,,,,,,,,,,,,10015
16,"Centrum Medyczne ""LEGIONÓW""",Legionów Polskich 18,Lębork,Powiat Lęborski,84-300,,54.5334564,17.7386372,False,,,,,,,,,,,,,,,,,,,,,,,,,,,,,,,,,,,,,,,,,,,,,,,,,,,,,,,,,,,,,,,,,,,,,,,,,,,,,,,,10016
17,Centrum Medyczne B.Larsen,Bolesława Chrobrego 16A,Białystok,Białystok,15-007,85 654 48 15 ‎,53.1300641,23.1862356,False,,,,,,,,,,,,,,,,,,,,,,,,,,,,,,,,,,,,,,,,,,,,,,,,,,,,,,,,,,,,,,,,,,,,,,,,,,,,,,,,10017
18,Centrum Medyczne Bieńkowski - Klinika Chirurgii Plastycznej,Lęborska 7,Bydgoszcz,Bydgoszcz,85-023,,53.1214699,18.0480079,False,,,,,,,,,,,,,,,,,,,,,,,,,,,,,,,,,,,,,,,,,,,,,,,,,,,,,,,,,,,,,,,,,,,,,,,,,,,,,,,,10018
19,Centrum Medyczne Boruta Sp. z o.o.,nan nan,Zgierz,Powiat Zgierski,95-100,,51.8508317,19.4008564,False,,,,,,,,,,,,,,,,,,,,,,,,,,,,,,,,,,,,,,,,,,,,,,,,,,,,,,,,,,,,,,,,,,,,,,,,,,,,,,,,10019
20,Centrum Medyczne FEMINA,Kłodnicka 23,Katowice,Katowice,40-022,,50.2266684,18.9895957,False,,,,,,,,,,,,,,,,,,,,,,,,,,,,,,,,,,,,,,,,,,,,,,,,,,,,,,,,,,,,,,,,,,,,,,,,,,,,,,,,10020
21,Centrum Medyczne Gamma,nan nan,Warszawa,Warszawa,01-773,,52.2619808,20.976958,False,,,,,,,,,,,,,,,,,,,,,,,,,,,,,,,,,,,,,,,,,,,,,,,,,,,,,,,,,,,,,,,,,,,,,,,,,,,,,,,,10021
22,Centrum Medyczne INTER-MED,Ignacego Krasickiego 14,Będzin,Powiat Będziński,42-500,,50.3159491,19.1311417,False,,,,,,,,,,,,,,,,,,,,,,,,,,,,,,,,,,,,,,,,,,,,,,,,,,,,,,,,,,,,,,,,,,,,,,,,,,,,,,,,10022
23,Centrum Medyczne Ogrodowa,Ogrodowa 21/23,Skierniewice,Skierniewice,96-100,,51.9559314,20.1458121,False,,,,,,,,,,,,,,,,,,,,,,,,,,,,,,,,,,,,,,,,,,,,,,,,,,,,,,,,,,,,,,,,,,,,,,,,,,,,,,,,10023
24,Centrum Medyczne Onkologii i Hipertermii,Belgradzka 5,Warszawa,Warszawa,02-793,,52.1406036,21.0614288,False,,,,,,,,,,,,,,,,,,,,,,,,,,,,,,,,,,,,,,,,,,,,,,,,,,,,,,,,,,,,,,,,,,,,,,,,,,,,,,,,10024
25,Centrum Medyczne Wielkoszyński,Aleja Józefa Piłsudskiego 10,Dąbrowa Górnicza,Dąbrowa Górnicza,41-300,+48 506 112 819,50.3291677,19.2135539,False,,,,,,,,,,,,,,,,,,,,,,,,,,,,,,,,,,,,,,,,,,,,,,,,,,,,,,,,,,,,,,,,,,,,,,,,,,,,,,,,10025
26,Centrum Narodzin MAMMA,Sowia 38,Szczecin,Szczecin,70-560,+48914628000,53.37528,14.6942769,False,,,,,,,,,,,,,,,,,,,,,,,,,,,,,,,,,,,,,,,,,,,,,,,,,,,,,,,,,,,,,,,,,,,,,,,,,,,,,,,,10026
27,Centrum Profilaktyczno-Diagnostyczne - Centrum Onkologii,nan nan,Bydgoszcz,Bydgoszcz,85-023,,53.1482022,18.1125555,False,,,,,,,,,,,,,,,,,,,,,,,,,,,,,,,,,,,,,,,,,,,,,,,,,,,,,,,,,,,,,,,,,,,,,,,,,,,,,,,,10027
28,Centrum Rehabilitacji Rolnikow KRUS w Jedlcu,nan nan,Gołuchów,Powiat Pleszewski,63-322,,51.8184566,17.9472778,False,,,,,,,,,,,,,,,,,,,,,,,,,,,,,,,,,,,,,,,,,,,,,,,,,,,,,,,,,,,,,,,,,,,,,,,,,,,,,,,,10028
29,Centrum Rehabilitacyjno–Lecznicze Medpharma,Leśna 1A,Starogard Gdański (Gmina),Powiat Starogardzki,83-200,,53.9610455,18.4870175,False,,,,,,,,,,,,,,,,,,,,,,,,,,,,,,,,,,,,,,,,,,,,,,,,,,,,,,,,,,,,,,,,,,,,,,,,,,,,,,,,10029
30,Centrum Stomatologiczne,Grunwaldzka 33,Pruszcz Gdański,Powiat Gdański,83-000,,54.2603908,18.6356674,False,,,,,,,,,,,,,,,,,,,,,,,,,,,,,,,,,,,,,,,,,,,,,,,,,,,,,,,,,,,,,,,,,,,,,,,,,,,,,,,,10030
31,Centrum Stomatologiczne Ossowscy,Senatorska 28a,Wałbrzych,Wałbrzych,58-302,+48 74 84 19 595,50.8248404,16.2880075,False,,,,,,,,,,,,,,,,,,,,,,,,,,,,,,,,,,,,,,,,,,,,,,,,,,,,,,,,,,,,,,,,,,,,,,,,,,,,,,,,10031
32,Centrum Stomatologiczno-Medyczne,nan nan,Będzin,Powiat Będziński,42-500,,50.3183425,19.132408,False,,,,,,,,,,,,,,,,,,,,,,,,,,,,,,,,,,,,,,,,,,,,,,,,,,,,,,,,,,,,,,,,,,,,,,,,,,,,,,,,10032
33,Centrum Usług Medycznych Eskulap sp. z o.o.,Ludwika Zamenhofa 47,Świdnica,Powiat Świdnicki,58-100,,50.8461411,16.4725415,False,,,,,,,,,,,,,,,,,,,,,,,,,,,,,,,,,,,,,,,,,,,,,,,,,,,,,,,,,,,,,,,,,,,,,,,,,,,,,,,,10033
34,Centrum Zdrowia Psychicznego,Romualda Traugutta 9,Gdynia,Gdynia,81-364,,54.5115296,18.5361304,False,,,,,,,,,,,,,,,,,,,,,,,,,,,,,,,,,,,,,,,,,,,,,,,,,,,,,,,,,,,,,,,,,,,,,,,,,,,,,,,,10034
35,"Centrum leczenia uzależnień ""Zaroślak""",nan 21,Czersk,Powiat Chojnicki,89-650,,53.7405886,17.9927526,False,,,,,,,,,,,,,,,,,,,,,,,,,,,,,,,,,,,,,,,,,,,,,,,,,,,,,,,,,,,,,,,,,,,,,,,,,,,,,,,,10035
36,"Centrum medyczne ""Intermed""",Krakowska 317,Zabierzów,Powiat Krakowski,32-080,+48 12 267 0589,50.1092264,19.8329709,False,,,,,,,,,,,,,,,,,,,,,,,,,,,,,,,,,,,,,,,,,,,,,,,,,,,,,,,,,,,,,,,,,,,,,,,,,,,,,,,,10036
37,Centrum medyczne Farma-med,Prezydenta Gabriela Narutowicza 24,Inowrocław,Powiat Inowrocławski,88-100,,52.798323,18.2536102,False,,,,,,,,,,,,,,,,,,,,,,,,,,,,,,,,,,,,,,,,,,,,,,,,,,,,,,,,,,,,,,,,,,,,,,,,,,,,,,,,10037
38,Certus,Wagrowska 6,Poznań,Poznań,61-131,+48 61 887 78 00,52.3781385,16.946435,False,,,,,,,,,,,,,,,,,,,,,,,,,,,,,,,,,,,,,,,,,,,,,,,,,,,,,,,,,,,,,,,,,,,,,,,,,,,,,,,,10038
39,Chirurgia Poznańska,Druskienicka 17,Poznań,Poznań,60-626,,52.4452398,16.8875812,False,,,,,,,,,,,,,,,,,,,,,,,,,,,,,,,,,,,,,,,,,,,,,,,,,,,,,,,,,,,,,,,,,,,,,,,,,,,,,,,,10039
40,Clinica Medica,Józefa Montwiłła-Mireckiego 11,Gdynia,Gdynia,81-364,,54.5287617,18.5032336,False,,,,,,,,,,,,,,,,,,,,,,,,,,,,,,,,,,,,,,,,,,,,,,,,,,,,,,,,,,,,,,,,,,,,,,,,,,,,,,,,10040
41,Dentico & Rehabilis Clinic,Kujawska 36,Białystok,Białystok,15-007,,53.1265947,23.1989005,False,,,,,,,,,,,,,,,,,,,,,,,,,,,,,,,,,,,,,,,,,,,,,,,,,,,,,,,,,,,,,,,,,,,,,,,,,,,,,,,,10041
42,Dolnośląskie Centrum Medyczne,Legnicka 40,Wrocław,Wrocław,53-677,,51.1138363,17.003475,False,,,,,,,,,,,,,,,,,,,,,,,,,,,,,,,,,,,,,,,,,,,,,,,,,,,,,,,,,,,,,,,,,,,,,,,,,,,,,,,,10042
43,Dom Medyczny „Gdyńska”,Gdyńska 1,Gdańsk,Gdańsk,80-346,58 763 92 00,54.4210705,18.5774876,False,,,,,,,,,,,,,,,,,,,,,,,,,,,,,,,,,,,,,,,,,,,,,,,,,,,,,,,,,,,,,,,,,,,,,,,,,,,,,,,,10043
44,Dom Medyczny „Gospody”,Gospody 7,Gdańsk,Gdańsk,80-346,58 763 92 90,54.4228198,18.580235,False,,,,,,,,,,,,,,,,,,,,,,,,,,,,,,,,,,,,,,,,,,,,,,,,,,,,,,,,,,,,,,,,,,,,,,,,,,,,,,,,10044
45,"Dom Medyczny „Kilińskiego""",Jana Kilińskiego 34,Gdańsk,Gdańsk,80-254,+48 58 763 9500,54.3861296,18.6050612,False,,,,,,,,,,,,,,,,,,,,,,,,,,,,,,,,,,,,,,,,,,,,,,,,,,,,,,,,,,,,,,,,,,,,,,,,,,,,,,,,10045
46,Dom Opieki „Laurentius”,Kardynała Stanisława Hozjusza 19,Olsztyn,Olsztyn,10-118,,53.8097712,20.4379525,False,,,,,,,,,,,,,,,,,,,,,,,,,,,,,,,,,,,,,,,,,,,,,,,,,,,,,,,,,,,,,,,,,,,,,,,,,,,,,,,,10046
47,Dormed Medical Spa Klinika Zdrowia i Urody,Stanisława Rokosza 5,Busko-Zdrój,Powiat Buski,28-100,,50.4571478,20.7124449,False,,,,,,,,,,,,,,,,,,,,,,,,,,,,,,,,,,,,,,,,,,,,,,,,,,,,,,,,,,,,,,,,,,,,,,,,,,,,,,,,10047
48,Dzienny Ośrodek Psychiatrii i Zaburzeń Mowy dla Dzieci i Młodzieży,nan nan,Wrocław,Wrocław,51-116,,51.1461721,17.0266807,False,,,,,,,,,,,,,,,,,,,,,,,,,,,,,,,,,,,,,,,,,,,,,,,,,,,,,,,,,,,,,,,,,,,,,,,,,,,,,,,,10048
49,Euroklinika,Stanisława Żółkiewskiego 40,Bielsko-Biała,Bielsko-Biała,43-300,+48 698 991 577,49.8262784,19.0234155,False,,,,,,,,,,,,,,,,,,,,,,,,,,,,,,,,,,,,,,,,,,,,,,,,,,,,,,,,,,,,,,,,,,,,,,,,,,,,,,,,10049
50,FCMed,Konstantego Ciołkowskiego 88J,Białystok,Białystok,15-007,,53.125181,23.2154829,False,,,,,,,,,,,,,,,,,,,,,,,,,,,,,,,,,,,,,,,,,,,,,,,,,,,,,,,,,,,,,,,,,,,,,,,,,,,,,,,,10050
51,"Filia przychodni lekarskiej ""BER-MED""",Modlińska 61a,Wieliszew,Powiat Legionowski,05-135,,52.4503746,20.9713013,False,,,,,,,,,,,,,,,,,,,,,,,,,,,,,,,,,,,,,,,,,,,,,,,,,,,,,,,,,,,,,,,,,,,,,,,,,,,,,,,,10051
52,GK-MED,nan 25,Jodłowa,Powiat Dębicki,39-225,,49.8771313,21.3046171,False,,,,,,,,,,,,,,,,,,,,,,,,,,,,,,,,,,,,,,,,,,,,,,,,,,,,,,,,,,,,,,,,,,,,,,,,,,,,,,,,10052
53,Gminny Ośrodek Zdrowia,Słoneczna 3,Miedźno,Powiat Kłobucki,42-120,,50.9678737,18.9826709,False,,,,,,,,,,,,,,,,,,,,,,,,,,,,,,,,,,,,,,,,,,,,,,,,,,,,,,,,,,,,,,,,,,,,,,,,,,,,,,,,10053
54,Gminny Ośrodek Zdrowia,Dworcowa 22,Lubichowo,Powiat Starogardzki,83-240,585885213,53.8485978,18.3987802,False,,,,,,,,,,,,,,,,,,,,,,,,,,,,,,,,,,,,,,,,,,,,,,,,,,,,,,,,,,,,,,,,,,,,,,,,,,,,,,,,10054
55,Gminny Ośrodek Zdrowia w Gizałkach,Kaliska 23,Gizałki,Powiat Pleszewski,63-308,,52.0420675,17.7698767,False,,,,,,,,,,,,,,,,,,,,,,,,,,,,,,,,,,,,,,,,,,,,,,,,,,,,,,,,,,,,,,,,,,,,,,,,,,,,,,,,10055
56,Gminny Ośrodek Zdrowia w Mściwojowie,Mściwojów nan,Mściwojów,Powiat Jaworski,59-407,,51.0443735,16.2780295,False,,,,,,,,,,,,,,,,,,,,,,,,,,,,,,,,,,,,,,,,,,,,,,,,,,,,,,,,,,,,,,,,,,,,,,,,,,,,,,,,10056
57,Grupowa Praktyka Lekarzy Rodzinnych Familia,Wiejska 20,Siemianowice Śląskie,Siemianowice Śląskie,41-100,,50.3335175,19.0513529,False,,,,,,,,,,,,,,,,,,,,,,,,,,,,,,,,,,,,,,,,,,,,,,,,,,,,,,,,,,,,,,,,,,,,,,,,,,,,,,,,10057
58,Halluxmed,nan nan,Komorniki,Powiat Poznański,62-052,,52.3371215,16.8212082,False,,,,,,,,,,,,,,,,,,,,,,,,,,,,,,,,,,,,,,,,,,,,,,,,,,,,,,,,,,,,,,,,,,,,,,,,,,,,,,,,10058
59,Hipokrates,Wągrowiecka 4A,Skoki,Powiat Wągrowiecki,62-085,+48 61 892 51 91,52.671722,17.1579822,False,,,,,,,,,,,,,,,,,,,,,,,,,,,,,,,,,,,,,,,,,,,,,,,,,,,,,,,,,,,,,,,,,,,,,,,,,,,,,,,,10059
60,Instytut Hematologii i Transfuzjologii,Indiry Gandhi 14,Warszawa,Warszawa,02-781,+48 22 3496100,52.1454246,21.0324597,False,,,,,,,,,,,,,,,,,,,,,,,,,,,,,,,,,,,,,,,,,,,,,,,,,,,,,,,,,,,,,,,,,,,,,,,,,,,,,,,,10060
61,Instytut Medyczny im. Jana Pawła II,nan nan,Szczecin,Szczecin,70-560,+48 91 454 00 52,53.4419946,14.5516583,False,,,,,,,,,,,,,,,,,,,,,,,,,,,,,,,,,,,,,,,,,,,,,,,,,,,,,,,,,,,,,,,,,,,,,,,,,,,,,,,,10061
62,Intermedicatus,Bolesława Krzywoustego 2,Twardogóra,Powiat Oleśnicki,56-416,,51.3670339,17.4669463,False,,,,,,,,,,,,,,,,,,,,,,,,,,,,,,,,,,,,,,,,,,,,,,,,,,,,,,,,,,,,,,,,,,,,,,,,,,,,,,,,10062
63,KORLAB Laboratoria Medyczne sp. z o.o.,Ludwika Solskiego 15,Ruda Śląska,Ruda Śląska,41-710,,50.3150897,18.8751279,False,,,,,,,,,,,,,,,,,,,,,,,,,,,,,,,,,,,,,,,,,,,,,,,,,,,,,,,,,,,,,,,,,,,,,,,,,,,,,,,,10063
64,Kalmedica,Częstochowska 71-75,Kalisz,Kalisz,62-800,,51.7466875,18.0956579,False,,,,,,,,,,,,,,,,,,,,,,,,,,,,,,,,,,,,,,,,,,,,,,,,,,,,,,,,,,,,,,,,,,,,,,,,,,,,,,,,10064
65,Katedra i Klinika Chemii Medycznej,Wojciecha Oczki 3,Warszawa,Warszawa,02-066,,52.2239239,20.9994555,False,,,,,,,,,,,,,,,,,,,,,,,,,,,,,,,,,,,,,,,,,,,,,,,,,,,,,,,,,,,,,,,,,,,,,,,,,,,,,,,,10065
66,Katedra i Klinika Ortopedii i Traumatologii Narządu Ruchu,Williama Heerleina Lindleya 4,Warszawa,Warszawa,02-066,,52.2247508,20.99718,False,,,,,,,,,,,,,,,,,,,,,,,,,,,,,,,,,,,,,,,,,,,,,,,,,,,,,,,,,,,,,,,,,,,,,,,,,,,,,,,,10066
67,Kliniczne Centrum Medyczne,Plac Tadeusza Kościuszki 28,Aleksandrów Łódzki,Powiat Zgierski,95-070,+48882137147,51.8199962,19.302344,False,,,,,,,,,,,,,,,,,,,,,,,,,,,,,,,,,,,,,,,,,,,,,,,,,,,,,,,,,,,,,,,,,,,,,,,,,,,,,,,,10067
68,Klinika Bocian,Akademicka 26,Białystok,Białystok,15-007,,53.1285108,23.1614163,False,,,,,,,,,,,,,,,,,,,,,,,,,,,,,,,,,,,,,,,,,,,,,,,,,,,,,,,,,,,,,,,,,,,,,,,,,,,,,,,,10068
69,"Klinika Chirurgii Czaszkowo-Szczękowo-Twarzowej, Chirurgii Jamy Ustnej i Implantologii",Nowogrodzka 59C,Warszawa,Warszawa,02-066,,52.2250375,20.9990375,False,,,,,,,,,,,,,,,,,,,,,,,,,,,,,,,,,,,,,,,,,,,,,,,,,,,,,,,,,,,,,,,,,,,,,,,,,,,,,,,,10069
70,Klinika Chirurgii Ogólnej i Transplantacyjnej,Tytusa Chałubińskiego 59,Warszawa,Warszawa,02-066,,52.2252206,21.0020523,False,,,,,,,,,,,,,,,,,,,,,,,,,,,,,,,,,,,,,,,,,,,,,,,,,,,,,,,,,,,,,,,,,,,,,,,,,,,,,,,,10070
71,Klinika Chorób Wewnętrznych i Kardiologii,Nowogrodzka 59B,Warszawa,Warszawa,02-066,,52.2251919,20.9997392,False,,,,,,,,,,,,,,,,,,,,,,,,,,,,,,,,,,,,,,,,,,,,,,,,,,,,,,,,,,,,,,,,,,,,,,,,,,,,,,,,10071
72,Klinika Dermatologiczna WUM,Koszykowa 82A,Warszawa,Warszawa,02-066,,52.2234106,20.9994805,False,,,,,,,,,,,,,,,,,,,,,,,,,,,,,,,,,,,,,,,,,,,,,,,,,,,,,,,,,,,,,,,,,,,,,,,,,,,,,,,,10072
73,Klinika Grunwaldzka,Grunwaldzka 324,Poznań,Poznań,60-161,,52.3839442,16.8375532,False,,,,,,,,,,,,,,,,,,,,,,,,,,,,,,,,,,,,,,,,,,,,,,,,,,,,,,,,,,,,,,,,,,,,,,,,,,,,,,,,10073
74,Klinika Okulistyki,Nowogrodzka 59E,Warszawa,Warszawa,02-066,,52.2248487,20.9983858,False,,,,,,,,,,,,,,,,,,,,,,,,,,,,,,,,,,,,,,,,,,,,,,,,,,,,,,,,,,,,,,,,,,,,,,,,,,,,,,,,10074
75,Klinika Renesansowa,Renesansowa 5A,Warszawa,Warszawa,01-922,,52.2755494,20.937212,False,,,,,,,,,,,,,,,,,,,,,,,,,,,,,,,,,,,,,,,,,,,,,,,,,,,,,,,,,,,,,,,,,,,,,,,,,,,,,,,,10075
76,Klinika Urologii,Wojciecha Oczki 6C,Warszawa,Warszawa,02-066,,52.2247779,20.9989413,False,,,,,,,,,,,,,,,,,,,,,,,,,,,,,,,,,,,,,,,,,,,,,,,,,,,,,,,,,,,,,,,,,,,,,,,,,,,,,,,,10076
77,Klinika okulistyczna VITA-MED,Legnicka 5,Głogów,Powiat Głogowski,67-200,,51.6497701,16.0807762,False,,,,,,,,,,,,,,,,,,,,,,,,,,,,,,,,,,,,,,,,,,,,,,,,,,,,,,,,,,,,,,,,,,,,,,,,,,,,,,,,10077
78,Klinika położnictwa i ginekologii Instytutu Matki i Dziecka,nan nan,Warszawa,Warszawa,01-214,,52.225179,20.9726221,False,,,,,,,,,,,,,,,,,,,,,,,,,,,,,,,,,,,,,,,,,,,,,,,,,,,,,,,,,,,,,,,,,,,,,,,,,,,,,,,,10078
79,Laboratorium Analityki Medycznej,Wincentego Witosa 6,Knurów,Powiat Gliwicki,44-190,,50.2368171,18.6577419,False,,,,,,,,,,,,,,,,,,,,,,,,,,,,,,,,,,,,,,,,,,,,,,,,,,,,,,,,,,,,,,,,,,,,,,,,,,,,,,,,10079
80,Leśna. Przychodnia Rejonowa,Czerkaska nan,Bydgoszcz,Bydgoszcz,85-023,,53.13856,18.0299548,False,,,,,,,,,,,,,,,,,,,,,,,,,,,,,,,,,,,,,,,,,,,,,,,,,,,,,,,,,,,,,,,,,,,,,,,,,,,,,,,,10080
81,Lux-Med,Antoniego Chołoniewskiego 46,Bydgoszcz,Bydgoszcz,85-023,,53.1123633,18.0048223,False,,,,,,,,,,,,,,,,,,,,,,,,,,,,,,,,,,,,,,,,,,,,,,,,,,,,,,,,,,,,,,,,,,,,,,,,,,,,,,,,10081
82,LuxMed,nan nan,Łódź,Łódź,90-318,,51.7486517,19.4743033,False,,,,,,,,,,,,,,,,,,,,,,,,,,,,,,,,,,,,,,,,,,,,,,,,,,,,,,,,,,,,,,,,,,,,,,,,,,,,,,,,10082
83,MAR-VITA,Stefana Żeromskiego 9,Lębork,Powiat Lęborski,84-300,,54.5326452,17.7523834,False,,,,,,,,,,,,,,,,,,,,,,,,,,,,,,,,,,,,,,,,,,,,,,,,,,,,,,,,,,,,,,,,,,,,,,,,,,,,,,,,10083
84,MEDICOR,Pabianicka 252,Łódź,Łódź,93-358,,51.7069861,19.4241625,False,,,,,,,,,,,,,,,,,,,,,,,,,,,,,,,,,,,,,,,,,,,,,,,,,,,,,,,,,,,,,,,,,,,,,,,,,,,,,,,,10084
85,MaGra,Bartosza Głowackiego 16,Dębica,Powiat Dębicki,39-200,,50.0549858,21.4100418,False,,,,,,,,,,,,,,,,,,,,,,,,,,,,,,,,,,,,,,,,,,,,,,,,,,,,,,,,,,,,,,,,,,,,,,,,,,,,,,,,10085
86,Medcom,nan nan,Żórawina,Powiat Wrocławski,55-020,,50.9807074,17.0708811,False,,,,,,,,,,,,,,,,,,,,,,,,,,,,,,,,,,,,,,,,,,,,,,,,,,,,,,,,,,,,,,,,,,,,,,,,,,,,,,,,10086
87,Medica - Niepubliczny Zakład Opieki Zdrowotnej,Generała Władysława Sikorskiego 7,Łapy,Powiat Białostocki,18-100,,52.9929864,22.8878469,False,,,,,,,,,,,,,,,,,,,,,,,,,,,,,,,,,,,,,,,,,,,,,,,,,,,,,,,,,,,,,,,,,,,,,,,,,,,,,,,,10087
88,Medica Centrum Edward Kisiel,Aleja Zwycięstwa 11,Parczew,Powiat Parczewski,21-200,83 355 02 12,51.6400975,22.9126046,False,,,,,,,,,,,,,,,,,,,,,,,,,,,,,,,,,,,,,,,,,,,,,,,,,,,,,,,,,,,,,,,,,,,,,,,,,,,,,,,,10088
89,Medica. Niepubliczny Zakład Opieki Zdrowotnej Medycyny Rodzinnej w Bielsku Podlaskim,Jagiellońska 2,Bielsk Podlaski,Powiat Bielski,17-100,,52.7673695,23.1947317,False,,,,,,,,,,,,,,,,,,,,,,,,,,,,,,,,,,,,,,,,,,,,,,,,,,,,,,,,,,,,,,,,,,,,,,,,,,,,,,,,10089
90,Medican,Krakowska nan,Andrychów,Powiat Wadowicki,34-120,,49.856374,19.3314895,False,,,,,,,,,,,,,,,,,,,,,,,,,,,,,,,,,,,,,,,,,,,,,,,,,,,,,,,,,,,,,,,,,,,,,,,,,,,,,,,,10090
91,Medicover,Jerzego Waszyngtona 30,Białystok,Białystok,15-007,,53.1247742,23.1523318,False,,,,,,,,,,,,,,,,,,,,,,,,,,,,,,,,,,,,,,,,,,,,,,,,,,,,,,,,,,,,,,,,,,,,,,,,,,,,,,,,10091
92,Medicover,Puławska 278,Warszawa,Warszawa,02-849,,52.1510278,21.0170298,False,,,,,,,,,,,,,,,,,,,,,,,,,,,,,,,,,,,,,,,,,,,,,,,,,,,,,,,,,,,,,,,,,,,,,,,,,,,,,,,,10092
93,Meditrans,Generała Tadeusza Kościuszki 49,Ostrołęka,Ostrołęka,07-410,,53.0875383,21.5727852,False,,,,,,,,,,,,,,,,,,,,,,,,,,,,,,,,,,,,,,,,,,,,,,,,,,,,,,,,,,,,,,,,,,,,,,,,,,,,,,,,10093
94,Medix,Folwarczna 1,Turek,Powiat Turecki,62-700,,52.0091079,18.5063945,False,,,,,,,,,,,,,,,,,,,,,,,,,,,,,,,,,,,,,,,,,,,,,,,,,,,,,,,,,,,,,,,,,,,,,,,,,,,,,,,,10094
95,Medvit,Puławska 42B,Piaseczno,Powiat Piaseczyński,05-500,+48 22 716 51 00,52.0855535,21.0211333,False,,,,,,,,,,,,,,,,,,,,,,,,,,,,,,,,,,,,,,,,,,,,,,,,,,,,,,,,,,,,,,,,,,,,,,,,,,,,,,,,10095
96,Medvita,Romualda Traugutta 1,Lwówek Śląski,Powiat Lwówecki,59-600,,51.1099872,15.5843763,False,,,,,,,,,,,,,,,,,,,,,,,,,,,,,,,,,,,,,,,,,,,,,,,,,,,,,,,,,,,,,,,,,,,,,,,,,,,,,,,,10096
97,Miedziowe Centrum Zdrowia,Sportowa 1b,Głogów,Powiat Głogowski,67-200,,51.6538456,16.098765,False,,,,,,,,,,,,,,,,,,,,,,,,,,,,,,,,,,,,,,,,,,,,,,,,,,,,,,,,,,,,,,,,,,,,,,,,,,,,,,,,10097
98,Miejska Przychodnia Rejonowa nr 2,Armii Krajowej 34,Radomsko,Powiat Radomszczański,97-500,,51.0577595,19.4467765,False,,,,,,,,,,,,,,,,,,,,,,,,,,,,,,,,,,,,,,,,,,,,,,,,,,,,,,,,,,,,,,,,,,,,,,,,,,,,,,,,10098
99,Międzynarodowe Centrum Dializ Zabrze,nan nan,Zabrze,Zabrze,41-800,,50.3043926,18.7433983,False,,,,,,,,,,,,,,,,,,,,,,,,,,,,,,,,,,,,,,,,,,,,,,,,,,,,,,,,,,,,,,,,,,,,,,,,,,,,,,,,10099
100,"N.Z.O.Z. Instytut Zdrowia ""Centrum""",Teatralna 10,Sosnowiec,Sosnowiec,41-214,,50.2724086,19.1259304,False,,,,,,,,,,,,,,,,,,,,,,,,,,,,,,,,,,,,,,,,,,,,,,,,,,,,,,,,,,,,,,,,,,,,,,,,,,,,,,,,10100
101,NZOZ,nan 105,Kowala,Powiat Radomski,26-624,,51.3250384,21.0677779,False,,,,,,,,,,,,,,,,,,,,,,,,,,,,,,,,,,,,,,,,,,,,,,,,,,,,,,,,,,,,,,,,,,,,,,,,,,,,,,,,10101
102,"NZOZ ""Medicina"" Zuzanna Rejowska",nan 119,Stary Sącz,Powiat Nowosądecki,33-388,,49.5437708,20.5774228,False,,,,,,,,,,,,,,,,,,,,,,,,,,,,,,,,,,,,,,,,,,,,,,,,,,,,,,,,,,,,,,,,,,,,,,,,,,,,,,,,10102
103,"NZOZ ""Przychodnia""",Marszałka Józefa Piłsudskiego 34,Żelechów,Powiat Garwoliński,08-430,,51.8126058,21.9005297,False,,,,,,,,,,,,,,,,,,,,,,,,,,,,,,,,,,,,,,,,,,,,,,,,,,,,,,,,,,,,,,,,,,,,,,,,,,,,,,,,10103
104,"NZOZ ""ZDROWIE""",Jana Radwańskiego 6,Ostrów Mazowiecka,Powiat Ostrowski,07-300,,52.7981101,21.9072807,False,,,,,,,,,,,,,,,,,,,,,,,,,,,,,,,,,,,,,,,,,,,,,,,,,,,,,,,,,,,,,,,,,,,,,,,,,,,,,,,,10104
105,"NZOZ ""Zdrowie""",29 Stycznia 18,Zalewo,Powiat Iławski,14-230,,53.8461632,19.6000145,False,,,,,,,,,,,,,,,,,,,,,,,,,,,,,,,,,,,,,,,,,,,,,,,,,,,,,,,,,,,,,,,,,,,,,,,,,,,,,,,,10105
106,NZOZ - Twój Lekarz,Bielska 2a,Racibórz,Powiat Raciborski,47-400,+48324170200,50.0971094,18.2263469,False,,,,,,,,,,,,,,,,,,,,,,,,,,,,,,,,,,,,,,,,,,,,,,,,,,,,,,,,,,,,,,,,,,,,,,,,,,,,,,,,10106
107,NZOZ Centrum Medyczne Syberka,Zwycięstwa 30,Będzin,Powiat Będziński,42-500,,50.3235847,19.1200631,False,,,,,,,,,,,,,,,,,,,,,,,,,,,,,,,,,,,,,,,,,,,,,,,,,,,,,,,,,,,,,,,,,,,,,,,,,,,,,,,,10107
108,NZOZ Centrum Usług Medycznych,nan nan,Tarnowskie Góry,Powiat Tarnogórski,42-600,,50.4433017,18.8656737,False,,,,,,,,,,,,,,,,,,,,,,,,,,,,,,,,,,,,,,,,,,,,,,,,,,,,,,,,,,,,,,,,,,,,,,,,,,,,,,,,10108
109,NZOZ Eskulap,Władysława Broniewskiego 26a,Kamienna Góra,Powiat Kamiennogórski,58-400,,50.7830144,16.0290044,False,,,,,,,,,,,,,,,,,,,,,,,,,,,,,,,,,,,,,,,,,,,,,,,,,,,,,,,,,,,,,,,,,,,,,,,,,,,,,,,,10109
110,NZOZ Eskulap,Adama Mickiewicza 1,Gołuchów,Powiat Pleszewski,63-322,,51.8493504,17.9287061,False,,,,,,,,,,,,,,,,,,,,,,,,,,,,,,,,,,,,,,,,,,,,,,,,,,,,,,,,,,,,,,,,,,,,,,,,,,,,,,,,10110
111,NZOZ Eskulap,nan nan,Koluszki,Powiat Łódzki Wschodni,95-041,,51.732255,19.7243528,False,,,,,,,,,,,,,,,,,,,,,,,,,,,,,,,,,,,,,,,,,,,,,,,,,,,,,,,,,,,,,,,,,,,,,,,,,,,,,,,,10111
112,NZOZ Euroklinika,Stolarska 17,Katowice,Katowice,40-022,,50.2272987,18.9536452,False,,,,,,,,,,,,,,,,,,,,,,,,,,,,,,,,,,,,,,,,,,,,,,,,,,,,,,,,,,,,,,,,,,,,,,,,,,,,,,,,10112
113,NZOZ HOMED,Ignacego Paderewskiego 14,Głogów Małopolski,Powiat Rzeszowski,36-060,,50.1421046,21.97106,False,,,,,,,,,,,,,,,,,,,,,,,,,,,,,,,,,,,,,,,,,,,,,,,,,,,,,,,,,,,,,,,,,,,,,,,,,,,,,,,,10113
114,NZOZ Karkonoskie Centrum Medyczne,Bankowa 5/7,Jelenia Góra,Jelenia Góra,58-500,,50.9020215,15.7371967,False,,,,,,,,,,,,,,,,,,,,,,,,,,,,,,,,,,,,,,,,,,,,,,,,,,,,,,,,,,,,,,,,,,,,,,,,,,,,,,,,10114
115,NZOZ Karkonoskie Centrum Medyczne,Bankowa 5/7,Jelenia Góra,Jelenia Góra,58-500,,50.9020235,15.7372013,False,,,,,,,,,,,,,,,,,,,,,,,,,,,,,,,,,,,,,,,,,,,,,,,,,,,,,,,,,,,,,,,,,,,,,,,,,,,,,,,,10115
116,NZOZ Karmelicka,Karmelicka 26,Warszawa,Warszawa,00-187,,52.2509578,20.9896804,False,,,,,,,,,,,,,,,,,,,,,,,,,,,,,,,,,,,,,,,,,,,,,,,,,,,,,,,,,,,,,,,,,,,,,,,,,,,,,,,,10116
117,NZOZ Lecznica Imienia Świętego Łazarza,Hetmana Jana Karola Chodkiewicza 23,Racibórz,Powiat Raciborski,47-400,+4832 419 08 88,50.0870154,18.1982298,False,,,,,,,,,,,,,,,,,,,,,,,,,,,,,,,,,,,,,,,,,,,,,,,,,,,,,,,,,,,,,,,,,,,,,,,,,,,,,,,,10117
118,NZOZ Lopit,Jelenia 1a,Zielona Góra,Zielona Góra,65-052,,51.9425327,15.500409,False,,,,,,,,,,,,,,,,,,,,,,,,,,,,,,,,,,,,,,,,,,,,,,,,,,,,,,,,,,,,,,,,,,,,,,,,,,,,,,,,10118
119,NZOZ MEDICA,Majora Bolesława Zagórnego 21a,Będzin,Powiat Będziński,42-500,,50.3500431,19.084621,False,,,,,,,,,,,,,,,,,,,,,,,,,,,,,,,,,,,,,,,,,,,,,,,,,,,,,,,,,,,,,,,,,,,,,,,,,,,,,,,,10119
120,NZOZ MEDiFARM,Armii Krajowej 32,Radomsko,Powiat Radomszczański,97-500,,51.0578493,19.4462811,False,,,,,,,,,,,,,,,,,,,,,,,,,,,,,,,,,,,,,,,,,,,,,,,,,,,,,,,,,,,,,,,,,,,,,,,,,,,,,,,,10120
121,NZOZ Med-Star,Radomska 35,Starachowice,Powiat Starachowicki,27-200,,51.0593555,21.0672418,False,,,,,,,,,,,,,,,,,,,,,,,,,,,,,,,,,,,,,,,,,,,,,,,,,,,,,,,,,,,,,,,,,,,,,,,,,,,,,,,,10121
122,NZOZ Medicus X,Apteczna 8A,Skarżysko-Kamienna,Powiat Skarżyski,26-100,,51.113463,20.8560961,False,,,,,,,,,,,,,,,,,,,,,,,,,,,,,,,,,,,,,,,,,,,,,,,,,,,,,,,,,,,,,,,,,,,,,,,,,,,,,,,,10122
123,NZOZ Medyk,nan nan,Będzin,Powiat Będziński,42-500,,50.3197425,19.1387074,False,,,,,,,,,,,,,,,,,,,,,,,,,,,,,,,,,,,,,,,,,,,,,,,,,,,,,,,,,,,,,,,,,,,,,,,,,,,,,,,,10123
124,NZOZ Neuro-Med,Marii Skłodowskiej-Curie 12a,Racibórz,Powiat Raciborski,47-400,32 414969395,50.0799927,18.208904,False,,,,,,,,,,,,,,,,,,,,,,,,,,,,,,,,,,,,,,,,,,,,,,,,,,,,,,,,,,,,,,,,,,,,,,,,,,,,,,,,10124
125,NZOZ Ośrodek Zdrowia w Lipsku,nan 239,Zamość (Gmina),Powiat Zamojski,22-400,,50.6586771,23.2411472,False,,,,,,,,,,,,,,,,,,,,,,,,,,,,,,,,,,,,,,,,,,,,,,,,,,,,,,,,,,,,,,,,,,,,,,,,,,,,,,,,10125
126,NZOZ PRZYCHODNIA ALMA-MED,Ignacego Paderewskiego 70,Gliwice,Gliwice,44-100,32 279 50 17,50.3193649,18.6907553,False,,,,,,,,,,,,,,,,,,,,,,,,,,,,,,,,,,,,,,,,,,,,,,,,,,,,,,,,,,,,,,,,,,,,,,,,,,,,,,,,10126
127,NZOZ Przychodnia Nr 1 Optima Sp. z o. o.,Wojska Polskiego 4,Tychy,Tychy,43-100,+48 32 327 00 90,50.1323709,18.9693328,False,,,,,,,,,,,,,,,,,,,,,,,,,,,,,,,,,,,,,,,,,,,,,,,,,,,,,,,,,,,,,,,,,,,,,,,,,,,,,,,,10127
128,"NZOZ Przychodnia „Studzienna""",Stanisława Moniuszki 24,Racibórz,Powiat Raciborski,47-400,,50.0689053,18.2007587,False,,,,,,,,,,,,,,,,,,,,,,,,,,,,,,,,,,,,,,,,,,,,,,,,,,,,,,,,,,,,,,,,,,,,,,,,,,,,,,,,10128
129,NZOZ Raciborskie Centrum Medyczne,nan nan,Racibórz,Powiat Raciborski,47-400,+4832 45 45 985,50.1024114,18.2033008,False,,,,,,,,,,,,,,,,,,,,,,,,,,,,,,,,,,,,,,,,,,,,,,,,,,,,,,,,,,,,,,,,,,,,,,,,,,,,,,,,10129
130,NZOZ SALUS S.C,Wiejska 44,Dolice,Powiat Stargardzki,73-115,+48915640383,53.1867579,15.2058251,False,,,,,,,,,,,,,,,,,,,,,,,,,,,,,,,,,,,,,,,,,,,,,,,,,,,,,,,,,,,,,,,,,,,,,,,,,,,,,,,,10130
131,NZOZ Sanus,Kościuszki 5,Pszczyna,Powiat Pszczyński,43-200,322103158,49.9746092,18.9468755,False,,,,,,,,,,,,,,,,,,,,,,,,,,,,,,,,,,,,,,,,,,,,,,,,,,,,,,,,,,,,,,,,,,,,,,,,,,,,,,,,10131
132,"NZOZ Zakład Opiekuńczo-Leczniczy ""Dom Rodzinny""",Przytorowa 1,Nowy Dwór Mazowiecki,Powiat Nowodworski,05-100,,52.4248507,20.7210563,False,,,,,,,,,,,,,,,,,,,,,,,,,,,,,,,,,,,,,,,,,,,,,,,,,,,,,,,,,,,,,,,,,,,,,,,,,,,,,,,,10132
133,NZOZ Zdrowie,Janowska 15,Pietrowice Wielkie,Powiat Raciborski,47-480,+4832 419 80 24,50.0825681,18.0959575,False,,,,,,,,,,,,,,,,,,,,,,,,,,,,,,,,,,,,,,,,,,,,,,,,,,,,,,,,,,,,,,,,,,,,,,,,,,,,,,,,10133
134,NZOZ Zdrowie - Filia Krowiarki,Wyzwolenia 60,Pietrowice Wielkie,Powiat Raciborski,47-494,+4832 419 83 28,50.1331733,18.0762895,False,,,,,,,,,,,,,,,,,,,,,,,,,,,,,,,,,,,,,,,,,,,,,,,,,,,,,,,,,,,,,,,,,,,,,,,,,,,,,,,,10134
135,NZOZ w Żółkiewce,Hetmana Żółkiewskiego 18,Żółkiewka,Powiat Krasnostawski,22-335,,50.9108052,22.8364836,False,,,,,,,,,,,,,,,,,,,,,,,,,,,,,,,,,,,,,,,,,,,,,,,,,,,,,,,,,,,,,,,,,,,,,,,,,,,,,,,,10135
136,"NZOZ „Alfa"" Centrum Ortopedii i Traumatologii",Ogrodniczki 51,Białystok,Białystok,15-007,,53.1445305,23.1247731,False,,,,,,,,,,,,,,,,,,,,,,,,,,,,,,,,,,,,,,,,,,,,,,,,,,,,,,,,,,,,,,,,,,,,,,,,,,,,,,,,10136
137,Nasz Lekarz,Łazienna 30,Toruń,Toruń,87-100,,53.0101338,18.6067546,False,,,,,,,,,,,,,,,,,,,,,,,,,,,,,,,,,,,,,,,,,,,,,,,,,,,,,,,,,,,,,,,,,,,,,,,,,,,,,,,,10137
138,"Niepubliczna Poradnia Lekarska ""Zdrowie""",Pokoju 91,Będzin,Powiat Będziński,42-500,,50.3576862,19.14068,False,,,,,,,,,,,,,,,,,,,,,,,,,,,,,,,,,,,,,,,,,,,,,,,,,,,,,,,,,,,,,,,,,,,,,,,,,,,,,,,,10138
139,Niepubliczny Ośrodek Opieki Zdrowotnej NEX-MEDICAL,Kolejowa 19,Świebodzice,Powiat Świdnicki,58-160,+48 74 854 40 89,50.8596136,16.3294844,False,,,,,,,,,,,,,,,,,,,,,,,,,,,,,,,,,,,,,,,,,,,,,,,,,,,,,,,,,,,,,,,,,,,,,,,,,,,,,,,,10139
140,"Niepubliczny Ośrodek Zdrowia ""BER-MED"" w Wieliszewie",Niepodległości 85a,Wieliszew,Powiat Legionowski,05-135,,52.458092,20.9537984,False,,,,,,,,,,,,,,,,,,,,,,,,,,,,,,,,,,,,,,,,,,,,,,,,,,,,,,,,,,,,,,,,,,,,,,,,,,,,,,,,10140
141,"Niepubliczny Samodzielny ZOZ ""EŁ-MED"" Fundacji Pracowniczej Elektrowni ""Łagisza""",nan nan,Będzin,Powiat Będziński,42-500,,50.3483399,19.1367559,False,,,,,,,,,,,,,,,,,,,,,,,,,,,,,,,,,,,,,,,,,,,,,,,,,,,,,,,,,,,,,,,,,,,,,,,,,,,,,,,,10141
142,Niepubliczny Zakład Opieki Zdrowotnej,Sportowa 9,Łagiewniki,Powiat Dzierżoniowski,58-210,,50.7907844,16.8364082,False,,,,,,,,,,,,,,,,,,,,,,,,,,,,,,,,,,,,,,,,,,,,,,,,,,,,,,,,,,,,,,,,,,,,,,,,,,,,,,,,10142
143,Niepubliczny Zakład Opieki Zdrowotnej,Mogileńska 5,Barcin,Powiat Żniński,88-190,+48523833390,52.8559823,17.9406671,False,,,,,,,,,,,,,,,,,,,,,,,,,,,,,,,,,,,,,,,,,,,,,,,,,,,,,,,,,,,,,,,,,,,,,,,,,,,,,,,,10143
144,"Niepubliczny Zakład Opieki Zdrowotnej ""CENTRUM""",Międzyrzecka 66,Łuków,Powiat Łukowski,21-400,,51.9321752,22.3860146,False,,,,,,,,,,,,,,,,,,,,,,,,,,,,,,,,,,,,,,,,,,,,,,,,,,,,,,,,,,,,,,,,,,,,,,,,,,,,,,,,10144
145,"Niepubliczny Zakład Opieki Zdrowotnej ""Eskulap"" w Iwanowicach Dworskich",nan 68A,Iwanowice,Powiat Krakowski,32-095,,50.218872,19.9789427,False,,,,,,,,,,,,,,,,,,,,,,,,,,,,,,,,,,,,,,,,,,,,,,,,,,,,,,,,,,,,,,,,,,,,,,,,,,,,,,,,10145
146,"Niepubliczny Zakład Opieki Zdrowotnej ""Lub-Med"" w Lubniu",nan 475,Lubień,Powiat Myślenicki,32-433,,49.7151806,19.9764015,False,,,,,,,,,,,,,,,,,,,,,,,,,,,,,,,,,,,,,,,,,,,,,,,,,,,,,,,,,,,,,,,,,,,,,,,,,,,,,,,,10146
147,"Niepubliczny Zakład Opieki Zdrowotnej ""Przychodnia Obozisko""",nan nan,Radom,Radom,26-610,,51.4095188,21.1544313,False,,,,,,,,,,,,,,,,,,,,,,,,,,,,,,,,,,,,,,,,,,,,,,,,,,,,,,,,,,,,,,,,,,,,,,,,,,,,,,,,10147
148,"Niepubliczny Zakład Opieki Zdrowotnej ""Rehabilitacja""",Świętej Faustyny 6,Kraśnik,Powiat Kraśnicki,23-200,,50.9341587,22.2191691,False,,,,,,,,,,,,,,,,,,,,,,,,,,,,,,,,,,,,,,,,,,,,,,,,,,,,,,,,,,,,,,,,,,,,,,,,,,,,,,,,10148
149,Niepubliczny Zakład Opieki Zdrowotnej - QMEDIC,Stefana Żeromskiego 2,Dąbrowa Górnicza,Dąbrowa Górnicza,41-300,,50.32495,19.1778558,False,,,,,,,,,,,,,,,,,,,,,,,,,,,,,,,,,,,,,,,,,,,,,,,,,,,,,,,,,,,,,,,,,,,,,,,,,,,,,,,,10149
150,Niepubliczny Zakład Opieki Zdrowotnej DERMA,Biskupa Adama Śmigielskiego 2,Będzin,Powiat Będziński,42-500,,50.3197593,19.116314,False,,,,,,,,,,,,,,,,,,,,,,,,,,,,,,,,,,,,,,,,,,,,,,,,,,,,,,,,,,,,,,,,,,,,,,,,,,,,,,,,10150
151,Niepubliczny Zakład Opieki Zdrowotnej INMED,nan 231a,Tuchów,Powiat Tarnowski,33-172,,49.8694438,21.0095632,False,,,,,,,,,,,,,,,,,,,,,,,,,,,,,,,,,,,,,,,,,,,,,,,,,,,,,,,,,,,,,,,,,,,,,,,,,,,,,,,,10151
152,Niepubliczny Zakład Opieki Zdrowotnej Intermed,Niepodległości 28,Gryfino,Powiat Gryfiński,74-100,+48-91-4162041,53.2547439,14.4906494,False,,,,,,,,,,,,,,,,,,,,,,,,,,,,,,,,,,,,,,,,,,,,,,,,,,,,,,,,,,,,,,,,,,,,,,,,,,,,,,,,10152
153,Niepubliczny Zakład Opieki Zdrowotnej KAMEN Poradnia Medycyny Pracy,Generała Józefa Bema 2,Białystok,Białystok,15-007,,53.1263297,23.1495429,False,,,,,,,,,,,,,,,,,,,,,,,,,,,,,,,,,,,,,,,,,,,,,,,,,,,,,,,,,,,,,,,,,,,,,,,,,,,,,,,,10153
154,Niepubliczny Zakład Opieki Zdrowotnej MEDYK,Wojska Polskiego 5,Tczew,Powiat Tczewski,83-100,,54.0858876,18.7899644,False,,,,,,,,,,,,,,,,,,,,,,,,,,,,,,,,,,,,,,,,,,,,,,,,,,,,,,,,,,,,,,,,,,,,,,,,,,,,,,,,10154
155,Niepubliczny Zakład Opieki Zdrowotnej PIOMAR,nan 260,Wielopole Skrzyńskie,Powiat Ropczycko-Sędziszowski,39-110,+48172214816,49.9446372,21.6113015,False,,,,,,,,,,,,,,,,,,,,,,,,,,,,,,,,,,,,,,,,,,,,,,,,,,,,,,,,,,,,,,,,,,,,,,,,,,,,,,,,10155
156,Niepubliczny Zakład Opieki Zdrowotnej Poradnia Medycyny Rodzinnej - Śródmieście 3,Andrzeja Struga nan,Radom,Radom,26-610,48 36 406 77,51.4071615,21.1639923,False,,,,,,,,,,,,,,,,,,,,,,,,,,,,,,,,,,,,,,,,,,,,,,,,,,,,,,,,,,,,,,,,,,,,,,,,,,,,,,,,10156
157,"Niepubliczny Zakład Opieki Zdrowotnej Przychodnia Lekarska ""Med-Mydlice"" s. c.",Ludowa 7,Dąbrowa Górnicza,Dąbrowa Górnicza,41-300,,50.3155097,19.1672906,False,,,,,,,,,,,,,,,,,,,,,,,,,,,,,,,,,,,,,,,,,,,,,,,,,,,,,,,,,,,,,,,,,,,,,,,,,,,,,,,,10157
158,"Niepubliczny Zakład Opieki Zdrowotnej Przychodnia Lekarska ""WRZOSY""",Szosa Chełmińska 254/258,Toruń,Toruń,87-100,,53.046988,18.5779139,False,,,,,,,,,,,,,,,,,,,,,,,,,,,,,,,,,,,,,,,,,,,,,,,,,,,,,,,,,,,,,,,,,,,,,,,,,,,,,,,,10158
159,Niepubliczny Zakład Opieki Zdrowotnej Stadmedica,Nakielska 327,Bydgoszcz,Bydgoszcz,85-023,,53.133982,17.9142407,False,,,,,,,,,,,,,,,,,,,,,,,,,,,,,,,,,,,,,,,,,,,,,,,,,,,,,,,,,,,,,,,,,,,,,,,,,,,,,,,,10159
160,Niepubliczny Zakład Opieki Zdrowotnej św. Pawła,nan nan,Chorzów,Chorzów,41-506,,50.3085287,18.9448892,False,,,,,,,,,,,,,,,,,,,,,,,,,,,,,,,,,,,,,,,,,,,,,,,,,,,,,,,,,,,,,,,,,,,,,,,,,,,,,,,,10160
161,Niepubliczny Zakład Opiekuńczo-Leczniczy dla Przewlekle Chorych,nan nan,Radom,Radom,26-610,,51.3957351,21.1595408,False,,,,,,,,,,,,,,,,,,,,,,,,,,,,,,,,,,,,,,,,,,,,,,,,,,,,,,,,,,,,,,,,,,,,,,,,,,,,,,,,10161
162,"Niepubliczny Zakład Pielęgnacyjno Opiekuńczy ""Podlasie""",nan 15,Sokoły,Powiat Wysokomazowiecki,18-218,,52.9516548,22.7525735,False,,,,,,,,,,,,,,,,,,,,,,,,,,,,,,,,,,,,,,,,,,,,,,,,,,,,,,,,,,,,,,,,,,,,,,,,,,,,,,,,10162
163,Niepubliczny Zakład Podstawowej Opieki Zdrowotnej w Sulmierzycach,Krótka 1,Sulmierzyce,Powiat Krotoszyński,63-750,627223117,51.6054676,17.5394179,False,,,,,,,,,,,,,,,,,,,,,,,,,,,,,,,,,,,,,,,,,,,,,,,,,,,,,,,,,,,,,,,,,,,,,,,,,,,,,,,,10163
164,"Niepubliczny Zespół Opieki Zdrowotnej ""Rodzina""",Osiedle Ogrody 29,Ostrowiec Świętokrzyski,Powiat Ostrowiecki,27-400,+48 41 266 38 36,50.9445591,21.3982194,False,,,,,,,,,,,,,,,,,,,,,,,,,,,,,,,,,,,,,,,,,,,,,,,,,,,,,,,,,,,,,,,,,,,,,,,,,,,,,,,,10164
165,NoMag - Med,Juliusza Słowackiego nan,Lewin Brzeski,Powiat Brzeski,49-330,,50.7914873,17.5674191,False,,,,,,,,,,,,,,,,,,,,,,,,,,,,,,,,,,,,,,,,,,,,,,,,,,,,,,,,,,,,,,,,,,,,,,,,,,,,,,,,10165
166,Nova,Kłosowa 7,Kędzierzyn-Koźle,Powiat Kędzierzyńsko-Kozielski,47-200,,50.3509798,18.1628452,False,,,,,,,,,,,,,,,,,,,,,,,,,,,,,,,,,,,,,,,,,,,,,,,,,,,,,,,,,,,,,,,,,,,,,,,,,,,,,,,,10166
167,Novena Clinica,nan nan,Chełm,Chełm,22-100,,51.1466156,23.4558436,False,,,,,,,,,,,,,,,,,,,,,,,,,,,,,,,,,,,,,,,,,,,,,,,,,,,,,,,,,,,,,,,,,,,,,,,,,,,,,,,,10167
168,NovoMed,Bohaterów Katynia 25a/4,Częstochowa,Częstochowa,42-229,+48 34 366 3190,50.7728841,19.1511348,False,,,,,,,,,,,,,,,,,,,,,,,,,,,,,,,,,,,,,,,,,,,,,,,,,,,,,,,,,,,,,,,,,,,,,,,,,,,,,,,,10168
169,OKOmed,Uzdrowiskowa 82,Goczałkowice-Zdrój,Powiat Pszczyński,43-230,,49.9365866,18.9805729,False,,,,,,,,,,,,,,,,,,,,,,,,,,,,,,,,,,,,,,,,,,,,,,,,,,,,,,,,,,,,,,,,,,,,,,,,,,,,,,,,10169
170,OMP Lubin,Słoneczna 1,Lubin,Powiat Lubiński,59-300,,51.4015592,16.2030295,False,,,,,,,,,,,,,,,,,,,,,,,,,,,,,,,,,,,,,,,,,,,,,,,,,,,,,,,,,,,,,,,,,,,,,,,,,,,,,,,,10170
171,Obwód Lecznictwa Kolejowego SP ZOZ w Skarżysku-Kamiennej,Sokola 50,Skarżysko-Kamienna,Powiat Skarżyski,26-100,,51.1262609,20.8781205,False,,,,,,,,,,,,,,,,,,,,,,,,,,,,,,,,,,,,,,,,,,,,,,,,,,,,,,,,,,,,,,,,,,,,,,,,,,,,,,,,10171
172,Oddział Położniczo-Ginekologiczny,Krakowska nan,Bochnia,Powiat Bocheński,32-700,,49.966746,20.4208629,False,,,,,,,,,,,,,,,,,,,,,,,,,,,,,,,,,,,,,,,,,,,,,,,,,,,,,,,,,,,,,,,,,,,,,,,,,,,,,,,,10172
173,Odział Laryngologii,nan nan,Skierniewice,Skierniewice,96-100,,51.9626755,20.1511956,False,,,,,,,,,,,,,,,,,,,,,,,,,,,,,,,,,,,,,,,,,,,,,,,,,,,,,,,,,,,,,,,,,,,,,,,,,,,,,,,,10173
174,Odział Ortopedii,nan nan,Skierniewice,Skierniewice,96-100,,51.9631026,20.1519105,False,,,,,,,,,,,,,,,,,,,,,,,,,,,,,,,,,,,,,,,,,,,,,,,,,,,,,,,,,,,,,,,,,,,,,,,,,,,,,,,,10174
175,Odział Rechabilitacji,nan nan,Skierniewice,Skierniewice,96-100,,51.9630587,20.1511511,False,,,,,,,,,,,,,,,,,,,,,,,,,,,,,,,,,,,,,,,,,,,,,,,,,,,,,,,,,,,,,,,,,,,,,,,,,,,,,,,,10175
176,Ośrodek Medyczny Zdrowie,nan nan,Kraków,Kraków,30-418,,50.0194165,19.9266595,False,,,,,,,,,,,,,,,,,,,,,,,,,,,,,,,,,,,,,,,,,,,,,,,,,,,,,,,,,,,,,,,,,,,,,,,,,,,,,,,,10176
177,"Ośrodek Rehabilitacji Dzieci ""ZAWSZE RAZEM""",Osiedle Jana III Sobieskiego 109,Poznań,Poznań,60-681,,52.4626054,16.9102385,False,,,,,,,,,,,,,,,,,,,,,,,,,,,,,,,,,,,,,,,,,,,,,,,,,,,,,,,,,,,,,,,,,,,,,,,,,,,,,,,,10177
178,Ośrodek Rehabilitacji Psychospołecznej i Medycznej Osób Niepełnosprawnych z Poradnią Medycyny Paliatywnej,Strzałowska 27,Szczecin,Szczecin,70-560,+48-91-425-1564,53.4672343,14.5912115,False,,,,,,,,,,,,,,,,,,,,,,,,,,,,,,,,,,,,,,,,,,,,,,,,,,,,,,,,,,,,,,,,,,,,,,,,,,,,,,,,10178
179,Ośrodek Rehabilitacyjno - Edukacyjno - Wychowawczy,nan nan,Świdnica,Powiat Świdnicki,58-100,,50.8493816,16.4726725,False,,,,,,,,,,,,,,,,,,,,,,,,,,,,,,,,,,,,,,,,,,,,,,,,,,,,,,,,,,,,,,,,,,,,,,,,,,,,,,,,10179
180,Ośrodek Rehabilitacyjno – Edukacyjno – Wychowawczy,Czysta 7,Chorzów,Chorzów,41-506,,50.2851552,18.9473449,False,,,,,,,,,,,,,,,,,,,,,,,,,,,,,,,,,,,,,,,,,,,,,,,,,,,,,,,,,,,,,,,,,,,,,,,,,,,,,,,,10180
181,Ośrodek Zdrowia,nan 363,Strzyżów,Powiat Strzyżowski,38-100,,49.8407448,21.8198388,False,,,,,,,,,,,,,,,,,,,,,,,,,,,,,,,,,,,,,,,,,,,,,,,,,,,,,,,,,,,,,,,,,,,,,,,,,,,,,,,,10181
182,Ośrodek Zdrowia,nan nan,Rudna,Powiat Lubiński,59-305,,51.5108856,16.25911,False,,,,,,,,,,,,,,,,,,,,,,,,,,,,,,,,,,,,,,,,,,,,,,,,,,,,,,,,,,,,,,,,,,,,,,,,,,,,,,,,10182
183,Ośrodek Zdrowia,Podhalańska nan,Nowy Targ (Gmina),Powiat Nowotarski,34-471,,49.4634025,19.9793226,False,,,,,,,,,,,,,,,,,,,,,,,,,,,,,,,,,,,,,,,,,,,,,,,,,,,,,,,,,,,,,,,,,,,,,,,,,,,,,,,,10183
184,Ośrodek Zdrowia,Władysława Sikorskiego 40,Węgliniec,Powiat Zgorzelecki,59-940,,51.2887898,15.2191937,False,,,,,,,,,,,,,,,,,,,,,,,,,,,,,,,,,,,,,,,,,,,,,,,,,,,,,,,,,,,,,,,,,,,,,,,,,,,,,,,,10184
185,Ośrodek Zdrowia,Partyzantów 12,Ostrów Lubelski,Powiat Lubartowski,21-110,,51.4952939,22.8544342,False,,,,,,,,,,,,,,,,,,,,,,,,,,,,,,,,,,,,,,,,,,,,,,,,,,,,,,,,,,,,,,,,,,,,,,,,,,,,,,,,10185
186,Ośrodek Zdrowia,nan 545,Dobra,Powiat Limanowski,34-642,,49.7160533,20.2480231,False,,,,,,,,,,,,,,,,,,,,,,,,,,,,,,,,,,,,,,,,,,,,,,,,,,,,,,,,,,,,,,,,,,,,,,,,,,,,,,,,10186
187,Ośrodek Zdrowia,Księdza Jerzego Popiełuszki 42,Kraków,Kraków,30-864,,50.0152767,20.0410818,False,,,,,,,,,,,,,,,,,,,,,,,,,,,,,,,,,,,,,,,,,,,,,,,,,,,,,,,,,,,,,,,,,,,,,,,,,,,,,,,,10187
188,Ośrodek Zdrowia,nan nan,Mirzec,Powiat Starachowicki,27-220,,51.1375814,21.0574748,False,,,,,,,,,,,,,,,,,,,,,,,,,,,,,,,,,,,,,,,,,,,,,,,,,,,,,,,,,,,,,,,,,,,,,,,,,,,,,,,,10188
189,Ośrodek Zdrowia,nan nan,Rudniki,Powiat Oleski,46-325,,51.0139847,18.5699403,False,,,,,,,,,,,,,,,,,,,,,,,,,,,,,,,,,,,,,,,,,,,,,,,,,,,,,,,,,,,,,,,,,,,,,,,,,,,,,,,,10189
190,Ośrodek Zdrowia,nan 283,Dębno,Powiat Brzeski,32-853,,49.9346887,20.7363098,False,,,,,,,,,,,,,,,,,,,,,,,,,,,,,,,,,,,,,,,,,,,,,,,,,,,,,,,,,,,,,,,,,,,,,,,,,,,,,,,,10190
191,Ośrodek Zdrowia,nan 31,Zławieś Wielka,Powiat Toruński,87-134,,53.094958,18.3303215,False,,,,,,,,,,,,,,,,,,,,,,,,,,,,,,,,,,,,,,,,,,,,,,,,,,,,,,,,,,,,,,,,,,,,,,,,,,,,,,,,10191
192,Ośrodek Zdrowia,nan nan,Mszczonów,Powiat Żyrardowski,96-320,,51.9725985,20.5235443,False,,,,,,,,,,,,,,,,,,,,,,,,,,,,,,,,,,,,,,,,,,,,,,,,,,,,,,,,,,,,,,,,,,,,,,,,,,,,,,,,10192
193,"Ośrodek Zdrowia "" Rodzina """,Aleja Jana Pawła II 14,Iława,Powiat Iławski,14-200,,53.599663,19.5739966,False,,,,,,,,,,,,,,,,,,,,,,,,,,,,,,,,,,,,,,,,,,,,,,,,,,,,,,,,,,,,,,,,,,,,,,,,,,,,,,,,10193
194,Ośrodek Zdrowia Bralin,3 Maja 9,Bralin,Powiat Kępiński,63-640,,51.2860228,17.8998165,False,,,,,,,,,,,,,,,,,,,,,,,,,,,,,,,,,,,,,,,,,,,,,,,,,,,,,,,,,,,,,,,,,,,,,,,,,,,,,,,,10194
195,Ośrodek Zdrowia w Bierwcach,nan nan,Jedlińsk,Powiat Radomski,26-660,,51.5641716,21.1706879,False,,,,,,,,,,,,,,,,,,,,,,,,,,,,,,,,,,,,,,,,,,,,,,,,,,,,,,,,,,,,,,,,,,,,,,,,,,,,,,,,10195
196,Ośrodek Zdrowia w Kornowacu,Zacisze 27,Kornowac,Powiat Raciborski,44-285,,50.0759878,18.3152542,False,,,,,,,,,,,,,,,,,,,,,,,,,,,,,,,,,,,,,,,,,,,,,,,,,,,,,,,,,,,,,,,,,,,,,,,,,,,,,,,,10196
197,Ośrodek Zdrowia w Mrokowie,Józefa Górskiego 4,Lesznowola,Powiat Piaseczyński,05-552,,52.0388983,20.8584977,False,,,,,,,,,,,,,,,,,,,,,,,,,,,,,,,,,,,,,,,,,,,,,,,,,,,,,,,,,,,,,,,,,,,,,,,,,,,,,,,,10197
198,Ośrodek Zdrowia w Paszowicach,nan 260,Paszowice,Powiat Jaworski,59-411,,51.0192484,16.1663912,False,,,,,,,,,,,,,,,,,,,,,,,,,,,,,,,,,,,,,,,,,,,,,,,,,,,,,,,,,,,,,,,,,,,,,,,,,,,,,,,,10198
199,Ośrodek Zdrowia w Ruszowie,Żagańska 2,Węgliniec,Powiat Zgorzelecki,59-950,,51.3998255,15.1812486,False,,,,,,,,,,,,,,,,,,,,,,,,,,,,,,,,,,,,,,,,,,,,,,,,,,,,,,,,,,,,,,,,,,,,,,,,,,,,,,,,10199
200,Ośrodek Zdrowia w Różankach,Niepodległości 16,Kłodawa,Powiat Gorzowski,66-416,,52.7944939,15.3247777,False,,,,,,,,,,,,,,,,,,,,,,,,,,,,,,,,,,,,,,,,,,,,,,,,,,,,,,,,,,,,,,,,,,,,,,,,,,,,,,,,10200
201,Ośrodek Zdrowia w Strykowie,nan nan,Stryków,Powiat Zgierski,95-010,,51.9011969,19.59853,False,,,,,,,,,,,,,,,,,,,,,,,,,,,,,,,,,,,,,,,,,,,,,,,,,,,,,,,,,,,,,,,,,,,,,,,,,,,,,,,,10201
202,Ośrodek zdrowia,nan 210,Czarna,Powiat Łańcucki,37-100,,50.1183377,22.2328388,False,,,,,,,,,,,,,,,,,,,,,,,,,,,,,,,,,,,,,,,,,,,,,,,,,,,,,,,,,,,,,,,,,,,,,,,,,,,,,,,,10202
203,Ośrodek zdrowia Medyk,Opolska 30B,Niemodlin,Powiat Opolski,49-100,,50.6412976,17.6313194,False,,,,,,,,,,,,,,,,,,,,,,,,,,,,,,,,,,,,,,,,,,,,,,,,,,,,,,,,,,,,,,,,,,,,,,,,,,,,,,,,10203
204,PODOS Klinika Leczenia Ran,Ludwika Narbutta 46/48,Warszawa,Warszawa,02-554,,52.2060163,21.0109528,False,,,,,,,,,,,,,,,,,,,,,,,,,,,,,,,,,,,,,,,,,,,,,,,,,,,,,,,,,,,,,,,,,,,,,,,,,,,,,,,,10204
205,Panaceum,Stefana Batorego 28,Pszczyna,Powiat Pszczyński,43-200,32 212 86 66,49.9745028,18.9478513,False,,,,,,,,,,,,,,,,,,,,,,,,,,,,,,,,,,,,,,,,,,,,,,,,,,,,,,,,,,,,,,,,,,,,,,,,,,,,,,,,10205
206,Podlaskie Centrum Medyczne,Transportowa 4,Białystok,Białystok,15-007,+48 85 742 28 08,53.1130168,23.1236148,False,,,,,,,,,,,,,,,,,,,,,,,,,,,,,,,,,,,,,,,,,,,,,,,,,,,,,,,,,,,,,,,,,,,,,,,,,,,,,,,,10206
207,Pogotowie Ratunkowe,nan nan,Czechowice-Dziedzice,Powiat Bielski,43-502,,49.9124944,19.0115285,False,,,,,,,,,,,,,,,,,,,,,,,,,,,,,,,,,,,,,,,,,,,,,,,,,,,,,,,,,,,,,,,,,,,,,,,,,,,,,,,,10207
208,Pogotowie Ratunkowe,Wschodnia 23,Staszów,Powiat Staszowski,28-200,,50.5659129,21.1725302,False,,,,,,,,,,,,,,,,,,,,,,,,,,,,,,,,,,,,,,,,,,,,,,,,,,,,,,,,,,,,,,,,,,,,,,,,,,,,,,,,10208
209,Poliklinika Ginekologiczno-Położnicza Arciszewscy,Ludwika Zamenhofa 19,Białystok,Białystok,15-007,,53.1343674,23.1595026,False,,,,,,,,,,,,,,,,,,,,,,,,,,,,,,,,,,,,,,,,,,,,,,,,,,,,,,,,,,,,,,,,,,,,,,,,,,,,,,,,10209
210,Polmed,Startowa 1,Gdańsk,Gdańsk,80-461,,54.393248,18.5979955,False,,,,,,,,,,,,,,,,,,,,,,,,,,,,,,,,,,,,,,,,,,,,,,,,,,,,,,,,,,,,,,,,,,,,,,,,,,,,,,,,10210
211,Poradnia Chirurgii Stomatologicznej,Dębowa 1a,Gdańsk,Gdańsk,80-208,,54.3626209,18.630254,False,,,,,,,,,,,,,,,,,,,,,,,,,,,,,,,,,,,,,,,,,,,,,,,,,,,,,,,,,,,,,,,,,,,,,,,,,,,,,,,,10211
212,Poradnia Profilaktyki i Terapii Uzależnień,Srebrniki 9,Gdańsk,Gdańsk,80-254,,54.3757675,18.5779797,False,,,,,,,,,,,,,,,,,,,,,,,,,,,,,,,,,,,,,,,,,,,,,,,,,,,,,,,,,,,,,,,,,,,,,,,,,,,,,,,,10212
213,Poradnia urologiczna PROSTA-LITH,Jagiellońska 13,Kielce,Kielce,25-525,,50.8818612,20.6153014,False,,,,,,,,,,,,,,,,,,,,,,,,,,,,,,,,,,,,,,,,,,,,,,,,,,,,,,,,,,,,,,,,,,,,,,,,,,,,,,,,10213
214,Poradnie USK,Jerzego Waszyngtona 15A,Białystok,Białystok,15-007,,53.1243393,23.1571296,False,,,,,,,,,,,,,,,,,,,,,,,,,,,,,,,,,,,,,,,,,,,,,,,,,,,,,,,,,,,,,,,,,,,,,,,,,,,,,,,,10214
215,Promed,Księdza Marcina Załuskiego 86,Kobyłka,Powiat Wołomiński,05-230,,52.3415748,21.2126745,False,,,,,,,,,,,,,,,,,,,,,,,,,,,,,,,,,,,,,,,,,,,,,,,,,,,,,,,,,,,,,,,,,,,,,,,,,,,,,,,,10215
216,Provita,Bierutowska 63,Wrocław,Wrocław,51-315,,51.1517002,17.1297144,False,,,,,,,,,,,,,,,,,,,,,,,,,,,,,,,,,,,,,,,,,,,,,,,,,,,,,,,,,,,,,,,,,,,,,,,,,,,,,,,,10216
217,Prywatna Klinika,Józefa Pankiewicza 1,Opole,Opole,45-068,,50.7198472,17.9032654,False,,,,,,,,,,,,,,,,,,,,,,,,,,,,,,,,,,,,,,,,,,,,,,,,,,,,,,,,,,,,,,,,,,,,,,,,,,,,,,,,10217
218,Prywatna Klinika Okulistyczna OFTALMIKA,Modrzewiowa nan,Bydgoszcz,Bydgoszcz,85-023,,53.1445314,18.028463,False,,,,,,,,,,,,,,,,,,,,,,,,,,,,,,,,,,,,,,,,,,,,,,,,,,,,,,,,,,,,,,,,,,,,,,,,,,,,,,,,10218
219,Przychodnia,nan nan,Koszalin,Koszalin,75-007,,54.1931696,16.1947866,False,,,,,,,,,,,,,,,,,,,,,,,,,,,,,,,,,,,,,,,,,,,,,,,,,,,,,,,,,,,,,,,,,,,,,,,,,,,,,,,,10219
220,Przychodnia,Wojciecha Korfantego 3,Świętochłowice,Świętochłowice,41-605,,50.3014129,18.9126114,False,,,,,,,,,,,,,,,,,,,,,,,,,,,,,,,,,,,,,,,,,,,,,,,,,,,,,,,,,,,,,,,,,,,,,,,,,,,,,,,,10220
221,Przychodnia,nan nan,Brzeg Dolny,Powiat Wołowski,56-120,,51.2656538,16.7092552,False,,,,,,,,,,,,,,,,,,,,,,,,,,,,,,,,,,,,,,,,,,,,,,,,,,,,,,,,,,,,,,,,,,,,,,,,,,,,,,,,10221
222,Przychodnia,Zofii Nałkowskiej 1,Olkusz,Powiat Olkuski,32-300,,50.2649962,19.5697494,False,,,,,,,,,,,,,,,,,,,,,,,,,,,,,,,,,,,,,,,,,,,,,,,,,,,,,,,,,,,,,,,,,,,,,,,,,,,,,,,,10222
223,Przychodnia,Kronikarza Galla 24,Kraków,Kraków,30-074,,50.0719324,19.913737,False,,,,,,,,,,,,,,,,,,,,,,,,,,,,,,,,,,,,,,,,,,,,,,,,,,,,,,,,,,,,,,,,,,,,,,,,,,,,,,,,10223
224,Przychodnia,Radomska 36,Kraków,Kraków,31-421,,50.0832977,19.9601745,False,,,,,,,,,,,,,,,,,,,,,,,,,,,,,,,,,,,,,,,,,,,,,,,,,,,,,,,,,,,,,,,,,,,,,,,,,,,,,,,,10224
225,Przychodnia,Obiszowska 11,Jerzmanowa,Powiat Głogowski,67-222,,51.5945058,16.0491668,False,,,,,,,,,,,,,,,,,,,,,,,,,,,,,,,,,,,,,,,,,,,,,,,,,,,,,,,,,,,,,,,,,,,,,,,,,,,,,,,,10225
226,"Przychodnia ""ISKRA""",Jagiellońska 76B,Kielce,Kielce,25-525,+48 41 345 66 08,50.8688357,20.6020974,False,,,,,,,,,,,,,,,,,,,,,,,,,,,,,,,,,,,,,,,,,,,,,,,,,,,,,,,,,,,,,,,,,,,,,,,,,,,,,,,,10226
227,"Przychodnia ""Przy Belmie""",Łochowska 69,Białe Błota,Powiat Bydgoski,86-005,,53.1235183,17.8972667,False,,,,,,,,,,,,,,,,,,,,,,,,,,,,,,,,,,,,,,,,,,,,,,,,,,,,,,,,,,,,,,,,,,,,,,,,,,,,,,,,10227
228,Przychodnia (Niepubliczny Zakład Opieki Zdrowotnej Rodzina w Ostrowcu Świętokrzyskim),Osiedle Słoneczne 43,Ostrowiec Świętokrzyski,Powiat Ostrowiecki,27-400,+48 41 265 36 29,50.9462327,21.3892678,False,,,,,,,,,,,,,,,,,,,,,,,,,,,,,,,,,,,,,,,,,,,,,,,,,,,,,,,,,,,,,,,,,,,,,,,,,,,,,,,,10228
229,Przychodnia Ars Medica,Marii Konopnickiej 4,Świdnica,Powiat Świdnicki,58-100,+48 74 852 03 67,50.8445392,16.4855754,False,,,,,,,,,,,,,,,,,,,,,,,,,,,,,,,,,,,,,,,,,,,,,,,,,,,,,,,,,,,,,,,,,,,,,,,,,,,,,,,,10229
230,Przychodnia CEntrum Zdrowia,nan nan,Tomaszów Lubelski,Powiat Tomaszowski,22-600,,50.4445188,23.4183441,False,,,,,,,,,,,,,,,,,,,,,,,,,,,,,,,,,,,,,,,,,,,,,,,,,,,,,,,,,,,,,,,,,,,,,,,,,,,,,,,,10230
231,Przychodnia Chorób Zakaźnych,Wolska 37,Warszawa,Warszawa,01-214,,52.2342998,20.9718268,False,,,,,,,,,,,,,,,,,,,,,,,,,,,,,,,,,,,,,,,,,,,,,,,,,,,,,,,,,,,,,,,,,,,,,,,,,,,,,,,,10231
232,Przychodnia Ewa-Med,Bolesława Chrobrego 64a,Oława,Powiat Oławski,55-200,,50.9455657,17.3031891,False,,,,,,,,,,,,,,,,,,,,,,,,,,,,,,,,,,,,,,,,,,,,,,,,,,,,,,,,,,,,,,,,,,,,,,,,,,,,,,,,10232
233,Przychodnia FŁT - Kraśnik S. A.,Fabryczna 6,Kraśnik,Powiat Kraśnicki,23-200,,50.9653088,22.1771073,False,,,,,,,,,,,,,,,,,,,,,,,,,,,,,,,,,,,,,,,,,,,,,,,,,,,,,,,,,,,,,,,,,,,,,,,,,,,,,,,,10233
234,Przychodnia Halemba,Kłodnicka 59,Ruda Śląska,Ruda Śląska,41-710,,50.2401966,18.8536569,False,,,,,,,,,,,,,,,,,,,,,,,,,,,,,,,,,,,,,,,,,,,,,,,,,,,,,,,,,,,,,,,,,,,,,,,,,,,,,,,,10234
235,Przychodnia Hipokrates,Warszawska 30,Oława,Powiat Oławski,55-200,,50.9521409,17.2873455,False,,,,,,,,,,,,,,,,,,,,,,,,,,,,,,,,,,,,,,,,,,,,,,,,,,,,,,,,,,,,,,,,,,,,,,,,,,,,,,,,10235
236,Przychodnia Kolejowa nr 5,3 Maja 27,Szczecin,Szczecin,70-560,,53.4218184,14.5500692,False,,,,,,,,,,,,,,,,,,,,,,,,,,,,,,,,,,,,,,,,,,,,,,,,,,,,,,,,,,,,,,,,,,,,,,,,,,,,,,,,10236
237,Przychodnia Lekarska,Bydgoska 76,Toruń,Toruń,87-100,56 62 280 19,53.0105268,18.5790781,False,,,,,,,,,,,,,,,,,,,,,,,,,,,,,,,,,,,,,,,,,,,,,,,,,,,,,,,,,,,,,,,,,,,,,,,,,,,,,,,,10237
238,Przychodnia Lekarska Medicus,Adama Mickiewicza 21,Choroszcz,Powiat Białostocki,16-070,0048857191999,53.1449996,22.9912422,False,,,,,,,,,,,,,,,,,,,,,,,,,,,,,,,,,,,,,,,,,,,,,,,,,,,,,,,,,,,,,,,,,,,,,,,,,,,,,,,,10238
239,Przychodnia Lekarska Na Skarpie,Konstytucji 3 Maja 19a,Toruń,Toruń,87-100,,53.0241021,18.6807566,False,,,,,,,,,,,,,,,,,,,,,,,,,,,,,,,,,,,,,,,,,,,,,,,,,,,,,,,,,,,,,,,,,,,,,,,,,,,,,,,,10239
240,Przychodnia Lekarska SPZOZ,Tadeusza Kościuszki 9,Mińsk Mazowiecki,Powiat Miński,05-300,,52.1807093,21.55885,False,,,,,,,,,,,,,,,,,,,,,,,,,,,,,,,,,,,,,,,,,,,,,,,,,,,,,,,,,,,,,,,,,,,,,,,,,,,,,,,,10240
241,Przychodnia Lekarska w Ruciane-Nida,Polna 1,Ruciane-Nida,Powiat Piski,12-220,,53.6411181,21.5326521,False,,,,,,,,,,,,,,,,,,,,,,,,,,,,,,,,,,,,,,,,,,,,,,,,,,,,,,,,,,,,,,,,,,,,,,,,,,,,,,,,10241
242,Przychodnia Lekarza Rodzinnego Medyk,nan nan,Turek,Powiat Turecki,62-700,,52.0156483,18.5104569,False,,,,,,,,,,,,,,,,,,,,,,,,,,,,,,,,,,,,,,,,,,,,,,,,,,,,,,,,,,,,,,,,,,,,,,,,,,,,,,,,10242
243,"Przychodnia Lekarzy Rodzinnych ""Zdrowa Rodzina""",Opolska 58,Poznań,Poznań,61-435,,52.3660541,16.8942059,False,,,,,,,,,,,,,,,,,,,,,,,,,,,,,,,,,,,,,,,,,,,,,,,,,,,,,,,,,,,,,,,,,,,,,,,,,,,,,,,,10243
244,Przychodnia Medan,Henryka Sienkiewicza 8,Oława,Powiat Oławski,55-200,,50.9400687,17.2935842,False,,,,,,,,,,,,,,,,,,,,,,,,,,,,,,,,,,,,,,,,,,,,,,,,,,,,,,,,,,,,,,,,,,,,,,,,,,,,,,,,10244
245,Przychodnia Medica,11 Listopada 14,Oława,Powiat Oławski,55-200,,50.9406611,17.2960033,False,,,,,,,,,,,,,,,,,,,,,,,,,,,,,,,,,,,,,,,,,,,,,,,,,,,,,,,,,,,,,,,,,,,,,,,,,,,,,,,,10245
246,Przychodnia Medical,Wojska Polskiego 5A,Tczew,Powiat Tczewski,83-100,,54.0865614,18.7902119,False,,,,,,,,,,,,,,,,,,,,,,,,,,,,,,,,,,,,,,,,,,,,,,,,,,,,,,,,,,,,,,,,,,,,,,,,,,,,,,,,10246
247,Przychodnia Medycyny Pracy,nan nan,Radom,Radom,26-610,,51.4087651,21.1483643,False,,,,,,,,,,,,,,,,,,,,,,,,,,,,,,,,,,,,,,,,,,,,,,,,,,,,,,,,,,,,,,,,,,,,,,,,,,,,,,,,10247
248,Przychodnia Medycyny Rodzinnej Med-Dental s.c.,Harcerska 3,Ruda Śląska,Ruda Śląska,41-710,503 720 717,50.248269,18.8443971,False,,,,,,,,,,,,,,,,,,,,,,,,,,,,,,,,,,,,,,,,,,,,,,,,,,,,,,,,,,,,,,,,,,,,,,,,,,,,,,,,10248
249,Przychodnia Miejska,Władysława Jagiełły 2,Ścinawa,Powiat Lubiński,59-330,76 817 48 20,51.4147473,16.4293622,False,,,,,,,,,,,,,,,,,,,,,,,,,,,,,,,,,,,,,,,,,,,,,,,,,,,,,,,,,,,,,,,,,,,,,,,,,,,,,,,,10249
250,Przychodnia NOMED,nan nan,Oława,Powiat Oławski,55-200,,50.9484442,17.2982543,False,,,,,,,,,,,,,,,,,,,,,,,,,,,,,,,,,,,,,,,,,,,,,,,,,,,,,,,,,,,,,,,,,,,,,,,,,,,,,,,,10250
251,Przychodnia NORDMEDIC,Szkolna 1,Jastków,Powiat Lubelski,21-002,,51.3041228,22.4363713,False,,,,,,,,,,,,,,,,,,,,,,,,,,,,,,,,,,,,,,,,,,,,,,,,,,,,,,,,,,,,,,,,,,,,,,,,,,,,,,,,10251
252,Przychodnia NZOZ MEDAX,Adama Mickiewicza 29,Radomsko,Powiat Radomszczański,97-500,,51.0711778,19.4502908,False,,,,,,,,,,,,,,,,,,,,,,,,,,,,,,,,,,,,,,,,,,,,,,,,,,,,,,,,,,,,,,,,,,,,,,,,,,,,,,,,10252
253,Przychodnia Portowa,Energetyków 2,Szczecin,Szczecin,70-560,+48 91 44 12 147,53.4206416,14.5615631,False,,,,,,,,,,,,,,,,,,,,,,,,,,,,,,,,,,,,,,,,,,,,,,,,,,,,,,,,,,,,,,,,,,,,,,,,,,,,,,,,10253
254,Przychodnia Rejonowa,Karmelicka 5,Wadowice,Powiat Wadowicki,34-100,,49.8808694,19.4917741,False,,,,,,,,,,,,,,,,,,,,,,,,,,,,,,,,,,,,,,,,,,,,,,,,,,,,,,,,,,,,,,,,,,,,,,,,,,,,,,,,10254
255,Przychodnia Rejonowa,Tadeusza Kościuszki 54,Józefów,Powiat Biłgorajski,23-460,084-6878008,50.4812539,23.0545144,False,,,,,,,,,,,,,,,,,,,,,,,,,,,,,,,,,,,,,,,,,,,,,,,,,,,,,,,,,,,,,,,,,,,,,,,,,,,,,,,,10255
256,Przychodnia Rejonowa,Fabryczna 17,Głogów Małopolski,Powiat Rzeszowski,36-060,,50.1536383,21.9573586,False,,,,,,,,,,,,,,,,,,,,,,,,,,,,,,,,,,,,,,,,,,,,,,,,,,,,,,,,,,,,,,,,,,,,,,,,,,,,,,,,10256
257,Przychodnia Rejonowa,Ogrodowa 8,Wleń,Powiat Lwówecki,59-610,,51.015428,15.6734583,False,,,,,,,,,,,,,,,,,,,,,,,,,,,,,,,,,,,,,,,,,,,,,,,,,,,,,,,,,,,,,,,,,,,,,,,,,,,,,,,,10257
258,Przychodnia Rejonowa SPZOZ,nan nan,Świerzawa,Powiat Złotoryjski,58-540,,51.0176145,15.8892986,False,,,,,,,,,,,,,,,,,,,,,,,,,,,,,,,,,,,,,,,,,,,,,,,,,,,,,,,,,,,,,,,,,,,,,,,,,,,,,,,,10258
259,Przychodnia Rejonowa Samodzielny Publiczny Zakład Opieki Zdrowotnej,Jana Gierałtowskiego 29,Ruda Śląska,Ruda Śląska,41-710,,50.3199901,18.8518619,False,,,,,,,,,,,,,,,,,,,,,,,,,,,,,,,,,,,,,,,,,,,,,,,,,,,,,,,,,,,,,,,,,,,,,,,,,,,,,,,,10259
260,Przychodnia Rejonowa W Opocznie,Szpitalna 1,Opoczno,Powiat Opoczyński,26-300,44 754 48 33,51.3755824,20.2862205,False,,,,,,,,,,,,,,,,,,,,,,,,,,,,,,,,,,,,,,,,,,,,,,,,,,,,,,,,,,,,,,,,,,,,,,,,,,,,,,,,10260
261,Przychodnia Rejonowa nr 2,Aleksandra Putry 9,Suwałki,Suwałki,16-400,,54.1218222,22.9354024,False,,,,,,,,,,,,,,,,,,,,,,,,,,,,,,,,,,,,,,,,,,,,,,,,,,,,,,,,,,,,,,,,,,,,,,,,,,,,,,,,10261
262,Przychodnia Rejonowa nr 3,Apteczna 7,Skarżysko-Kamienna,Powiat Skarżyski,26-100,,51.1136183,20.8574696,False,,,,,,,,,,,,,,,,,,,,,,,,,,,,,,,,,,,,,,,,,,,,,,,,,,,,,,,,,,,,,,,,,,,,,,,,,,,,,,,,10262
263,Przychodnia Rejonowa w Złotoryi,nan nan,Złotoryja,Powiat Złotoryjski,59-500,,51.118878,15.9030978,False,,,,,,,,,,,,,,,,,,,,,,,,,,,,,,,,,,,,,,,,,,,,,,,,,,,,,,,,,,,,,,,,,,,,,,,,,,,,,,,,10263
264,Przychodnia Rejonowo Specjalistyczna,nan nan,Lesko,Powiat Leski,38-600,,49.4705924,22.3302748,False,,,,,,,,,,,,,,,,,,,,,,,,,,,,,,,,,,,,,,,,,,,,,,,,,,,,,,,,,,,,,,,,,,,,,,,,,,,,,,,,10264
265,Przychodnia Rejonowo – Specjalistyczna Nr 1 Myszków,Strażacka 45,Myszków,Powiat Myszkowski,42-300,,50.577514,19.3283478,False,,,,,,,,,,,,,,,,,,,,,,,,,,,,,,,,,,,,,,,,,,,,,,,,,,,,,,,,,,,,,,,,,,,,,,,,,,,,,,,,10265
266,"Przychodnia Rejonowo-Specjalistyczna ""Milowice""",Krzysztofa Kamila Baczyńskiego 14,Sosnowiec,Sosnowiec,41-214,,50.2903231,19.0788928,False,,,,,,,,,,,,,,,,,,,,,,,,,,,,,,,,,,,,,,,,,,,,,,,,,,,,,,,,,,,,,,,,,,,,,,,,,,,,,,,,10266
267,Przychodnia Rodzinna,Konstytucji 3 Maja 10c,Staszów,Powiat Staszowski,28-200,,50.5593759,21.1792391,False,,,,,,,,,,,,,,,,,,,,,,,,,,,,,,,,,,,,,,,,,,,,,,,,,,,,,,,,,,,,,,,,,,,,,,,,,,,,,,,,10267
268,Przychodnia Specjalistyczna,nan nan,Będzin,Powiat Będziński,42-500,,50.3241764,19.1319522,False,,,,,,,,,,,,,,,,,,,,,,,,,,,,,,,,,,,,,,,,,,,,,,,,,,,,,,,,,,,,,,,,,,,,,,,,,,,,,,,,10268
269,Przychodnia Zdrowia Skawina,Księdza Jerzego Popiełuszki 2A,Skawina,Powiat Krakowski,32-050,,49.9727109,19.82917,False,,,,,,,,,,,,,,,,,,,,,,,,,,,,,,,,,,,,,,,,,,,,,,,,,,,,,,,,,,,,,,,,,,,,,,,,,,,,,,,,10269
270,"Przychodnia Zespołu Lekarza Rodzinnego ""Medyk""",Franciszka Stawickiego 11,Turek,Powiat Turecki,62-700,+48632780180,52.0164568,18.5088158,False,,,,,,,,,,,,,,,,,,,,,,,,,,,,,,,,,,,,,,,,,,,,,,,,,,,,,,,,,,,,,,,,,,,,,,,,,,,,,,,,10270
271,Przychodnia lekarska,nan nan,Mykanów,Powiat Częstochowski,42-233,,50.9212656,19.1975016,False,,,,,,,,,,,,,,,,,,,,,,,,,,,,,,,,,,,,,,,,,,,,,,,,,,,,,,,,,,,,,,,,,,,,,,,,,,,,,,,,10271
272,Przychodnia lekarska,Kościuszkowców 10,Wałcz,Powiat Wałecki,78-600,,53.2726423,16.4677939,False,,,,,,,,,,,,,,,,,,,,,,,,,,,,,,,,,,,,,,,,,,,,,,,,,,,,,,,,,,,,,,,,,,,,,,,,,,,,,,,,10272
273,Przychodnia lekarska,Chełmska 13/17,Warszawa,Warszawa,00-762,,52.2021079,21.0447429,False,,,,,,,,,,,,,,,,,,,,,,,,,,,,,,,,,,,,,,,,,,,,,,,,,,,,,,,,,,,,,,,,,,,,,,,,,,,,,,,,10273
274,Przychodnia lekarska,Wojska Polskiego 18A,Sulików,Powiat Zgorzelecki,59-975,,51.0776631,15.0618045,False,,,,,,,,,,,,,,,,,,,,,,,,,,,,,,,,,,,,,,,,,,,,,,,,,,,,,,,,,,,,,,,,,,,,,,,,,,,,,,,,10274
275,Przychodnia lekarska,nan nan,Jastrzębia,Powiat Radomski,26-631,,51.5245398,21.1982253,False,,,,,,,,,,,,,,,,,,,,,,,,,,,,,,,,,,,,,,,,,,,,,,,,,,,,,,,,,,,,,,,,,,,,,,,,,,,,,,,,10275
276,Przychodnia lekarska,nan nan,Mikstat,Powiat Ostrzeszowski,63-510,,51.5305529,17.9697932,False,,,,,,,,,,,,,,,,,,,,,,,,,,,,,,,,,,,,,,,,,,,,,,,,,,,,,,,,,,,,,,,,,,,,,,,,,,,,,,,,10276
277,Przychodnia lekarska Salmed,Królowej Elżbiety 84,Świebodzice,Powiat Świdnicki,58-160,,50.8679475,16.3167199,False,,,,,,,,,,,,,,,,,,,,,,,,,,,,,,,,,,,,,,,,,,,,,,,,,,,,,,,,,,,,,,,,,,,,,,,,,,,,,,,,10277
278,Przychodnia nr 4 Prusa,Bolesława Prusa 1,Kielce,Kielce,25-525,+48 41 3614286,50.8491525,20.6253545,False,,,,,,,,,,,,,,,,,,,,,,,,,,,,,,,,,,,,,,,,,,,,,,,,,,,,,,,,,,,,,,,,,,,,,,,,,,,,,,,,10278
279,Przychodnia psychologiczno-pedagogiczna,nan nan,Turek,Powiat Turecki,62-700,,52.0190279,18.4976234,False,,,,,,,,,,,,,,,,,,,,,,,,,,,,,,,,,,,,,,,,,,,,,,,,,,,,,,,,,,,,,,,,,,,,,,,,,,,,,,,,10279
280,Przychodnia rejonowa nr 16,nan nan,Kielce,Kielce,25-525,,50.8907179,20.6692144,False,,,,,,,,,,,,,,,,,,,,,,,,,,,,,,,,,,,,,,,,,,,,,,,,,,,,,,,,,,,,,,,,,,,,,,,,,,,,,,,,10280
281,Przychodnia w gomunicach,Armii Krajowej 30,Gomunice,Powiat Radomszczański,97-545,+48 44 685 02 45;+48 44 684 24 85,51.1690807,19.4889644,False,,,,,,,,,,,,,,,,,,,,,,,,,,,,,,,,,,,,,,,,,,,,,,,,,,,,,,,,,,,,,,,,,,,,,,,,,,,,,,,,10281
282,"Przychodnia zdrowia ""Dworcowa""",Dworcowa 4,Gorzów Wielkopolski,Gorzów Wielkopolski,66-400,,52.729002,15.2294785,False,,,,,,,,,,,,,,,,,,,,,,,,,,,,,,,,,,,,,,,,,,,,,,,,,,,,,,,,,,,,,,,,,,,,,,,,,,,,,,,,10282
283,Przychodnia Świerczewo,Świerczewo 35,Przasnysz,Powiat Przasnyski,06-300,,53.022992,20.8862266,False,,,,,,,,,,,,,,,,,,,,,,,,,,,,,,,,,,,,,,,,,,,,,,,,,,,,,,,,,,,,,,,,,,,,,,,,,,,,,,,,10283
284,Przychodnia Świętego Jana,Jubileuszowa 42,Chorzów,Chorzów,41-506,+48881048810,50.2684633,18.9341114,False,,,,,,,,,,,,,,,,,,,,,,,,,,,,,,,,,,,,,,,,,,,,,,,,,,,,,,,,,,,,,,,,,,,,,,,,,,,,,,,,10284
285,Publiczna Przychodnia Nr 2,Legionów 104,Skarżysko-Kamienna,Powiat Skarżyski,26-100,+48 412524548,51.1028403,20.8561687,False,,,,,,,,,,,,,,,,,,,,,,,,,,,,,,,,,,,,,,,,,,,,,,,,,,,,,,,,,,,,,,,,,,,,,,,,,,,,,,,,10285
286,RUDAK-MED,nan nan,Toruń,Toruń,87-100,56 6547820,53.0011453,18.6418189,False,,,,,,,,,,,,,,,,,,,,,,,,,,,,,,,,,,,,,,,,,,,,,,,,,,,,,,,,,,,,,,,,,,,,,,,,,,,,,,,,10286
287,Regionalne Centrum Krwiodawstwa i Krwiolecznictwa,Kaszubska 9,Kalisz,Kalisz,62-800,,51.7699238,18.1034291,False,,,,,,,,,,,,,,,,,,,,,,,,,,,,,,,,,,,,,,,,,,,,,,,,,,,,,,,,,,,,,,,,,,,,,,,,,,,,,,,,10287
288,Regionalne Centrum Krwiodawstwa i Krwiolecznictwa,nan nan,Gdańsk,Gdańsk,80-208,+48 58 520 40 40;+48 58 520 40 10,54.365568,18.6287585,False,,,,,,,,,,,,,,,,,,,,,,,,,,,,,,,,,,,,,,,,,,,,,,,,,,,,,,,,,,,,,,,,,,,,,,,,,,,,,,,,10288
289,Regionalne Centrum Krwiodawstwa i Krwiolecznictwa,nan nan,Warszawa,Warszawa,03-914,,52.2332242,21.0603076,False,,,,,,,,,,,,,,,,,,,,,,,,,,,,,,,,,,,,,,,,,,,,,,,,,,,,,,,,,,,,,,,,,,,,,,,,,,,,,,,,10289
290,S-Medi,Mennicza 40,Cieszyn,Powiat Cieszyński,43-400,,49.7503694,18.6304928,False,,,,,,,,,,,,,,,,,,,,,,,,,,,,,,,,,,,,,,,,,,,,,,,,,,,,,,,,,,,,,,,,,,,,,,,,,,,,,,,,10290
291,SALUS,Handlowa 16,Kamieniec,Powiat Grodziski,64-061,,52.1624997,16.4540186,False,,,,,,,,,,,,,,,,,,,,,,,,,,,,,,,,,,,,,,,,,,,,,,,,,,,,,,,,,,,,,,,,,,,,,,,,,,,,,,,,10291
292,SP ZOZ Miejski Ośrodek Zdrowia w Świebodzicach,Aleje Lipowe 15,Świebodzice,Powiat Świdnicki,58-160,,50.8600529,16.3263322,False,,,,,,,,,,,,,,,,,,,,,,,,,,,,,,,,,,,,,,,,,,,,,,,,,,,,,,,,,,,,,,,,,,,,,,,,,,,,,,,,10292
293,SP ZOZ Przychodnia Rejonowa w Łapach,Janusza Korczaka 23,Łapy,Powiat Białostocki,18-100,,52.9876318,22.8674965,False,,,,,,,,,,,,,,,,,,,,,,,,,,,,,,,,,,,,,,,,,,,,,,,,,,,,,,,,,,,,,,,,,,,,,,,,,,,,,,,,10293
294,SPZOZ - SAMODZIELNY PUBLICZNY ZAKŁAD OPIEKI ZDROWOTNEJ,Szkolna 6,Bestwina,Powiat Bielski,43-512,,49.896633,19.0608857,False,,,,,,,,,,,,,,,,,,,,,,,,,,,,,,,,,,,,,,,,,,,,,,,,,,,,,,,,,,,,,,,,,,,,,,,,,,,,,,,,10294
295,SPZOZ Centrum Leczenia Dzieci i Młodzieży,Zamkowa 1C,Zabór,Powiat Zielonogórski,66-003,+48 68 327 40 28,51.9484971,15.7175771,False,,,,,,,,,,,,,,,,,,,,,,,,,,,,,,,,,,,,,,,,,,,,,,,,,,,,,,,,,,,,,,,,,,,,,,,,,,,,,,,,10295
296,SPZOZ Promyk,Bartosza Głowackiego 8A,Zielona Góra,Zielona Góra,65-052,,51.9283007,15.5058522,False,,,,,,,,,,,,,,,,,,,,,,,,,,,,,,,,,,,,,,,,,,,,,,,,,,,,,,,,,,,,,,,,,,,,,,,,,,,,,,,,10296
297,Salus,Stefana Żeromskiego 17,Mielec,Powiat Mielecki,39-300,+48 175863133,50.2895079,21.4353487,False,,,,,,,,,,,,,,,,,,,,,,,,,,,,,,,,,,,,,,,,,,,,,,,,,,,,,,,,,,,,,,,,,,,,,,,,,,,,,,,,10297
298,Samodzielny Publiczny Zakład Opieki Zdrowotnej,Kardynała Stefana Wyszyńskiego 6,Górzno,Powiat Garwoliński,08-404,,51.8452574,21.7100266,False,,,,,,,,,,,,,,,,,,,,,,,,,,,,,,,,,,,,,,,,,,,,,,,,,,,,,,,,,,,,,,,,,,,,,,,,,,,,,,,,10298
299,Samodzielny Publiczny Zakład Opieki Zdrowotnej,nan nan,Krościenko nad Dunajcem,Powiat Nowotarski,34-450,,49.4394474,20.4268231,False,,,,,,,,,,,,,,,,,,,,,,,,,,,,,,,,,,,,,,,,,,,,,,,,,,,,,,,,,,,,,,,,,,,,,,,,,,,,,,,,10299
300,Samodzielny Publiczny Zakład Opieki Zdrowotnej Warszawa-Ursynów,Kajakowa 12,Warszawa,Warszawa,02-840,,52.1301011,21.0190047,False,,,,,,,,,,,,,,,,,,,,,,,,,,,,,,,,,,,,,,,,,,,,,,,,,,,,,,,,,,,,,,,,,,,,,,,,,,,,,,,,10300
301,Samodzielny Publiczny Zakład Opieki Zdrowotnej Warszawa-Ursynów,Eugeniusza Romera 4,Warszawa,Warszawa,02-785,+48 22 643 04 97,52.1552092,21.0304552,False,,,,,,,,,,,,,,,,,,,,,,,,,,,,,,,,,,,,,,,,,,,,,,,,,,,,,,,,,,,,,,,,,,,,,,,,,,,,,,,,10301
302,Samodzielny Publiczny Zakład Opieki Zdrowotnej w Nałęczowie,Kolejowa 7,Nałęczów,Powiat Puławski,24-140,,51.2898067,22.2127945,False,,,,,,,,,,,,,,,,,,,,,,,,,,,,,,,,,,,,,,,,,,,,,,,,,,,,,,,,,,,,,,,,,,,,,,,,,,,,,,,,10302
303,Samodzielny Zespół Publicznych Zakładów Lecznictwa Otwartego,Otwocka 1,Warszawa,Warszawa,03-768,,52.2585018,21.0577632,False,,,,,,,,,,,,,,,,,,,,,,,,,,,,,,,,,,,,,,,,,,,,,,,,,,,,,,,,,,,,,,,,,,,,,,,,,,,,,,,,10303
304,Scanmed S.A.,Armii Krajowej 5,Kraków,Kraków,30-074,,50.0699496,19.9002344,False,,,,,,,,,,,,,,,,,,,,,,,,,,,,,,,,,,,,,,,,,,,,,,,,,,,,,,,,,,,,,,,,,,,,,,,,,,,,,,,,10304
305,Scapula s.c. Praktyka grupowa lekarzy,Wyzwolenia 2,Węgierska Górka,Powiat Żywiecki,34-350,,49.6096719,19.1264772,False,,,,,,,,,,,,,,,,,,,,,,,,,,,,,,,,,,,,,,,,,,,,,,,,,,,,,,,,,,,,,,,,,,,,,,,,,,,,,,,,10305
306,Servi-Med,nan nan,Gniezno,Powiat Gnieźnieński,62-200,,52.5413973,17.6186388,False,,,,,,,,,,,,,,,,,,,,,,,,,,,,,,,,,,,,,,,,,,,,,,,,,,,,,,,,,,,,,,,,,,,,,,,,,,,,,,,,10306
307,Sharley,Aleja Jana Pawła II 75,Warszawa,Warszawa,01-052,,52.2530679,20.9830695,False,,,,,,,,,,,,,,,,,,,,,,,,,,,,,,,,,,,,,,,,,,,,,,,,,,,,,,,,,,,,,,,,,,,,,,,,,,,,,,,,10307
308,SkinClinic,Stawki 4B lok. 3,Warszawa,Warszawa,00-187,+48 22 424 46 46,52.253802,20.9921952,False,,,,,,,,,,,,,,,,,,,,,,,,,,,,,,,,,,,,,,,,,,,,,,,,,,,,,,,,,,,,,,,,,,,,,,,,,,,,,,,,10308
309,Sport-klinika,Bankowa 2,Żory,Żory,44-240,,50.0294563,18.6997588,False,,,,,,,,,,,,,,,,,,,,,,,,,,,,,,,,,,,,,,,,,,,,,,,,,,,,,,,,,,,,,,,,,,,,,,,,,,,,,,,,10309
310,Stacja Dializ i Poradnia Nefrologiczno-Transplantacyjna,Wojciecha Oczki 6E,Warszawa,Warszawa,02-066,,52.2246108,20.9982905,False,,,,,,,,,,,,,,,,,,,,,,,,,,,,,,,,,,,,,,,,,,,,,,,,,,,,,,,,,,,,,,,,,,,,,,,,,,,,,,,,10310
311,Stomatologiczne Centrum Medyczne Uniwerystetu Medycznego w Lublinie,Karmelicka 7,Lublin,Lublin,20-115,,51.2491268,22.5641214,False,,,,,,,,,,,,,,,,,,,,,,,,,,,,,,,,,,,,,,,,,,,,,,,,,,,,,,,,,,,,,,,,,,,,,,,,,,,,,,,,10311
312,Szpital Rehabilitacyjno-Uzdrowiskowy Holmed Uzdrowisko,Uroczysko Pustelnia 1,Supraśl,Powiat Białostocki,16-030,,53.2205199,23.3254108,False,,,,,,,,,,,,,,,,,,,,,,,,,,,,,,,,,,,,,,,,,,,,,,,,,,,,,,,,,,,,,,,,,,,,,,,,,,,,,,,,10312
313,Szpital Rehabilitacyjny Świętego Karola Boromeusza,aleja Wyzwolenia 52,Szczecin,Szczecin,70-560,+48 603 319 951; +48 913114720,53.4407571,14.5521505,False,,,,,,,,,,,,,,,,,,,,,,,,,,,,,,,,,,,,,,,,,,,,,,,,,,,,,,,,,,,,,,,,,,,,,,,,,,,,,,,,10313
314,Teresa Fryda Laboratorium Medyczne,Mikołowska 53a,Katowice,Katowice,40-022,,50.2518994,19.0061597,False,,,,,,,,,,,,,,,,,,,,,,,,,,,,,,,,,,,,,,,,,,,,,,,,,,,,,,,,,,,,,,,,,,,,,,,,,,,,,,,,10314
315,"Trimed. NZOZ. Bednarczyk C., Smyczek K.",Szkolna 13a,Czerwionka-Leszczyny,Powiat Rybnicki,44-238,+48 32 431 56 75,50.1223029,18.6305422,False,,,,,,,,,,,,,,,,,,,,,,,,,,,,,,,,,,,,,,,,,,,,,,,,,,,,,,,,,,,,,,,,,,,,,,,,,,,,,,,,10315
316,Ubezpieczalnia,Bielska 37,Cieszyn,Powiat Cieszyński,43-400,,49.7492263,18.6428577,False,,,,,,,,,,,,,,,,,,,,,,,,,,,,,,,,,,,,,,,,,,,,,,,,,,,,,,,,,,,,,,,,,,,,,,,,,,,,,,,,10316
317,VITA Centrum Zdrowia,Doktora Władysława Borkowskiego 1,Starachowice,Powiat Starachowicki,27-200,+48 41 275 33 42,51.0502681,21.0692069,False,,,,,,,,,,,,,,,,,,,,,,,,,,,,,,,,,,,,,,,,,,,,,,,,,,,,,,,,,,,,,,,,,,,,,,,,,,,,,,,,10317
318,Vena,Starowiejska 17a,Andrychów,Powiat Wadowicki,34-120,,49.8583353,19.3464477,False,,,,,,,,,,,,,,,,,,,,,,,,,,,,,,,,,,,,,,,,,,,,,,,,,,,,,,,,,,,,,,,,,,,,,,,,,,,,,,,,10318
319,Villa Med Całodobowa Opieka Medyczna,Miłosna 24,Białystok,Białystok,15-007,,53.1338402,23.0840922,False,,,,,,,,,,,,,,,,,,,,,,,,,,,,,,,,,,,,,,,,,,,,,,,,,,,,,,,,,,,,,,,,,,,,,,,,,,,,,,,,10319
320,Virtus s.c.,Antoniuk Fabryczny 10,Białystok,Białystok,15-007,,53.1464253,23.1261446,False,,,,,,,,,,,,,,,,,,,,,,,,,,,,,,,,,,,,,,,,,,,,,,,,,,,,,,,,,,,,,,,,,,,,,,,,,,,,,,,,10320
321,Vulmed,Jasełkowa 6,Szczecin,Szczecin,70-560,+48 91 881 28 12,53.4846813,14.5842913,False,,,,,,,,,,,,,,,,,,,,,,,,,,,,,,,,,,,,,,,,,,,,,,,,,,,,,,,,,,,,,,,,,,,,,,,,,,,,,,,,10321
322,Wiejski Ośrodek Zdrowia,Medyczna 1,Sierpc (Gmina),Powiat Sierpecki,09-200,,52.7816788,19.7276586,False,,,,,,,,,,,,,,,,,,,,,,,,,,,,,,,,,,,,,,,,,,,,,,,,,,,,,,,,,,,,,,,,,,,,,,,,,,,,,,,,10322
323,Wojewódzka Poradnia Leczenia Zeza i Niedowidzenia,Jakuba Wejhera 12A,Gdańsk,Gdańsk,80-346,,54.4209957,18.5847925,False,,,,,,,,,,,,,,,,,,,,,,,,,,,,,,,,,,,,,,,,,,,,,,,,,,,,,,,,,,,,,,,,,,,,,,,,,,,,,,,,10323
324,Wojewódzki Zespół Specjalistycznej Opieki Zdrowotnej,nan nan,Wrocław,Wrocław,50-502,,51.106926,17.0459716,False,,,,,,,,,,,,,,,,,,,,,,,,,,,,,,,,,,,,,,,,,,,,,,,,,,,,,,,,,,,,,,,,,,,,,,,,,,,,,,,,10324
325,Wojewódzkie Centrum Onkologii,nan nan,Gdańsk,Gdańsk,80-208,,54.3662273,18.6278746,False,,,,,,,,,,,,,,,,,,,,,,,,,,,,,,,,,,,,,,,,,,,,,,,,,,,,,,,,,,,,,,,,,,,,,,,,,,,,,,,,10325
326,Wojskowa Specjalistyczna Przychodnia Lekarska,Generała Jana Henryka Dąbrowskiego 1,Toruń,Toruń,87-100,,53.0140328,18.6116293,False,,,,,,,,,,,,,,,,,,,,,,,,,,,,,,,,,,,,,,,,,,,,,,,,,,,,,,,,,,,,,,,,,,,,,,,,,,,,,,,,10326
327,Wojskowa Specjalistyczna Przychodnia Lekarska,Leona Szumana 2,Toruń,Toruń,87-100,,53.0129156,18.6101975,False,,,,,,,,,,,,,,,,,,,,,,,,,,,,,,,,,,,,,,,,,,,,,,,,,,,,,,,,,,,,,,,,,,,,,,,,,,,,,,,,10327
328,Wojskowy Ośrodek Medycyny Prewencyjnej,nan nan,Nowy Dwór Mazowiecki,Powiat Nowodworski,05-100,,52.4200757,20.740144,False,,,,,,,,,,,,,,,,,,,,,,,,,,,,,,,,,,,,,,,,,,,,,,,,,,,,,,,,,,,,,,,,,,,,,,,,,,,,,,,,10328
329,ZOZ Gminny Ośrodek Zdrowia,Śląska 27A,Wręczyca Wielka,Powiat Kłobucki,42-130,,50.8437799,18.917897,False,,,,,,,,,,,,,,,,,,,,,,,,,,,,,,,,,,,,,,,,,,,,,,,,,,,,,,,,,,,,,,,,,,,,,,,,,,,,,,,,10329
330,ZOZ Gminny Ośrodek Zdrowia,Śląska 27,Wręczyca Wielka,Powiat Kłobucki,42-130,+48 34 317 02 12,50.8436421,18.9181892,False,,,,,,,,,,,,,,,,,,,,,,,,,,,,,,,,,,,,,,,,,,,,,,,,,,,,,,,,,,,,,,,,,,,,,,,,,,,,,,,,10330
331,ZOZ Święta Katarzyna,Stefana Żeromskiego 1,Siechnice,Powiat Wrocławski,55-010,,51.0296497,17.1185589,False,,,,,,,,,,,,,,,,,,,,,,,,,,,,,,,,,,,,,,,,,,,,,,,,,,,,,,,,,,,,,,,,,,,,,,,,,,,,,,,,10331
332,Zachód. NZOZ. Przychodnia medycyny rodzinnej,Osiedle Zachód A17,Stargard,Powiat Stargardzki,73-110,,53.3402319,15.0118941,False,,,,,,,,,,,,,,,,,,,,,,,,,,,,,,,,,,,,,,,,,,,,,,,,,,,,,,,,,,,,,,,,,,,,,,,,,,,,,,,,10332
333,Zakład Lecznictwa Ambulatoryjnego,nan nan,Rudnik,Powiat Raciborski,47-411,+4832 410 67 77,50.1268636,18.1880231,False,,,,,,,,,,,,,,,,,,,,,,,,,,,,,,,,,,,,,,,,,,,,,,,,,,,,,,,,,,,,,,,,,,,,,,,,,,,,,,,,10333
334,Zakład Opieki Zdrowotnej Medyk,Leśnianka 127,Żywiec,Powiat Żywiecki,34-300,,49.6738106,19.1640206,False,,,,,,,,,,,,,,,,,,,,,,,,,,,,,,,,,,,,,,,,,,,,,,,,,,,,,,,,,,,,,,,,,,,,,,,,,,,,,,,,10334
335,Zakład Opieki Zdrowotnej Ministerstwa Spraw Wewnętrznych i Administracji w Katowicach im. sierżanta Grzegorza Załogi,Mikołaja Kopernika 38,Częstochowa,Częstochowa,42-217,,50.8085642,19.1092197,False,,,,,,,,,,,,,,,,,,,,,,,,,,,,,,,,,,,,,,,,,,,,,,,,,,,,,,,,,,,,,,,,,,,,,,,,,,,,,,,,10335
336,Zakład Opiekuńczo-Leczniczy o profilu Rehabilitacyjnym,nan nan,Wrocław,Wrocław,53-677,,51.113293,17.0478676,False,,,,,,,,,,,,,,,,,,,,,,,,,,,,,,,,,,,,,,,,,,,,,,,,,,,,,,,,,,,,,,,,,,,,,,,,,,,,,,,,10336
337,Zakład Pielęgnacyjno-Opiekuńczy w Krzanowicach,Szpitalna 9,Krzanowice,Powiat Raciborski,47-470,+4832 4108005,50.0152745,18.1184461,False,,,,,,,,,,,,,,,,,,,,,,,,,,,,,,,,,,,,,,,,,,,,,,,,,,,,,,,,,,,,,,,,,,,,,,,,,,,,,,,,10337
338,Zakład Pulmonologii Zespół Poradni Specjalistycznych,Lipowa 3,Tarnowskie Góry,Powiat Tarnogórski,42-600,,50.4394136,18.8577305,False,,,,,,,,,,,,,,,,,,,,,,,,,,,,,,,,,,,,,,,,,,,,,,,,,,,,,,,,,,,,,,,,,,,,,,,,,,,,,,,,10338
339,Zakład Rehabilitacji,nan nan,Radom,Radom,26-610,,51.4027039,21.1616342,False,,,,,,,,,,,,,,,,,,,,,,,,,,,,,,,,,,,,,,,,,,,,,,,,,,,,,,,,,,,,,,,,,,,,,,,,,,,,,,,,10339
340,Zakład Rehabilitacji Leczniczej,Zwycięstwa 32,Będzin,Powiat Będziński,42-500,,50.3229127,19.1212145,False,,,,,,,,,,,,,,,,,,,,,,,,,,,,,,,,,,,,,,,,,,,,,,,,,,,,,,,,,,,,,,,,,,,,,,,,,,,,,,,,10340
341,Zdrojowa Clinic - Lubuskie Centrum Gastroenterologii i Hepatologii,Zdrojowa 2,Zielona Góra,Zielona Góra,65-052,,51.9566933,15.5182794,False,,,,,,,,,,,,,,,,,,,,,,,,,,,,,,,,,,,,,,,,,,,,,,,,,,,,,,,,,,,,,,,,,,,,,,,,,,,,,,,,10341
342,Zespoł Opieki Zdrowotnej w Polanowie,nan nan,Polanów,Powiat Koszaliński,76-010,,54.1173329,16.6807535,False,,,,,,,,,,,,,,,,,,,,,,,,,,,,,,,,,,,,,,,,,,,,,,,,,,,,,,,,,,,,,,,,,,,,,,,,,,,,,,,,10342
343,Zespół Opieki Zdrowotnej Dla Szkół Wyższych,nan nan,Gdańsk,Gdańsk,80-208,,54.3700316,18.6223026,False,,,,,,,,,,,,,,,,,,,,,,,,,,,,,,,,,,,,,,,,,,,,,,,,,,,,,,,,,,,,,,,,,,,,,,,,,,,,,,,,10343
344,Zespół Specjalistycznych Poradni Dziecięcych,Konstytucji 3 Maja 40,Toruń,Toruń,87-100,,53.022287,18.6907404,False,,,,,,,,,,,,,,,,,,,,,,,,,,,,,,,,,,,,,,,,,,,,,,,,,,,,,,,,,,,,,,,,,,,,,,,,,,,,,,,,10344
345,Łużyckie Centrum Medyczne,Strzelców 10,Żary,Powiat Żarski,68-200,,51.6418374,15.1299456,False,,,,,,,,,,,,,,,,,,,,,,,,,,,,,,,,,,,,,,,,,,,,,,,,,,,,,,,,,,,,,,,,,,,,,,,,,,,,,,,,10345
346,Śląskie Centrum Medycyny Inwazyjnej,Kasztanowa 5,Pilchowice,Powiat Gliwicki,44-145,32 728 43 00,50.221348,18.6110571,False,,,,,,,,,,,,,,,,,,,,,,,,,,,,,,,,,,,,,,,,,,,,,,,,,,,,,,,,,,,,,,,,,,,,,,,,,,,,,,,,10346
