,id,name,address,city,state,zip,county,phone,type,ownership,emergency,quality,LAT,LON
0,20000,"""KUTNOWSKI SZPITAL SAMORZĄDOWY"" SPÓŁKA Z O.O.",,,,,,,,,yes,,52.239295299999995,19.371924
4,20004,105 Szpital Wojskowy z Przychodnią SPZOZ,Bolesława Domańskiego,,,,,,,,yes,,51.6415875,15.1481984
6,20006,108 Szpital Wojskowy,Tadeusza Kościuszki,,,,,+48876219803,,,yes,,53.8199983,22.363112100000002
13,20013,5 Wojskowy Szpital Kliniczny w Krakowie,Wrocławska,,,,,,,,yes,,50.0751372,19.9339294
19,20019,Arion ZOZ,Doktora Stanisława Pojaska,,,,,,,,yes,,50.5300021,22.7126673
23,20023,Bieszczadzkie Wodne Ochotnicze Pogotowie Ratunkowe,,,,,,,,,yes,,49.382042,22.448331399999997
41,20041,Centrum Medyczne w Łańcucie,,,,,,,,,yes,,50.0672027,22.2329009
57,20057,Dolnośląski Szpital Specjalistyczny im. T. Marciniaka,Generała Augusta Emila Fieldorfa,,,,,+48713064419,,,yes,,51.142277500000006,16.905964800000003
136,20136,Mazowiecki Szpital Bródnowski,Ludwika Kondratowicza,,,,,22 326 55 00,,,yes,,52.2914836,21.046985100000004
152,20152,Miejski Szpital w Pionkach,Niepodległości,,,,,,,,yes,,51.475322,21.4447717
190,20190,Oddział Ratunkowy,Korczyńska,,,,,+48134364110,,,yes,,49.7012565,21.783438699999998
194,20194,Oddział neurologiczny,Marka Sobieskiego,,,,,,,,yes,,50.98296679999999,23.164620199999998
204,20204,Ośrodek Pediatryczny im. dr. Janusza Korczaka,Aleja Marszałka Józefa Piłsudskiego,,,,,,,,yes,,51.761194200000006,19.4840198
229,20229,Pałuckie Centrum Zdrowia SZPITAL,Szpitalna,,,,,,,,yes,,52.8471996,17.7179887
230,20230,Piekarskie Centrum Medyczne,Szpitalna,,,,,,,,yes,,50.3745234,18.952416600000003
231,20231,Pleszewskie Centrum Medyczne,,,,,,+48627420900,,,yes,,51.8986911,17.764351899999998
247,20247,Powiatowe Centrum Zdrowia,Aleja Armii Krajowej,,,,,,,,yes,,54.031570900000006,19.0222245
251,20251,Powiatowy Szpital w Aleksnadrowie Kujawskim,Juliusza Słowackiego,,,,,,,,yes,,52.874213100000006,18.6968919
253,20253,Powiatowy Zespół Opieki Zdrowotnej w Ostródzie S.A.,,,,,,,,,yes,,53.6931711,19.9744278
272,20272,Przychodnia Rejonowa,Mieczysława Niedziałkowskiego,,,,,,,,yes,,50.4900575,19.428456100000002
274,20274,Przychodnia Rejonowa nr 1,Konstantego Ildefonsa Gałczyńskiego,,,,,,,,yes,,50.4934977,19.438080499999998
275,20275,Przychodnia Rejonowa nr 4 ZLA,Borowa,,,,,326714131,,,yes,,50.510475799999995,19.4030924
280,20280,Przychodnia rejonowa,Stanisława Staszica,,,,,48 617 12 95,,,yes,,51.2271051,20.868591000000002
281,20281,Przychodnia specjalistyczna,Powstańców Śląskich,,,,,326723445,,,yes,,50.4851136,19.424907
290,20290,Regionalny Szpital w Kołobrzegu,Podporucznika Edmunda Łopuskiego,,,,,+48 943530200,,,yes,,54.1738361,15.5660185
294,20294,"SP ZOZ ""Szpital Powiatowy"" w Bochni im Bł. Marty Wieckiej",Krakowska,,,,,+48 14 615 3 400,,,yes,,49.9668561,20.4215027
295,20295,"SP ZOZ ""Szpital Powiatowy"" w Bochni im Bł. Marty Wieckiej",Krakowska,,,,,+48 14 615 3 400,,,yes,,49.9668561,20.4215027
301,20301,SPZOZ Szpital Specjalistyczny,,,,,,,,,yes,,51.420449,21.9724068
319,20319,Samodzielny Publiczny Specjalistyczny Zakład Opieki Zdrowotnej w Lęborku,Juliana Węgrzynowicza,,,,,+48 59 863 52 83,,,yes,,54.5387619,17.7531523
335,20335,Samodzielny Publiczny Wojewódzki Szpital Zespolony - Zdunowo,,,,,,,,,yes,,53.3770738,14.7707011
339,20339,Samodzielny Publiczny Zakład Opieki Zdrowotnej MSW,Kronikarza Galla,,,,,,,,yes,,50.0723088,19.9136062
351,20351,Samodzielny Publiczny Zakład Opieki Zdrowotnej w Mławie,Anny Dobrskiej,,,,,,,,yes,,53.123571,20.372791199999998
352,20352,Samodzielny Publiczny Zakład Opieki Zdrowotnej w Szamotułach,Sukiennicza,,,,,612927100,,,yes,,52.6115613,16.5807703
360,20360,Samodzielny Publiczny Zespół Opieki Zdrowotnej w Leżajsku,Leśna,,,,,,,,yes,,50.2718598,22.4013423
366,20366,Samodzielny Publiczny Zespół Zakładów Opieki Zdrowotnej,,,,,,,,,yes,,53.0273904,20.8933352
367,20367,Samodzielny Publiczny Zespół Zakładów Opieki Zdrowotnej im. Stefana Niewirowicza w Staszowie,11 Listopada,,,,,+48 15 864 85 39,,,yes,,50.5618995,21.1904322
370,20370,Samodzielny Szpital Miejski im. PCK,Henryka Sienkiewicza,,,,,,,,yes,,53.1404235,23.171534
382,20382,Specjalistyczny Szpital Miejski im. M. Kopernika,Stefana Batorego,,,,,,,,yes,,53.023324,18.620197
393,20393,Strzelińskie Centrum Medyczne,,,,,,,,,yes,,50.7891929,17.069781600000002
407,20407,Szpital,Armii Krajowej,,,,,,,,yes,,53.86585720000001,20.956528100000003
457,20457,Szpital MSWiA,Grenadierów,,,,,,,,yes,,51.228263,22.612786399999997
465,20465,Szpital Miejski,Świętego Jana,,,,,,,,yes,,52.5385706,17.5961309
466,20466,Szpital Miejski,Konstytucji 3 Maja,,,,,,,,yes,,52.4398176,15.584246900000002
467,20467,Szpital Miejski,3 Maja,,,,,,,,yes,,52.541802100000005,17.5985952
469,20469,Szpital Miejski Specjalistyczny imienia Gabriela Narutowicza,,,,,,,,,yes,,50.0834433,19.937978100000002
481,20481,Szpital Na Wyspie,Pszenna,,,,,,,,yes,,51.644434499999996,15.1522807
490,20490,Szpital Powiatowy,,,,,,,,,yes,,50.72875689999999,16.6569057
493,20493,Szpital Powiatowy,Jana III Sobieskiego,,,,,+48 34 350 63 80,,,yes,,50.665015600000004,18.6818683
495,20495,Szpital Powiatowy,,,,,,+48 33 861-40-31,,,yes,,49.6932754,19.2031152
496,20496,Szpital Powiatowy,Jana Kochanowskiego,,,,,,,,yes,,49.474934600000005,22.3340372
506,20506,Szpital Powiatowy im. Aleksandra Majkowskiego w Kartuzach,Floriana Ceynowy,,,,,+48 58 685 48 00,,,yes,,54.3368137,18.1977338
511,20511,Szpital Powiatowy im. M. Kajki,Wolności,,,,,,,,yes,,53.8797395,21.303158
515,20515,Szpital Powiatowy im. Zbigniewa Koprowskiego,,,,,,,,,yes,,52.403623700000004,22.239462699999997
516,20516,Szpital Powiatowy imienia doktora Tytusa Chałubińskiego w Zakopanem,,,,,,,,,yes,,49.3052848,19.954829399999998
520,20520,Szpital Powiatowy w Chrzanowie,,,,,,,,,yes,,50.1344407,19.4292324
521,20521,Szpital Powiatowy w Kolbuszowej,,,,,,,,,yes,,50.2434871,21.7628199
523,20523,Szpital Powiatowy w Kętrzynie,Marii Skłodowskiej-Curie,,,,,,,,yes,,54.0825414,21.3755694
527,20527,Szpital Powiatowy w Otwocku,,,,,,,,,yes,,52.0991115,21.2608026
528,20528,Szpital Powiatowy w Oławie,,,,,,,,,yes,,50.9510646,17.283960500000003
532,20532,Szpital Powiatowy w Ropczycach,,,,,,,,,yes,,50.0583934,21.6157441
536,20536,Szpital Powiatowy w Słubicach,,,,,,,,,yes,,52.3520726,14.555868300000002
538,20538,Szpital Powiatowy w Wołominie,,,,,,,,,yes,,52.3461175,21.220815899999998
541,20541,Szpital Powiatowy w Łęcznej,Krasnystawska,,,,,,,,yes,,51.2910235,22.877878600000003
553,20553,Szpital Rejonowy,,,,,,,,,yes,,50.169911,23.1238773
555,20555,Szpital Rejonowy,Szpitalna,,,,,+48 74 872 22 81,,,yes,,50.5835532,16.4971451
557,20557,Szpital Rejonowy w Busku - Zdroju,Bohaterów Warszawy,,,,,,,,yes,,50.4668713,20.7014434
575,20575,Szpital Specjalistyczny im. Jędrzeja Śniadeckiego w Nowym Sączu,Młyńska,,,,,,,,yes,,49.6199439,20.6987663
578,20578,Szpital Specjalistyczny im. Stanisława Staszica w Pile,Ludwika Rydygiera,,,,,672106666,,,yes,,53.1223991,16.7176364
584,20584,Szpital Specjalistyczny w Kościerzynie,Alojzego Piechowskiego,,,,,,,,yes,,54.121930299999995,17.9500993
586,20586,Szpital Szczecinek,,,,,,,,,yes,,53.7118769,16.6790258
591,20591,Szpital Uniwersytecki im. Karola Marcinkowskiego w Zielonej Górze,,,,,,,,,yes,,51.9399731,15.5186975
597,20597,"Szpital Uzdrowiskowy nr 4 ""Dom Zdrojowy""",Leśna,,,,,+48 54 283 6078,,,yes,,52.8762056,18.7992096
607,20607,Szpital Wojewódzki im. M. Kopernika,,,,,,,,,yes,,54.199355700000005,16.2111011
619,20619,Szpital im. Jana Bożego,Zbigniewa Herberta,,,,,,,,yes,,51.2153263,22.5693612
624,20624,Szpital im. Radzimira Śmigielskiego,Szpitalna,,,,,+48 95 717 00 39,,,yes,,52.594121400000006,15.505051000000002
625,20625,Szpital im. Tytusa Chałubińskiego,Bolesława Limanowskiego,,,,,062 595-11-00,,,yes,,51.6553568,17.8292807
627,20627,Szpital im. Świętego Ducha w Rawie Mazowieckiej,Warszawska,,,,,,,,yes,,51.766498999999996,20.2588668
632,20632,Szpital miejski w Rabce Zdroju,Słoneczna,,,,,,,,yes,,49.608908299999996,19.970616800000002
640,20640,Szpital powiatowy w Pińczowie,,,,,,,,,yes,,50.5181714,20.529818399999996
644,20644,Szpital specjalistyczny imienia Stefana Żeromskiego,,,,,,,,,yes,,50.063656099999996,20.0474167
650,20650,Szpital Św. Wojciecha,Aleja Jana Pawła II,,,,,,,,yes,,54.4040749,18.612969800000002
660,20660,Szpitalny Oddział Ratunkowy,,,,,,,,,yes,,50.481390999999995,19.4087415
664,20664,Uniwersytecki Szpital Dziecięcy,,,,,,+48 12 658 20 11,,,yes,,50.013588399999996,19.9997597
694,20694,Wielospecjalistyczny Szpital Miejski im. Józefa Strusia,,,,,,,,,yes,,52.390299,16.998307999999998
697,20697,Wielospecjalistyczny Szpital Wojewódzki w Gorzowie Wielkopolskim,,,,,,,,,yes,,52.7621905,15.235204099999999
698,20698,Wielospecjalistyczny Szpital Wojewódzki w Gorzowie Wielkopolskim,,,,,,,,,yes,,52.754887100000005,15.2616625
702,20702,Wojewódzka Stacja Pogotowia Ratunkowego SP ZOZ w Suwałkach,Adama Mickiewicza,,,,,,,,yes,,54.09835,22.9251523
708,20708,Wojewódzki Specjalistyczny Szpital im. dr. Władysława Biegańskiego,Karola Kniaziewicza,,,,,,,,yes,,51.8011994,19.4359862
724,20724,Wojewódzki Szpital Psychiatryczny w Warcie,Sieradzka,,,,,,,,yes,,51.704706,18.6260482
739,20739,Wojewódzki Szpital Specjalistyczny im. Marii Skłodowskiej – Curie,Parzęczewska,,,,,42 71 44 500,,,yes,,51.8640546,19.3858702
743,20743,Wojewódzki Szpital Specjalistyczny imienia Ludwika Rydygiera,,,,,,,,,yes,,50.0910266,20.0205616
744,20744,Wojewódzki Szpital Specjalistyczny nr 1,Edukacji,,,,,,,,yes,,50.1126076,19.0059043
745,20745,Wojewódzki Szpital Specjalistyczny nr 3,Energetyków,,,,,32 4291000,,,yes,,50.112774,18.5196013
756,20756,Wojewódzki Szpital Zespolony - Szpital Dziecięcy,Konstytucji 3 Maja,,,,,,,,yes,,53.0220975,18.691968399999997
758,20758,Wojewódzki Szpital Zespolony im. L. Rydygiera,Świętego Józefa,,,,,,,,yes,,53.0262347,18.583292999999998
759,20759,Wojewódzki Szpital Zespolony im. Ludwika Perzyny,Poznańska,,,,,+48 62 765 12 51,,,yes,,51.762932299999996,18.067068
761,20761,Wojewódzki Szpital Zespolony im. Marcina Kacprzaka w Płocku,Medyczna,,,,,,,,yes,,52.5579696,19.654591500000002
763,20763,Wojewódzki Szpital Zespolony w Lesznie,Jana Kiepury,,,,,,,,yes,,51.840944799999995,16.604080800000002
