,name,address,city,state,zip,phone,LAT,LON,hasSpecialties,ADDICTION MEDICINE,ADVANCED HEART FAILURE AND TRANSPLANT CARDIOLOGY,ALLERGY/IMMUNOLOGY,ANESTHESIOLOGY,ANESTHESIOLOGY ASSISTANT,AUDIOLOGIST,CARDIAC ELECTROPHYSIOLOGY,CARDIAC SURGERY,CARDIOVASCULAR DISEASE (CARDIOLOGY),CERTIFIED NURSE MIDWIFE,CERTIFIED REGISTERED NURSE ANESTHETIST,CHIROPRACTIC,CLINICAL NURSE SPECIALIST,CLINICAL PSYCHOLOGIST,CLINICAL SOCIAL WORKER,COLORECTAL SURGERY (PROCTOLOGY),CRITICAL CARE (INTENSIVISTS),DENTIST,DERMATOLOGY,DIAGNOSTIC RADIOLOGY,EMERGENCY MEDICINE,ENDOCRINOLOGY,FAMILY PRACTICE,GASTROENTEROLOGY,GENERAL PRACTICE,GENERAL SURGERY,GERIATRIC MEDICINE,GERIATRIC PSYCHIATRY,GYNECOLOGICAL ONCOLOGY,HAND SURGERY,HEMATOLOGY,HEMATOLOGY/ONCOLOGY,HEMATOPOIETIC CELL TRANSPLANTATION AND CELLULAR TH,HOSPICE/PALLIATIVE CARE,HOSPITALIST,INFECTIOUS DISEASE,INTERNAL MEDICINE,INTERVENTIONAL CARDIOLOGY,INTERVENTIONAL PAIN MANAGEMENT,INTERVENTIONAL RADIOLOGY,MAXILLOFACIAL SURGERY,MEDICAL ONCOLOGY,NEPHROLOGY,NEUROLOGY,NEUROPSYCHIATRY,NEUROSURGERY,NUCLEAR MEDICINE,NURSE PRACTITIONER,OBSTETRICS/GYNECOLOGY,OCCUPATIONAL THERAPY,OPHTHALMOLOGY,OPTOMETRY,ORAL SURGERY,ORTHOPEDIC SURGERY,OSTEOPATHIC MANIPULATIVE MEDICINE,OTOLARYNGOLOGY,PAIN MANAGEMENT,PATHOLOGY,PEDIATRIC MEDICINE,PERIPHERAL VASCULAR DISEASE,PHYSICAL MEDICINE AND REHABILITATION,PHYSICAL THERAPY,PHYSICIAN ASSISTANT,PLASTIC AND RECONSTRUCTIVE SURGERY,PODIATRY,PREVENTATIVE MEDICINE,PSYCHIATRY,PULMONARY DISEASE,RADIATION ONCOLOGY,REGISTERED DIETITIAN OR NUTRITION PROFESSIONAL,"RHEUMATOLOGY,",SLEEP MEDICINE,SPEECH LANGUAGE PATHOLOGIST,SPORTS MEDICINE,SURGICAL ONCOLOGY,THORACIC SURGERY,UNDEFINED PHYSICIAN TYPE (SPECIFY),"UROLOGY,",VASCULAR SURGERY,id
0,AFFIDEA,,Petroșani,Hunedoara,332019,,45.4082011,23.3754743,False,,,,,,,,,,,,,,,,,,,,,,,,,,,,,,,,,,,,,,,,,,,,,,,,,,,,,,,,,,,,,,,,,,,,,,,,,,,,,,,,30000
1,Ambulanta,,Călărași,,910014,,44.2035861,27.3179285,False,,,,,,,,,,,,,,,,,,,,,,,,,,,,,,,,,,,,,,,,,,,,,,,,,,,,,,,,,,,,,,,,,,,,,,,,,,,,,,,,30001
2,Ambulanta Alesd,,Aleșd,Bihor,415100,,47.05324,22.4020288,False,,,,,,,,,,,,,,,,,,,,,,,,,,,,,,,,,,,,,,,,,,,,,,,,,,,,,,,,,,,,,,,,,,,,,,,,,,,,,,,,30002
3,Ambulanță Reghin,,Reghin,,545300,,46.7840445,24.6967293,False,,,,,,,,,,,,,,,,,,,,,,,,,,,,,,,,,,,,,,,,,,,,,,,,,,,,,,,,,,,,,,,,,,,,,,,,,,,,,,,,30003
4,Ambulatorul de Specialitate Sfântul Spiridon,,Iași,,700455,,47.1699634,27.5808641,False,,,,,,,,,,,,,,,,,,,,,,,,,,,,,,,,,,,,,,,,,,,,,,,,,,,,,,,,,,,,,,,,,,,,,,,,,,,,,,,,30004
5,Amethyst,,Otopeni,Ilfov,075101,,44.5358518,26.0604644,False,,,,,,,,,,,,,,,,,,,,,,,,,,,,,,,,,,,,,,,,,,,,,,,,,,,,,,,,,,,,,,,,,,,,,,,,,,,,,,,,30005
6,Arcadia Hospital,Strada Cicoarei 2,Iași,,700620,+40 232 202002,47.1578663,27.5612963,False,,,,,,,,,,,,,,,,,,,,,,,,,,,,,,,,,,,,,,,,,,,,,,,,,,,,,,,,,,,,,,,,,,,,,,,,,,,,,,,,30006
7,"Bloc materno-infantil, Cardiologie, Radiologie, Laborator analize, Farmacie",Bulevardul Corneliu Coposu 2 - 4,Sibiu,Sibiu,550253,,45.7942521,24.1549566,False,,,,,,,,,,,,,,,,,,,,,,,,,,,,,,,,,,,,,,,,,,,,,,,,,,,,,,,,,,,,,,,,,,,,,,,,,,,,,,,,30007
8,CERMED,Strada Avram Iancu 69,Constanța,,900184,,44.1797112,28.6375993,False,,,,,,,,,,,,,,,,,,,,,,,,,,,,,,,,,,,,,,,,,,,,,,,,,,,,,,,,,,,,,,,,,,,,,,,,,,,,,,,,30008
9,Cabinet Medico-Sanitar de Frontiera Port Constanța,,Constanța,,,,44.1717148,28.6567463,False,,,,,,,,,,,,,,,,,,,,,,,,,,,,,,,,,,,,,,,,,,,,,,,,,,,,,,,,,,,,,,,,,,,,,,,,,,,,,,,,30009
10,Cabinet medical,,Sâncraiu,Cluj,407515,,46.8299443,22.9855479,False,,,,,,,,,,,,,,,,,,,,,,,,,,,,,,,,,,,,,,,,,,,,,,,,,,,,,,,,,,,,,,,,,,,,,,,,,,,,,,,,30010
11,Cabinet medical,,Miroslava,,707308,,47.097048,27.5271536,False,,,,,,,,,,,,,,,,,,,,,,,,,,,,,,,,,,,,,,,,,,,,,,,,,,,,,,,,,,,,,,,,,,,,,,,,,,,,,,,,30011
12,Cabinet medical,,Sâg,Sălaj,457300,,47.0768578,22.781531,False,,,,,,,,,,,,,,,,,,,,,,,,,,,,,,,,,,,,,,,,,,,,,,,,,,,,,,,,,,,,,,,,,,,,,,,,,,,,,,,,30012
13,Cabinete medicale de familie,Strada Roșiori 33,Galați,,800055,,45.4292631,28.0495669,False,,,,,,,,,,,,,,,,,,,,,,,,,,,,,,,,,,,,,,,,,,,,,,,,,,,,,,,,,,,,,,,,,,,,,,,,,,,,,,,,30013
14,Cabinete medicale de specialitate,Bulevardul Primăverii 4,Iași,,700171,,47.1504762,27.5967041,False,,,,,,,,,,,,,,,,,,,,,,,,,,,,,,,,,,,,,,,,,,,,,,,,,,,,,,,,,,,,,,,,,,,,,,,,,,,,,,,,30014
15,Cabinete medicale.,,Ștei,Bihor,415600,,46.5409352,22.4556971,False,,,,,,,,,,,,,,,,,,,,,,,,,,,,,,,,,,,,,,,,,,,,,,,,,,,,,,,,,,,,,,,,,,,,,,,,,,,,,,,,30015
16,Camera de Gardă - Spitalul Clinic de Psihiatrie “Prof. Dr. Alexandru Obregia”,,București,,,,44.3864853,26.1278255,False,,,,,,,,,,,,,,,,,,,,,,,,,,,,,,,,,,,,,,,,,,,,,,,,,,,,,,,,,,,,,,,,,,,,,,,,,,,,,,,,30016
17,Camera de Gardă - Spitalul de Urgență Floreasca,,București,,,,44.4538889,26.1008975,False,,,,,,,,,,,,,,,,,,,,,,,,,,,,,,,,,,,,,,,,,,,,,,,,,,,,,,,,,,,,,,,,,,,,,,,,,,,,,,,,30017
18,Centru De Excelență Clinică Fundația Baylor,Strada Liliacului 10,Constanța,,900008,+40 241 691 730,44.1497426,28.6235805,False,,,,,,,,,,,,,,,,,,,,,,,,,,,,,,,,,,,,,,,,,,,,,,,,,,,,,,,,,,,,,,,,,,,,,,,,,,,,,,,,30018
19,Centru Medical,,Târgu Mureș,,540052,,46.5510804,24.5745144,False,,,,,,,,,,,,,,,,,,,,,,,,,,,,,,,,,,,,,,,,,,,,,,,,,,,,,,,,,,,,,,,,,,,,,,,,,,,,,,,,30019
20,Centru de dializă Diaverum,Strada Distribuției 32,Sibiu,Sibiu,550009,,45.7960181,24.1333259,False,,,,,,,,,,,,,,,,,,,,,,,,,,,,,,,,,,,,,,,,,,,,,,,,,,,,,,,,,,,,,,,,,,,,,,,,,,,,,,,,30020
21,Centru de recuperare și reabilitare neuropsihiatrică,,București,,023571,,44.4679599,26.1526137,False,,,,,,,,,,,,,,,,,,,,,,,,,,,,,,,,,,,,,,,,,,,,,,,,,,,,,,,,,,,,,,,,,,,,,,,,,,,,,,,,30021
22,Centrul Dializă IHS,,Brăila,Brăila,810015,,45.2698958,27.979447,False,,,,,,,,,,,,,,,,,,,,,,,,,,,,,,,,,,,,,,,,,,,,,,,,,,,,,,,,,,,,,,,,,,,,,,,,,,,,,,,,30022
23,Centrul Medial de Permanență Plătărești,,Plătărești,,917203,,44.3426833,26.3769358,False,,,,,,,,,,,,,,,,,,,,,,,,,,,,,,,,,,,,,,,,,,,,,,,,,,,,,,,,,,,,,,,,,,,,,,,,,,,,,,,,30023
24,Centrul Medical Academica,nan 20,București,,010452,,44.443379,26.1009529,False,,,,,,,,,,,,,,,,,,,,,,,,,,,,,,,,,,,,,,,,,,,,,,,,,,,,,,,,,,,,,,,,,,,,,,,,,,,,,,,,30024
25,Centrul Medical Copou,,Iași,,700512,,47.1735798,27.570478,False,,,,,,,,,,,,,,,,,,,,,,,,,,,,,,,,,,,,,,,,,,,,,,,,,,,,,,,,,,,,,,,,,,,,,,,,,,,,,,,,30025
26,Centrul Medical Galenus,,Târgu Mureș,,540052,,46.5515387,24.5734768,False,,,,,,,,,,,,,,,,,,,,,,,,,,,,,,,,,,,,,,,,,,,,,,,,,,,,,,,,,,,,,,,,,,,,,,,,,,,,,,,,30026
27,"Centrul Medical de Diagnostic și Tratament ""Dr. Victor Babeș""",,București,,030171,,44.4280686,26.1392145,False,,,,,,,,,,,,,,,,,,,,,,,,,,,,,,,,,,,,,,,,,,,,,,,,,,,,,,,,,,,,,,,,,,,,,,,,,,,,,,,,30027
28,"Centrul Medico-Social ""Sfântul Andrei""",Șoseaua Berceni nan,București,,,,44.3827382,26.1306613,False,,,,,,,,,,,,,,,,,,,,,,,,,,,,,,,,,,,,,,,,,,,,,,,,,,,,,,,,,,,,,,,,,,,,,,,,,,,,,,,,30028
29,Centrul Regional de Transfuzie Sanguină Tg-Mureș,Strada Molter Károly 2,Târgu Mureș,,540052,,46.560516,24.5830475,False,,,,,,,,,,,,,,,,,,,,,,,,,,,,,,,,,,,,,,,,,,,,,,,,,,,,,,,,,,,,,,,,,,,,,,,,,,,,,,,,30029
30,Centrul de Diagnosticare și Tratament Providența,nan 115,Iași,,700220,,47.1253657,27.5694266,False,,,,,,,,,,,,,,,,,,,,,,,,,,,,,,,,,,,,,,,,,,,,,,,,,,,,,,,,,,,,,,,,,,,,,,,,,,,,,,,,30030
31,Centrul de Permanenta Vascau,Unirii 75,Vașcău,Bihor,415800,,46.4702714,22.475333,False,,,,,,,,,,,,,,,,,,,,,,,,,,,,,,,,,,,,,,,,,,,,,,,,,,,,,,,,,,,,,,,,,,,,,,,,,,,,,,,,30031
32,Centrul de Recuperare pentru Copii dr. Nicolae Robănescu,Strada Soldat Mincă Dumitru 40,București,,040814,,44.3896675,26.1078393,False,,,,,,,,,,,,,,,,,,,,,,,,,,,,,,,,,,,,,,,,,,,,,,,,,,,,,,,,,,,,,,,,,,,,,,,,,,,,,,,,30032
33,Centrul de Sănătate Ciacova,,Ciacova,,307110,,45.5151925,21.1239431,False,,,,,,,,,,,,,,,,,,,,,,,,,,,,,,,,,,,,,,,,,,,,,,,,,,,,,,,,,,,,,,,,,,,,,,,,,,,,,,,,30033
34,Centrul de Sănătate Mintală Copii,,Deva,Hunedoara,330088,,45.8706127,22.9063057,False,,,,,,,,,,,,,,,,,,,,,,,,,,,,,,,,,,,,,,,,,,,,,,,,,,,,,,,,,,,,,,,,,,,,,,,,,,,,,,,,30034
35,Centrul de Transfuzie Sanguină,,Târgoviște,,130007,+40245210913,44.9190963,25.456973,False,,,,,,,,,,,,,,,,,,,,,,,,,,,,,,,,,,,,,,,,,,,,,,,,,,,,,,,,,,,,,,,,,,,,,,,,,,,,,,,,30035
36,Centrul de Transfuzie Sanguină,Strada Radu S.Campiniu 25,Brăila,Brăila,810003,,45.2697522,27.969389,False,,,,,,,,,,,,,,,,,,,,,,,,,,,,,,,,,,,,,,,,,,,,,,,,,,,,,,,,,,,,,,,,,,,,,,,,,,,,,,,,30036
37,Centrul de Transfuzii Bârlad,,Bârlad,Vaslui,731085,,46.2321026,27.6664953,False,,,,,,,,,,,,,,,,,,,,,,,,,,,,,,,,,,,,,,,,,,,,,,,,,,,,,,,,,,,,,,,,,,,,,,,,,,,,,,,,30037
38,Centrul de dializa Bârlad,,Bârlad,Vaslui,731199,,46.215868,27.6583914,False,,,,,,,,,,,,,,,,,,,,,,,,,,,,,,,,,,,,,,,,,,,,,,,,,,,,,,,,,,,,,,,,,,,,,,,,,,,,,,,,30038
39,Centrul de dializa Fresenius NephrocareCampulung-Muscel,Strada Erou Costel Constantinescu 16,Câmpulung,,115100,+40 348 730 162,45.2732848,25.0526355,False,,,,,,,,,,,,,,,,,,,,,,,,,,,,,,,,,,,,,,,,,,,,,,,,,,,,,,,,,,,,,,,,,,,,,,,,,,,,,,,,30039
40,Centrul de dializă,,Brăila,Brăila,,,45.2524122,27.9401579,False,,,,,,,,,,,,,,,,,,,,,,,,,,,,,,,,,,,,,,,,,,,,,,,,,,,,,,,,,,,,,,,,,,,,,,,,,,,,,,,,30040
41,"Centrul de plasament ""Gulliver""",,Iași,,700615,,47.1487844,27.5616238,False,,,,,,,,,,,,,,,,,,,,,,,,,,,,,,,,,,,,,,,,,,,,,,,,,,,,,,,,,,,,,,,,,,,,,,,,,,,,,,,,30041
42,Centrul de Îngrijiri Paliative „Sfântul Nectarie”,Strada Fabricii de Zahăr 49-51,Cluj-Napoca,Cluj,400636,+40364733610,46.7844588,23.6204928,False,,,,,,,,,,,,,,,,,,,,,,,,,,,,,,,,,,,,,,,,,,,,,,,,,,,,,,,,,,,,,,,,,,,,,,,,,,,,,,,,30042
43,Centrul pentru Persoane cu Handicap Suferinde de Maladia Alzheimer,,Ciacova,,307110,,45.5115012,21.1220389,False,,,,,,,,,,,,,,,,,,,,,,,,,,,,,,,,,,,,,,,,,,,,,,,,,,,,,,,,,,,,,,,,,,,,,,,,,,,,,,,,30043
44,Clinica Amamed Bărbătești,,Bărbătești,Vâlcea,247025,,45.1723226,24.1172807,False,,,,,,,,,,,,,,,,,,,,,,,,,,,,,,,,,,,,,,,,,,,,,,,,,,,,,,,,,,,,,,,,,,,,,,,,,,,,,,,,30044
45,Clinica Chirurgie I,Strada Clinicilor nan,Cluj-Napoca,Cluj,400006,,46.765972,23.5833921,False,,,,,,,,,,,,,,,,,,,,,,,,,,,,,,,,,,,,,,,,,,,,,,,,,,,,,,,,,,,,,,,,,,,,,,,,,,,,,,,,30045
46,Clinica Dermato-Venerologie,Strada Clinicilor nan,Cluj-Napoca,Cluj,400006,,46.7651568,23.5830082,False,,,,,,,,,,,,,,,,,,,,,,,,,,,,,,,,,,,,,,,,,,,,,,,,,,,,,,,,,,,,,,,,,,,,,,,,,,,,,,,,30046
47,Clinica Dermatologică,,Iași,,700342,,47.1577255,27.6160036,False,,,,,,,,,,,,,,,,,,,,,,,,,,,,,,,,,,,,,,,,,,,,,,,,,,,,,,,,,,,,,,,,,,,,,,,,,,,,,,,,30047
48,Clinica MedLife Turnului,Strada Turnului nan,Brașov,,500030,,45.6651711,25.6126401,False,,,,,,,,,,,,,,,,,,,,,,,,,,,,,,,,,,,,,,,,,,,,,,,,,,,,,,,,,,,,,,,,,,,,,,,,,,,,,,,,30048
49,Clinica Medicală I,Strada Clinicilor nan,Cluj-Napoca,Cluj,400006,,46.7656738,23.582303,False,,,,,,,,,,,,,,,,,,,,,,,,,,,,,,,,,,,,,,,,,,,,,,,,,,,,,,,,,,,,,,,,,,,,,,,,,,,,,,,,30049
50,Clinica O.R.L.,Strada Gheorghe Marinescu 34,Târgu Mureș,,540052,,46.5539216,24.5782568,False,,,,,,,,,,,,,,,,,,,,,,,,,,,,,,,,,,,,,,,,,,,,,,,,,,,,,,,,,,,,,,,,,,,,,,,,,,,,,,,,30050
51,Clinica Obstetrică - Ginecologie I,Strada Clinicilor nan,Cluj-Napoca,Cluj,400006,,46.7654169,23.5814342,False,,,,,,,,,,,,,,,,,,,,,,,,,,,,,,,,,,,,,,,,,,,,,,,,,,,,,,,,,,,,,,,,,,,,,,,,,,,,,,,,30051
52,Clinica Universitară de Obstetrică Ginecologie Bega,,Timișoara,,300002,,45.7442869,21.2285704,False,,,,,,,,,,,,,,,,,,,,,,,,,,,,,,,,,,,,,,,,,,,,,,,,,,,,,,,,,,,,,,,,,,,,,,,,,,,,,,,,30052
53,Clinica de Boli Infecțioase 1,Strada Gheorghe Doja 89,Târgu Mureș,,540052,+40-265-250533,46.5306407,24.5492883,False,,,,,,,,,,,,,,,,,,,,,,,,,,,,,,,,,,,,,,,,,,,,,,,,,,,,,,,,,,,,,,,,,,,,,,,,,,,,,,,,30053
54,Clinica de Boli Infecțioase 2,Strada Gheorghe Doja 127,Târgu Mureș,,540052,+40-365-882605,46.5287599,24.5463123,False,,,,,,,,,,,,,,,,,,,,,,,,,,,,,,,,,,,,,,,,,,,,,,,,,,,,,,,,,,,,,,,,,,,,,,,,,,,,,,,,30054
55,Clinica de Chirurgie,,Târgu Mureș,,540052,,46.5532098,24.5751653,False,,,,,,,,,,,,,,,,,,,,,,,,,,,,,,,,,,,,,,,,,,,,,,,,,,,,,,,,,,,,,,,,,,,,,,,,,,,,,,,,30055
56,Clinica de Chirurgie oro-maxilo-facială,,Târgu Mureș,,540052,,46.5390842,24.5611703,False,,,,,,,,,,,,,,,,,,,,,,,,,,,,,,,,,,,,,,,,,,,,,,,,,,,,,,,,,,,,,,,,,,,,,,,,,,,,,,,,30056
57,Clinica de Chirurgie și Ortopedie Pediatrică Dr. Trestianu Viorel,,Timișoara,,300002,,45.7544314,21.2214259,False,,,,,,,,,,,,,,,,,,,,,,,,,,,,,,,,,,,,,,,,,,,,,,,,,,,,,,,,,,,,,,,,,,,,,,,,,,,,,,,,30057
58,Clinica de Dermato-Venerologie,Strada Gheorghe Doja 12,Târgu Mureș,,540052,+40-365-882534,46.5386642,24.5578261,False,,,,,,,,,,,,,,,,,,,,,,,,,,,,,,,,,,,,,,,,,,,,,,,,,,,,,,,,,,,,,,,,,,,,,,,,,,,,,,,,30058
59,Clinica de Nefrologie,Strada Victor Babeș nan,Cluj-Napoca,Cluj,400006,,46.7659334,23.5849339,False,,,,,,,,,,,,,,,,,,,,,,,,,,,,,,,,,,,,,,,,,,,,,,,,,,,,,,,,,,,,,,,,,,,,,,,,,,,,,,,,30059
60,Clinica de Neonatologie-Prematuri,Bulevardul 1848 24,Târgu Mureș,,540052,+40-265-237019,46.5327565,24.5578442,False,,,,,,,,,,,,,,,,,,,,,,,,,,,,,,,,,,,,,,,,,,,,,,,,,,,,,,,,,,,,,,,,,,,,,,,,,,,,,,,,30060
61,Clinica de Neurochirurgie,,Cluj-Napoca,Cluj,400349,,46.762083,23.584948,False,,,,,,,,,,,,,,,,,,,,,,,,,,,,,,,,,,,,,,,,,,,,,,,,,,,,,,,,,,,,,,,,,,,,,,,,,,,,,,,,30061
62,Clinica de Neurologie,,Cluj-Napoca,Cluj,400349,,46.7626379,23.5845725,False,,,,,,,,,,,,,,,,,,,,,,,,,,,,,,,,,,,,,,,,,,,,,,,,,,,,,,,,,,,,,,,,,,,,,,,,,,,,,,,,30062
63,Clinica de Neurologie - Psihiatrie - Neurochirurgie,Strada Profesor Gheorghe Marinescu 43,Cluj-Napoca,Cluj,400349,,46.7632148,23.5845951,False,,,,,,,,,,,,,,,,,,,,,,,,,,,,,,,,,,,,,,,,,,,,,,,,,,,,,,,,,,,,,,,,,,,,,,,,,,,,,,,,30063
64,Clinica de Neuropsihiatrie,Aleea Potelu 24,Craiova,Dolj,200319,,44.2959654,23.8053568,False,,,,,,,,,,,,,,,,,,,,,,,,,,,,,,,,,,,,,,,,,,,,,,,,,,,,,,,,,,,,,,,,,,,,,,,,,,,,,,,,30064
65,Clinica de Neuropsihiatrie Pediatrică,Pasajul Panseluțelor 5,Târgu Mureș,,540052,+40-265-264388,46.5369554,24.5646547,False,,,,,,,,,,,,,,,,,,,,,,,,,,,,,,,,,,,,,,,,,,,,,,,,,,,,,,,,,,,,,,,,,,,,,,,,,,,,,,,,30065
66,Clinica de Obstetrică-Ginecologie,,Târgu Mureș,,540052,,46.5417803,24.5603316,False,,,,,,,,,,,,,,,,,,,,,,,,,,,,,,,,,,,,,,,,,,,,,,,,,,,,,,,,,,,,,,,,,,,,,,,,,,,,,,,,30066
67,Clinica de Oftalmologie,,Târgu Mureș,,540052,,46.5412439,24.5610602,False,,,,,,,,,,,,,,,,,,,,,,,,,,,,,,,,,,,,,,,,,,,,,,,,,,,,,,,,,,,,,,,,,,,,,,,,,,,,,,,,30067
68,Clinica de Oftalmologie,Strada Clinicilor nan,Cluj-Napoca,Cluj,400006,,46.7653553,23.5836221,False,,,,,,,,,,,,,,,,,,,,,,,,,,,,,,,,,,,,,,,,,,,,,,,,,,,,,,,,,,,,,,,,,,,,,,,,,,,,,,,,30068
69,Clinica de Oncologie,,Târgu Mureș,,540052,,46.5531242,24.5769675,False,,,,,,,,,,,,,,,,,,,,,,,,,,,,,,,,,,,,,,,,,,,,,,,,,,,,,,,,,,,,,,,,,,,,,,,,,,,,,,,,30069
70,Clinica de Oncologie Medicală - Clinca Radiologică,Strada Clinicilor nan,Cluj-Napoca,Cluj,400006,,46.7659234,23.5845597,False,,,,,,,,,,,,,,,,,,,,,,,,,,,,,,,,,,,,,,,,,,,,,,,,,,,,,,,,,,,,,,,,,,,,,,,,,,,,,,,,30070
71,Clinica de Ortopedie-Traumatologie,,Târgu Mureș,,540052,+40-265-213720,46.5519382,24.5739234,False,,,,,,,,,,,,,,,,,,,,,,,,,,,,,,,,,,,,,,,,,,,,,,,,,,,,,,,,,,,,,,,,,,,,,,,,,,,,,,,,30071
72,Clinica de Pediatrie,,Târgu Mureș,,540052,,46.5552566,24.5826312,False,,,,,,,,,,,,,,,,,,,,,,,,,,,,,,,,,,,,,,,,,,,,,,,,,,,,,,,,,,,,,,,,,,,,,,,,,,,,,,,,30072
73,Clinica de Pediatrie,Strada Corneliu Coposu nan,Craiova,Dolj,,,44.3033883,23.8027432,False,,,,,,,,,,,,,,,,,,,,,,,,,,,,,,,,,,,,,,,,,,,,,,,,,,,,,,,,,,,,,,,,,,,,,,,,,,,,,,,,30073
74,Clinica de Pneumoftizologie,,Sfântu Gheorghe,Covasna,520085,,45.8634711,25.7828596,False,,,,,,,,,,,,,,,,,,,,,,,,,,,,,,,,,,,,,,,,,,,,,,,,,,,,,,,,,,,,,,,,,,,,,,,,,,,,,,,,30074
75,Clinica de Pneumologie,,Târgu Mureș,,540052,,46.5536056,24.5774755,False,,,,,,,,,,,,,,,,,,,,,,,,,,,,,,,,,,,,,,,,,,,,,,,,,,,,,,,,,,,,,,,,,,,,,,,,,,,,,,,,30075
76,Clinica de Psihiatrie,,Târgu Mureș,,540052,,46.5563383,24.5842211,False,,,,,,,,,,,,,,,,,,,,,,,,,,,,,,,,,,,,,,,,,,,,,,,,,,,,,,,,,,,,,,,,,,,,,,,,,,,,,,,,30076
77,Clinica de oftalmologie,Scuarul Martir Radian Belici nan,Timișoara,,300002,,45.7553133,21.224878,False,,,,,,,,,,,,,,,,,,,,,,,,,,,,,,,,,,,,,,,,,,,,,,,,,,,,,,,,,,,,,,,,,,,,,,,,,,,,,,,,30077
78,Călărași Hospital,,Călărași,,910014,,44.1925241,27.3270629,False,,,,,,,,,,,,,,,,,,,,,,,,,,,,,,,,,,,,,,,,,,,,,,,,,,,,,,,,,,,,,,,,,,,,,,,,,,,,,,,,30078
79,DentiRAD,,Plopeni,Prahova,105900,,45.0455274,25.9523511,False,,,,,,,,,,,,,,,,,,,,,,,,,,,,,,,,,,,,,,,,,,,,,,,,,,,,,,,,,,,,,,,,,,,,,,,,,,,,,,,,30079
80,Dentist Iasi,Strada Sfântul Andrei 6C,Iași,,700028,,47.1553625,27.5838468,False,,,,,,,,,,,,,,,,,,,,,,,,,,,,,,,,,,,,,,,,,,,,,,,,,,,,,,,,,,,,,,,,,,,,,,,,,,,,,,,,30080
81,Dermato-Venerice,,Ploiești,Prahova,100028,,44.9457654,26.0389381,False,,,,,,,,,,,,,,,,,,,,,,,,,,,,,,,,,,,,,,,,,,,,,,,,,,,,,,,,,,,,,,,,,,,,,,,,,,,,,,,,30081
82,Dispensar,,Poiana Sibiului,Sibiu,557180,,45.8089373,23.7275007,False,,,,,,,,,,,,,,,,,,,,,,,,,,,,,,,,,,,,,,,,,,,,,,,,,,,,,,,,,,,,,,,,,,,,,,,,,,,,,,,,30082
83,Dispensar,,Țăndărei,,925200,,44.6401784,27.6610987,False,,,,,,,,,,,,,,,,,,,,,,,,,,,,,,,,,,,,,,,,,,,,,,,,,,,,,,,,,,,,,,,,,,,,,,,,,,,,,,,,30083
84,Dispensar,,Lazuri de Beiuș,Bihor,417300,,46.5920797,22.3995994,False,,,,,,,,,,,,,,,,,,,,,,,,,,,,,,,,,,,,,,,,,,,,,,,,,,,,,,,,,,,,,,,,,,,,,,,,,,,,,,,,30084
85,Dispensar,,Căbești,Bihor,417125,,46.7660974,22.3673581,False,,,,,,,,,,,,,,,,,,,,,,,,,,,,,,,,,,,,,,,,,,,,,,,,,,,,,,,,,,,,,,,,,,,,,,,,,,,,,,,,30085
86,Dispensar Baia de Criș,,Baia de Criș,Hunedoara,337005,,46.1748127,22.7157663,False,,,,,,,,,,,,,,,,,,,,,,,,,,,,,,,,,,,,,,,,,,,,,,,,,,,,,,,,,,,,,,,,,,,,,,,,,,,,,,,,30086
87,Dispensar Gheorghieni,,Cluj-Napoca,Cluj,400438,,46.7663231,23.6239644,False,,,,,,,,,,,,,,,,,,,,,,,,,,,,,,,,,,,,,,,,,,,,,,,,,,,,,,,,,,,,,,,,,,,,,,,,,,,,,,,,30087
88,Dispensar Hoceni,,Hoceni,Vaslui,737285,,46.5382419,28.0110694,False,,,,,,,,,,,,,,,,,,,,,,,,,,,,,,,,,,,,,,,,,,,,,,,,,,,,,,,,,,,,,,,,,,,,,,,,,,,,,,,,30088
89,Dispensar Magurele,,Măgurele,Ilfov,077125,,44.3503063,26.0296072,False,,,,,,,,,,,,,,,,,,,,,,,,,,,,,,,,,,,,,,,,,,,,,,,,,,,,,,,,,,,,,,,,,,,,,,,,,,,,,,,,30089
90,Dispensar TBC,Bulevardul Alexandru Lăpușneanu 167,Constanța,,900412,,44.2011891,28.629858,False,,,,,,,,,,,,,,,,,,,,,,,,,,,,,,,,,,,,,,,,,,,,,,,,,,,,,,,,,,,,,,,,,,,,,,,,,,,,,,,,30090
91,Dispensar medic de familie,,Duda-Epureni,Vaslui,737233,,46.7060853,28.0388752,False,,,,,,,,,,,,,,,,,,,,,,,,,,,,,,,,,,,,,,,,,,,,,,,,,,,,,,,,,,,,,,,,,,,,,,,,,,,,,,,,30091
92,Dispensarul Brezoi,Strada Panduri nan,Brezoi,Vâlcea,245500,,45.343649,24.2396852,False,,,,,,,,,,,,,,,,,,,,,,,,,,,,,,,,,,,,,,,,,,,,,,,,,,,,,,,,,,,,,,,,,,,,,,,,,,,,,,,,30092
93,Dispensarul Comunal,,Movilița,Vrancea,627210,,45.9567713,27.1036214,False,,,,,,,,,,,,,,,,,,,,,,,,,,,,,,,,,,,,,,,,,,,,,,,,,,,,,,,,,,,,,,,,,,,,,,,,,,,,,,,,30093
94,Dispensarul Uman Malaia,,Malaia,Vâlcea,247335,,45.3519346,24.0422213,False,,,,,,,,,,,,,,,,,,,,,,,,,,,,,,,,,,,,,,,,,,,,,,,,,,,,,,,,,,,,,,,,,,,,,,,,,,,,,,,,30094
95,Dispensarul medical Părău,,Părău,,507155,,45.8488122,25.191747,False,,,,,,,,,,,,,,,,,,,,,,,,,,,,,,,,,,,,,,,,,,,,,,,,,,,,,,,,,,,,,,,,,,,,,,,,,,,,,,,,30095
96,Dispensarul uman Vașcău,,Vașcău,Bihor,415800,,46.4760113,22.4722552,False,,,,,,,,,,,,,,,,,,,,,,,,,,,,,,,,,,,,,,,,,,,,,,,,,,,,,,,,,,,,,,,,,,,,,,,,,,,,,,,,30096
97,Endocrinologie,,Sibiu,Sibiu,550009,,45.7951528,24.1573831,False,,,,,,,,,,,,,,,,,,,,,,,,,,,,,,,,,,,,,,,,,,,,,,,,,,,,,,,,,,,,,,,,,,,,,,,,,,,,,,,,30097
98,Euromaterna,Strada Ștefăniță Vodă 32,Constanța,,900508,,44.2015852,28.6137831,False,,,,,,,,,,,,,,,,,,,,,,,,,,,,,,,,,,,,,,,,,,,,,,,,,,,,,,,,,,,,,,,,,,,,,,,,,,,,,,,,30098
99,Farmacia Hoceni,,Hoceni,Vaslui,737285,,46.5371525,28.0114169,False,,,,,,,,,,,,,,,,,,,,,,,,,,,,,,,,,,,,,,,,,,,,,,,,,,,,,,,,,,,,,,,,,,,,,,,,,,,,,,,,30099
100,Fost spital de copii,,Brăila,Brăila,810003,,45.2689105,27.9738573,False,,,,,,,,,,,,,,,,,,,,,,,,,,,,,,,,,,,,,,,,,,,,,,,,,,,,,,,,,,,,,,,,,,,,,,,,,,,,,,,,30100
101,Fostă Policlinică Petrila,,Petrila,Hunedoara,335800,,45.4434508,23.3784077,False,,,,,,,,,,,,,,,,,,,,,,,,,,,,,,,,,,,,,,,,,,,,,,,,,,,,,,,,,,,,,,,,,,,,,,,,,,,,,,,,30101
102,Hiperdia,,București,,023571,,44.4446511,26.1343187,False,,,,,,,,,,,,,,,,,,,,,,,,,,,,,,,,,,,,,,,,,,,,,,,,,,,,,,,,,,,,,,,,,,,,,,,,,,,,,,,,30102
103,INHT C.T Nicolau,,București,,011035,,44.45407,26.0796395,False,,,,,,,,,,,,,,,,,,,,,,,,,,,,,,,,,,,,,,,,,,,,,,,,,,,,,,,,,,,,,,,,,,,,,,,,,,,,,,,,30103
104,Infecțioase,,Onești,Bacău,601048,,46.2543377,26.7634806,False,,,,,,,,,,,,,,,,,,,,,,,,,,,,,,,,,,,,,,,,,,,,,,,,,,,,,,,,,,,,,,,,,,,,,,,,,,,,,,,,30104
105,Institutul Clinic Fundeni (Clădirea A),Șoseaua Fundeni 258,București,,023571,,44.4655248,26.1560941,False,,,,,,,,,,,,,,,,,,,,,,,,,,,,,,,,,,,,,,,,,,,,,,,,,,,,,,,,,,,,,,,,,,,,,,,,,,,,,,,,30105
106,"Institutul Național de Boli Infecțioase ""Profesor Doctor Matei Balș""",,București,,023571,,44.4546577,26.1154528,False,,,,,,,,,,,,,,,,,,,,,,,,,,,,,,,,,,,,,,,,,,,,,,,,,,,,,,,,,,,,,,,,,,,,,,,,,,,,,,,,30106
107,Institutul Național de Expertiză Medicală și Recuperare a Capacității de Muncă,,București,,051521,,44.4251286,26.0713636,False,,,,,,,,,,,,,,,,,,,,,,,,,,,,,,,,,,,,,,,,,,,,,,,,,,,,,,,,,,,,,,,,,,,,,,,,,,,,,,,,30107
108,Institutul Național de Gerontologie Ana Aslan - Otopeni,,Otopeni,Ilfov,075100,,44.5794066,26.0619604,False,,,,,,,,,,,,,,,,,,,,,,,,,,,,,,,,,,,,,,,,,,,,,,,,,,,,,,,,,,,,,,,,,,,,,,,,,,,,,,,,30108
109,Institutul Oncologic Prof. Dr. Ion Chiricuță,,Cluj-Napoca,Cluj,400015,,46.7630684,23.5882087,False,,,,,,,,,,,,,,,,,,,,,,,,,,,,,,,,,,,,,,,,,,,,,,,,,,,,,,,,,,,,,,,,,,,,,,,,,,,,,,,,30109
110,Institutul Regional de Oncologie,,Iași,,700107,,47.1755234,27.5767317,False,,,,,,,,,,,,,,,,,,,,,,,,,,,,,,,,,,,,,,,,,,,,,,,,,,,,,,,,,,,,,,,,,,,,,,,,,,,,,,,,30110
111,Institutul de Boli Cardiovasculare,Strada Gheorghe Adam 13 A,Timișoara,,300002,,45.7687422,21.25782,False,,,,,,,,,,,,,,,,,,,,,,,,,,,,,,,,,,,,,,,,,,,,,,,,,,,,,,,,,,,,,,,,,,,,,,,,,,,,,,,,30111
112,"Institutul de Endocrinologie ""C I Parhon""",,București,,011883,,44.4601264,26.0883119,False,,,,,,,,,,,,,,,,,,,,,,,,,,,,,,,,,,,,,,,,,,,,,,,,,,,,,,,,,,,,,,,,,,,,,,,,,,,,,,,,30112
113,Institutul de Fonoaudiologie și Chirurgie Funcțională ORL Profesor Doctor Dorin Hociotă,Strada Mihail Cioranu 21,București,,051521,,44.4258643,26.0740922,False,,,,,,,,,,,,,,,,,,,,,,,,,,,,,,,,,,,,,,,,,,,,,,,,,,,,,,,,,,,,,,,,,,,,,,,,,,,,,,,,30113
114,Institutul de Virusologie „Ștefan S. Nicolau”,,București,,030171,,44.4246341,26.1383162,False,,,,,,,,,,,,,,,,,,,,,,,,,,,,,,,,,,,,,,,,,,,,,,,,,,,,,,,,,,,,,,,,,,,,,,,,,,,,,,,,30114
115,Institutul de diabet Paulescu,,București,,011234,,44.4561292,26.0765705,False,,,,,,,,,,,,,,,,,,,,,,,,,,,,,,,,,,,,,,,,,,,,,,,,,,,,,,,,,,,,,,,,,,,,,,,,,,,,,,,,30115
116,Isis Hospital,Strada Mircea cel Bătrân 102,Constanța,,900663,"+40341 46 33 44, +40747 474747",44.1823227,28.6508539,False,,,,,,,,,,,,,,,,,,,,,,,,,,,,,,,,,,,,,,,,,,,,,,,,,,,,,,,,,,,,,,,,,,,,,,,,,,,,,,,,30116
117,Laborator de Medicină Nucleară,,Cluj-Napoca,Cluj,400006,,46.7657547,23.5844424,False,,,,,,,,,,,,,,,,,,,,,,,,,,,,,,,,,,,,,,,,,,,,,,,,,,,,,,,,,,,,,,,,,,,,,,,,,,,,,,,,30117
118,Maternitate,,Făgăraș,,505200,,45.8416033,24.9590052,False,,,,,,,,,,,,,,,,,,,,,,,,,,,,,,,,,,,,,,,,,,,,,,,,,,,,,,,,,,,,,,,,,,,,,,,,,,,,,,,,30118
119,Maternitate,,Drobeta-Turnu Severin,,220146,,44.6236049,22.6572318,False,,,,,,,,,,,,,,,,,,,,,,,,,,,,,,,,,,,,,,,,,,,,,,,,,,,,,,,,,,,,,,,,,,,,,,,,,,,,,,,,30119
120,Maternitatea,,Beiuș,Bihor,415200,,46.6630003,22.3504178,False,,,,,,,,,,,,,,,,,,,,,,,,,,,,,,,,,,,,,,,,,,,,,,,,,,,,,,,,,,,,,,,,,,,,,,,,,,,,,,,,30120
121,Maternitatea Buzău,Strada Victoriei nan,Buzău,Buzău,120209,,45.1490544,26.8270975,False,,,,,,,,,,,,,,,,,,,,,,,,,,,,,,,,,,,,,,,,,,,,,,,,,,,,,,,,,,,,,,,,,,,,,,,,,,,,,,,,30121
122,Maternitatea Buzău,,Buzău,Buzău,120218,,45.1473502,26.8238607,False,,,,,,,,,,,,,,,,,,,,,,,,,,,,,,,,,,,,,,,,,,,,,,,,,,,,,,,,,,,,,,,,,,,,,,,,,,,,,,,,30122
123,Maternitatea Elena Doamna,,Iași,,700401,,47.1611199,27.5981399,False,,,,,,,,,,,,,,,,,,,,,,,,,,,,,,,,,,,,,,,,,,,,,,,,,,,,,,,,,,,,,,,,,,,,,,,,,,,,,,,,30123
124,MediUrg,,Ploiești,Prahova,100028,,44.9341378,26.0269401,False,,,,,,,,,,,,,,,,,,,,,,,,,,,,,,,,,,,,,,,,,,,,,,,,,,,,,,,,,,,,,,,,,,,,,,,,,,,,,,,,30124
125,Medicavol,Bulevardul Dunării nan,Voluntari,Ilfov,077190,,44.4946382,26.1868321,False,,,,,,,,,,,,,,,,,,,,,,,,,,,,,,,,,,,,,,,,,,,,,,,,,,,,,,,,,,,,,,,,,,,,,,,,,,,,,,,,30125
126,Medicină Legală,Strada Clinicilor nan,Cluj-Napoca,Cluj,400006,,46.7648578,23.5819354,False,,,,,,,,,,,,,,,,,,,,,,,,,,,,,,,,,,,,,,,,,,,,,,,,,,,,,,,,,,,,,,,,,,,,,,,,,,,,,,,,30126
127,Metropolitan Hospital,Calea Șerban Vodă nan,București,,040204,,44.4189089,26.1022529,False,,,,,,,,,,,,,,,,,,,,,,,,,,,,,,,,,,,,,,,,,,,,,,,,,,,,,,,,,,,,,,,,,,,,,,,,,,,,,,,,30127
128,Muntenia Hospital,Strada Pictor Nicolae Grigorescu 2A,Pitești,,110117,,44.8622335,24.8700998,False,,,,,,,,,,,,,,,,,,,,,,,,,,,,,,,,,,,,,,,,,,,,,,,,,,,,,,,,,,,,,,,,,,,,,,,,,,,,,,,,30128
129,Nova Vita,Strada Liviu Rebreanu 29A,Târgu Mureș,,540052,"+40 265 266 112, +40 365 430 330",46.5367392,24.5536056,False,,,,,,,,,,,,,,,,,,,,,,,,,,,,,,,,,,,,,,,,,,,,,,,,,,,,,,,,,,,,,,,,,,,,,,,,,,,,,,,,30129
130,Oftapro,Bulevardul Mărășești 15,București,,040251,,44.4191315,26.0966702,False,,,,,,,,,,,,,,,,,,,,,,,,,,,,,,,,,,,,,,,,,,,,,,,,,,,,,,,,,,,,,,,,,,,,,,,,,,,,,,,,30130
131,Pavilionul II,Aleea Dealul Spirii 12,Brașov,,500030,,45.6435772,25.5730387,False,,,,,,,,,,,,,,,,,,,,,,,,,,,,,,,,,,,,,,,,,,,,,,,,,,,,,,,,,,,,,,,,,,,,,,,,,,,,,,,,30131
132,Pavilionul III,Aleea Dealul Spirii 12,Brașov,,500030,,45.6444023,25.5739821,False,,,,,,,,,,,,,,,,,,,,,,,,,,,,,,,,,,,,,,,,,,,,,,,,,,,,,,,,,,,,,,,,,,,,,,,,,,,,,,,,30132
133,Pavilionul V,Strada Gusztav Kollar 4,Brașov,,500030,,45.6445817,25.5760502,False,,,,,,,,,,,,,,,,,,,,,,,,,,,,,,,,,,,,,,,,,,,,,,,,,,,,,,,,,,,,,,,,,,,,,,,,,,,,,,,,30133
134,Pavilionul VI,Strada Gusztav Kollar 4,Brașov,,500030,,45.6442395,25.5759018,False,,,,,,,,,,,,,,,,,,,,,,,,,,,,,,,,,,,,,,,,,,,,,,,,,,,,,,,,,,,,,,,,,,,,,,,,,,,,,,,,30134
135,Pediatrie II + Urgențe,,Cluj-Napoca,Cluj,400029,,46.7672098,23.5774111,False,,,,,,,,,,,,,,,,,,,,,,,,,,,,,,,,,,,,,,,,,,,,,,,,,,,,,,,,,,,,,,,,,,,,,,,,,,,,,,,,30135
136,Pediatrie III,,Cluj-Napoca,Cluj,400217,,46.7809275,23.5858886,False,,,,,,,,,,,,,,,,,,,,,,,,,,,,,,,,,,,,,,,,,,,,,,,,,,,,,,,,,,,,,,,,,,,,,,,,,,,,,,,,30136
137,Policlinic Bethesda,,Suceava,Suceava,,,47.6651908,26.2693389,False,,,,,,,,,,,,,,,,,,,,,,,,,,,,,,,,,,,,,,,,,,,,,,,,,,,,,,,,,,,,,,,,,,,,,,,,,,,,,,,,30137
138,Policlinica,,Gherla,Cluj,405300,,47.0250571,23.9034026,False,,,,,,,,,,,,,,,,,,,,,,,,,,,,,,,,,,,,,,,,,,,,,,,,,,,,,,,,,,,,,,,,,,,,,,,,,,,,,,,,30138
139,Policlinica,,Câmpulung Moldovenesc,Suceava,725100,,47.5305474,25.5588068,False,,,,,,,,,,,,,,,,,,,,,,,,,,,,,,,,,,,,,,,,,,,,,,,,,,,,,,,,,,,,,,,,,,,,,,,,,,,,,,,,30139
140,"Policlinica ""Paltinul""",Strada Luptei 21,Sibiu,Sibiu,550009,,45.7810472,24.1594696,False,,,,,,,,,,,,,,,,,,,,,,,,,,,,,,,,,,,,,,,,,,,,,,,,,,,,,,,,,,,,,,,,,,,,,,,,,,,,,,,,30140
141,Policlinica 1,,Târgoviște,,130007,,44.9269323,25.4563205,False,,,,,,,,,,,,,,,,,,,,,,,,,,,,,,,,,,,,,,,,,,,,,,,,,,,,,,,,,,,,,,,,,,,,,,,,,,,,,,,,30141
142,Policlinica 2,,Călărași,,910014,,44.2074367,27.3166831,False,,,,,,,,,,,,,,,,,,,,,,,,,,,,,,,,,,,,,,,,,,,,,,,,,,,,,,,,,,,,,,,,,,,,,,,,,,,,,,,,30142
143,Policlinica Aiud,,Aiud,Alba,515200,,46.3077152,23.7229194,False,,,,,,,,,,,,,,,,,,,,,,,,,,,,,,,,,,,,,,,,,,,,,,,,,,,,,,,,,,,,,,,,,,,,,,,,,,,,,,,,30143
144,Policlinica Balș,,Balș,Olt,235100,,44.3475093,24.1144311,False,,,,,,,,,,,,,,,,,,,,,,,,,,,,,,,,,,,,,,,,,,,,,,,,,,,,,,,,,,,,,,,,,,,,,,,,,,,,,,,,30144
145,Policlinica Bethesda,,Suceava,Suceava,,,47.6624283,26.2651271,False,,,,,,,,,,,,,,,,,,,,,,,,,,,,,,,,,,,,,,,,,,,,,,,,,,,,,,,,,,,,,,,,,,,,,,,,,,,,,,,,30145
146,Policlinica C.F.R.,Bulevardul General Dragalina 49,Timișoara,,300002,,45.7502327,21.2074844,False,,,,,,,,,,,,,,,,,,,,,,,,,,,,,,,,,,,,,,,,,,,,,,,,,,,,,,,,,,,,,,,,,,,,,,,,,,,,,,,,30146
147,Policlinica CFR,,Sibiu,Sibiu,550009,,45.7920592,24.1573282,False,,,,,,,,,,,,,,,,,,,,,,,,,,,,,,,,,,,,,,,,,,,,,,,,,,,,,,,,,,,,,,,,,,,,,,,,,,,,,,,,30147
148,Policlinica CFR,,Cluj-Napoca,Cluj,400217,,46.7806378,23.5854103,False,,,,,,,,,,,,,,,,,,,,,,,,,,,,,,,,,,,,,,,,,,,,,,,,,,,,,,,,,,,,,,,,,,,,,,,,,,,,,,,,30148
149,Policlinica CINA,Strada Andrei Mureșanu nan,Ploiești,Prahova,100028,,44.9526017,26.0113091,False,,,,,,,,,,,,,,,,,,,,,,,,,,,,,,,,,,,,,,,,,,,,,,,,,,,,,,,,,,,,,,,,,,,,,,,,,,,,,,,,30149
150,Policlinica Carei,,Carei,Satu Mare,445100,,47.6812658,22.4652152,False,,,,,,,,,,,,,,,,,,,,,,,,,,,,,,,,,,,,,,,,,,,,,,,,,,,,,,,,,,,,,,,,,,,,,,,,,,,,,,,,30150
151,Policlinica Carei,,Carei,Satu Mare,445100,,47.6807783,22.4653359,False,,,,,,,,,,,,,,,,,,,,,,,,,,,,,,,,,,,,,,,,,,,,,,,,,,,,,,,,,,,,,,,,,,,,,,,,,,,,,,,,30151
152,Policlinica Carei,,Carei,Satu Mare,445100,,47.6811183,22.4648844,False,,,,,,,,,,,,,,,,,,,,,,,,,,,,,,,,,,,,,,,,,,,,,,,,,,,,,,,,,,,,,,,,,,,,,,,,,,,,,,,,30152
153,Policlinica Câmpina,Bulevardul Carol I 117,Câmpina,Prahova,105600,,45.1278899,25.7324802,False,,,,,,,,,,,,,,,,,,,,,,,,,,,,,,,,,,,,,,,,,,,,,,,,,,,,,,,,,,,,,,,,,,,,,,,,,,,,,,,,30153
154,Policlinica Hipodrom,,Brăila,Brăila,810262,,45.2602392,27.9528285,False,,,,,,,,,,,,,,,,,,,,,,,,,,,,,,,,,,,,,,,,,,,,,,,,,,,,,,,,,,,,,,,,,,,,,,,,,,,,,,,,30154
155,Policlinica Mangalia,,Mangalia,,905500,,43.8090167,28.5819623,False,,,,,,,,,,,,,,,,,,,,,,,,,,,,,,,,,,,,,,,,,,,,,,,,,,,,,,,,,,,,,,,,,,,,,,,,,,,,,,,,30155
156,Policlinica Motru,,Motru,Gorj,215200,,44.8026107,22.9731932,False,,,,,,,,,,,,,,,,,,,,,,,,,,,,,,,,,,,,,,,,,,,,,,,,,,,,,,,,,,,,,,,,,,,,,,,,,,,,,,,,30156
157,Policlinica Municipală,,Drobeta-Turnu Severin,,220006,,44.6301271,22.6372053,False,,,,,,,,,,,,,,,,,,,,,,,,,,,,,,,,,,,,,,,,,,,,,,,,,,,,,,,,,,,,,,,,,,,,,,,,,,,,,,,,30157
158,Policlinica PRAGA,Strada Praga nan,Ploiești,Prahova,100028,,44.9424042,26.0305604,False,,,,,,,,,,,,,,,,,,,,,,,,,,,,,,,,,,,,,,,,,,,,,,,,,,,,,,,,,,,,,,,,,,,,,,,,,,,,,,,,30158
159,Policlinica Rahova,Strada Malcoci 4,București,,051521,,44.4094982,26.0710199,False,,,,,,,,,,,,,,,,,,,,,,,,,,,,,,,,,,,,,,,,,,,,,,,,,,,,,,,,,,,,,,,,,,,,,,,,,,,,,,,,30159
160,Policlinica Reghin,,Reghin,,545300,,46.7832162,24.6952675,False,,,,,,,,,,,,,,,,,,,,,,,,,,,,,,,,,,,,,,,,,,,,,,,,,,,,,,,,,,,,,,,,,,,,,,,,,,,,,,,,30160
161,Policlinica Shuller,,Ploiești,Prahova,100028,,44.9306849,26.0206112,False,,,,,,,,,,,,,,,,,,,,,,,,,,,,,,,,,,,,,,,,,,,,,,,,,,,,,,,,,,,,,,,,,,,,,,,,,,,,,,,,30161
162,Policlinica Spitalului Filantropia,Bulevardul Nicolae Titulescu 40,Craiova,Dolj,200142,,44.3254921,23.7888216,False,,,,,,,,,,,,,,,,,,,,,,,,,,,,,,,,,,,,,,,,,,,,,,,,,,,,,,,,,,,,,,,,,,,,,,,,,,,,,,,,30162
163,Policlinica Stomatologică,,Bârlad,Vaslui,731005,,46.2275572,27.6654323,False,,,,,,,,,,,,,,,,,,,,,,,,,,,,,,,,,,,,,,,,,,,,,,,,,,,,,,,,,,,,,,,,,,,,,,,,,,,,,,,,30163
164,Policlinica Studențească,Strada Memorandului nan,Brașov,,500030,,45.6558034,25.5803102,False,,,,,,,,,,,,,,,,,,,,,,,,,,,,,,,,,,,,,,,,,,,,,,,,,,,,,,,,,,,,,,,,,,,,,,,,,,,,,,,,30164
165,Policlinica Sănătatea,Strada Ștefan cel Mare 52,Timișoara,,300002,,45.7514433,21.2515634,False,,,,,,,,,,,,,,,,,,,,,,,,,,,,,,,,,,,,,,,,,,,,,,,,,,,,,,,,,,,,,,,,,,,,,,,,,,,,,,,,30165
166,Policlinica Târgoviște,,Târgoviște,,130007,,44.9222526,25.4509094,False,,,,,,,,,,,,,,,,,,,,,,,,,,,,,,,,,,,,,,,,,,,,,,,,,,,,,,,,,,,,,,,,,,,,,,,,,,,,,,,,30166
167,Policlinica nr. 2,Bulevardul 1 Decembrie 1918 28,Târgu Mureș,,540052,+40-265-263585,46.5390465,24.5611559,False,,,,,,,,,,,,,,,,,,,,,,,,,,,,,,,,,,,,,,,,,,,,,,,,,,,,,,,,,,,,,,,,,,,,,,,,,,,,,,,,30167
168,Policlinica Ștei,,Ștei,Bihor,415600,,46.5407656,22.4562329,False,,,,,,,,,,,,,,,,,,,,,,,,,,,,,,,,,,,,,,,,,,,,,,,,,,,,,,,,,,,,,,,,,,,,,,,,,,,,,,,,30168
169,Policlinică stomatologică,,Brăila,Brăila,810095,,45.287656,27.9701797,False,,,,,,,,,,,,,,,,,,,,,,,,,,,,,,,,,,,,,,,,,,,,,,,,,,,,,,,,,,,,,,,,,,,,,,,,,,,,,,,,30169
170,Polimed,Strada Tudor Vladimirescu 94 94,Podu Turcului,Bacău,607450,0234 289 704,46.1999657,27.3842543,False,,,,,,,,,,,,,,,,,,,,,,,,,,,,,,,,,,,,,,,,,,,,,,,,,,,,,,,,,,,,,,,,,,,,,,,,,,,,,,,,30170
171,Polisano,,Sibiu,Sibiu,550009,,45.798215,24.1568702,False,,,,,,,,,,,,,,,,,,,,,,,,,,,,,,,,,,,,,,,,,,,,,,,,,,,,,,,,,,,,,,,,,,,,,,,,,,,,,,,,30171
172,Ponderas,,București,,030171,,44.4147645,26.1336159,False,,,,,,,,,,,,,,,,,,,,,,,,,,,,,,,,,,,,,,,,,,,,,,,,,,,,,,,,,,,,,,,,,,,,,,,,,,,,,,,,30172
173,Ponderas Regina Maria,Strada Nicolae G. Caramfil 85 A,București,,014163,,44.4835284,26.0910739,False,,,,,,,,,,,,,,,,,,,,,,,,,,,,,,,,,,,,,,,,,,,,,,,,,,,,,,,,,,,,,,,,,,,,,,,,,,,,,,,,30173
174,ProfDIAGNOSIS,Strada Mihai Eminescu 11,Urziceni,,925300,0243.257755; 0372.920755; 0727.711170; 0731.315407,44.7112287,26.6378221,False,,,,,,,,,,,,,,,,,,,,,,,,,,,,,,,,,,,,,,,,,,,,,,,,,,,,,,,,,,,,,,,,,,,,,,,,,,,,,,,,30174
175,Promedica,,Brăila,Brăila,810210,,45.2637096,27.9704319,False,,,,,,,,,,,,,,,,,,,,,,,,,,,,,,,,,,,,,,,,,,,,,,,,,,,,,,,,,,,,,,,,,,,,,,,,,,,,,,,,30175
176,SERVICIUL DE AMBULANTA BUCURESTI-ILFOV,Strada Mihai Eminescu 226,București,,023571,,44.4459059,26.115935,False,,,,,,,,,,,,,,,,,,,,,,,,,,,,,,,,,,,,,,,,,,,,,,,,,,,,,,,,,,,,,,,,,,,,,,,,,,,,,,,,30176
177,SPITALUL DE PEDIATRIE PLOIEȘTI,Strada Mihai Eminescu nan,Ploiești,Prahova,100028,,44.9319507,26.0261625,False,,,,,,,,,,,,,,,,,,,,,,,,,,,,,,,,,,,,,,,,,,,,,,,,,,,,,,,,,,,,,,,,,,,,,,,,,,,,,,,,30177
178,SPITALUL JUDEȚEAN DE URGENȚĂ PLOIEȘTI,,Ploiești,Prahova,100028,,44.9637639,26.0099119,False,,,,,,,,,,,,,,,,,,,,,,,,,,,,,,,,,,,,,,,,,,,,,,,,,,,,,,,,,,,,,,,,,,,,,,,,,,,,,,,,30178
179,Salvamont,,Toplița,Harghita,535700,,46.9820012,25.4067522,False,,,,,,,,,,,,,,,,,,,,,,,,,,,,,,,,,,,,,,,,,,,,,,,,,,,,,,,,,,,,,,,,,,,,,,,,,,,,,,,,30179
180,Sanador - Spital,,București,,010995,,44.4498147,26.0844341,False,,,,,,,,,,,,,,,,,,,,,,,,,,,,,,,,,,,,,,,,,,,,,,,,,,,,,,,,,,,,,,,,,,,,,,,,,,,,,,,,30180
181,Sanatoriul Agigea,,Agigea,,907015,,44.1057102,28.6370347,False,,,,,,,,,,,,,,,,,,,,,,,,,,,,,,,,,,,,,,,,,,,,,,,,,,,,,,,,,,,,,,,,,,,,,,,,,,,,,,,,30181
182,Sanatoriul Moroeni,,Moroeni,,137310,,45.255792,25.4319132,False,,,,,,,,,,,,,,,,,,,,,,,,,,,,,,,,,,,,,,,,,,,,,,,,,,,,,,,,,,,,,,,,,,,,,,,,,,,,,,,,30182
183,Sanatoriul TBC Osteoarticular „Dr. V. Climescu”,,Agigea,,907015,,44.0909785,28.640392,False,,,,,,,,,,,,,,,,,,,,,,,,,,,,,,,,,,,,,,,,,,,,,,,,,,,,,,,,,,,,,,,,,,,,,,,,,,,,,,,,30183
184,Sanatoriul de Nevroze,Valea Râșnoavei 8,Predeal,,505300,,45.4939429,25.5435761,False,,,,,,,,,,,,,,,,,,,,,,,,,,,,,,,,,,,,,,,,,,,,,,,,,,,,,,,,,,,,,,,,,,,,,,,,,,,,,,,,30184
185,Sanatoriul de neuropsihiatrie Podriga,,Drăgușeni,,717141,,48.0037823,26.8283091,False,,,,,,,,,,,,,,,,,,,,,,,,,,,,,,,,,,,,,,,,,,,,,,,,,,,,,,,,,,,,,,,,,,,,,,,,,,,,,,,,30185
186,Sanepid,Bulevardul Carpați nan,Corabia,Olt,235300,,43.7726052,24.4938916,False,,,,,,,,,,,,,,,,,,,,,,,,,,,,,,,,,,,,,,,,,,,,,,,,,,,,,,,,,,,,,,,,,,,,,,,,,,,,,,,,30186
187,Secția Clinică a II-a de Pneumoftiziologie Pașcanu,,Iași,,700373,,47.1684752,27.6028082,False,,,,,,,,,,,,,,,,,,,,,,,,,,,,,,,,,,,,,,,,,,,,,,,,,,,,,,,,,,,,,,,,,,,,,,,,,,,,,,,,30187
188,Secția Nifon,,Măgura,Buzău,127320,,45.2640716,26.5536633,False,,,,,,,,,,,,,,,,,,,,,,,,,,,,,,,,,,,,,,,,,,,,,,,,,,,,,,,,,,,,,,,,,,,,,,,,,,,,,,,,30188
189,Secția Pediatrie,,Deva,Hunedoara,330088,,45.8766249,22.9059478,False,,,,,,,,,,,,,,,,,,,,,,,,,,,,,,,,,,,,,,,,,,,,,,,,,,,,,,,,,,,,,,,,,,,,,,,,,,,,,,,,30189
190,Secția balneo fizioterapie recuperare medicală a Spitalului Județean,,Drobeta-Turnu Severin,,220154,,44.6253164,22.6630975,False,,,,,,,,,,,,,,,,,,,,,,,,,,,,,,,,,,,,,,,,,,,,,,,,,,,,,,,,,,,,,,,,,,,,,,,,,,,,,,,,30190
191,Secția de recuperare pediatrică,,Timișoara,,300002,,45.7618355,21.2163911,False,,,,,,,,,,,,,,,,,,,,,,,,,,,,,,,,,,,,,,,,,,,,,,,,,,,,,,,,,,,,,,,,,,,,,,,,,,,,,,,,30191
192,Secția obstetrică ginecologie a spitalului municipal,,Vatra Dornei,Suceava,725700,,47.3474109,25.3590689,False,,,,,,,,,,,,,,,,,,,,,,,,,,,,,,,,,,,,,,,,,,,,,,,,,,,,,,,,,,,,,,,,,,,,,,,,,,,,,,,,30192
193,Secția pneumoftiziologie TBC a Spitalului Județean,,Drobeta-Turnu Severin,,220099,,44.6249812,22.6416235,False,,,,,,,,,,,,,,,,,,,,,,,,,,,,,,,,,,,,,,,,,,,,,,,,,,,,,,,,,,,,,,,,,,,,,,,,,,,,,,,,30193
194,Servicii Geriatrie și Asistență Medicală ”Sf. Sava și Teodosie cel Mare”,Strada Cozieni 2,Pantelimon,Ilfov,077145,,44.4575559,26.2814878,False,,,,,,,,,,,,,,,,,,,,,,,,,,,,,,,,,,,,,,,,,,,,,,,,,,,,,,,,,,,,,,,,,,,,,,,,,,,,,,,,30194
195,Serviciul Ambulanță,,Brăila,Brăila,810261,,45.259437,27.9507099,False,,,,,,,,,,,,,,,,,,,,,,,,,,,,,,,,,,,,,,,,,,,,,,,,,,,,,,,,,,,,,,,,,,,,,,,,,,,,,,,,30195
196,Serviciul Județean de Ambulanță Sibiu,,Sibiu,Sibiu,550009,,45.7979916,24.1587167,False,,,,,,,,,,,,,,,,,,,,,,,,,,,,,,,,,,,,,,,,,,,,,,,,,,,,,,,,,,,,,,,,,,,,,,,,,,,,,,,,30196
197,Serviciul Județean de Medicină Legală,,Deva,Hunedoara,330088,,45.8704996,22.9058558,False,,,,,,,,,,,,,,,,,,,,,,,,,,,,,,,,,,,,,,,,,,,,,,,,,,,,,,,,,,,,,,,,,,,,,,,,,,,,,,,,30197
198,Serviciul de Ambulanță al județului Cluj,Strada Horea nan,Cluj-Napoca,Cluj,400217,,46.7809091,23.5866986,False,,,,,,,,,,,,,,,,,,,,,,,,,,,,,,,,,,,,,,,,,,,,,,,,,,,,,,,,,,,,,,,,,,,,,,,,,,,,,,,,30198
199,Serviciul de ambulanță al județului Iași,,Iași,,700165,,47.1529607,27.5997273,False,,,,,,,,,,,,,,,,,,,,,,,,,,,,,,,,,,,,,,,,,,,,,,,,,,,,,,,,,,,,,,,,,,,,,,,,,,,,,,,,30199
200,Serviciul de urgență SMURD,,Târgu Mureș,,540052,,46.5598487,24.5834937,False,,,,,,,,,,,,,,,,,,,,,,,,,,,,,,,,,,,,,,,,,,,,,,,,,,,,,,,,,,,,,,,,,,,,,,,,,,,,,,,,30200
201,Spital,Strada Petofi Șandor nan,Sovata,,545500,,46.5936835,25.0710249,False,,,,,,,,,,,,,,,,,,,,,,,,,,,,,,,,,,,,,,,,,,,,,,,,,,,,,,,,,,,,,,,,,,,,,,,,,,,,,,,,30201
202,Spital,,Câmpulung Moldovenesc,Suceava,725100,,47.5319255,25.5433451,False,,,,,,,,,,,,,,,,,,,,,,,,,,,,,,,,,,,,,,,,,,,,,,,,,,,,,,,,,,,,,,,,,,,,,,,,,,,,,,,,30202
203,Spital,,Câmpulung Moldovenesc,Suceava,725100,,47.5317054,25.5439058,False,,,,,,,,,,,,,,,,,,,,,,,,,,,,,,,,,,,,,,,,,,,,,,,,,,,,,,,,,,,,,,,,,,,,,,,,,,,,,,,,30203
204,Spital,,Tilișca,Sibiu,557280,,45.8013537,23.8412233,False,,,,,,,,,,,,,,,,,,,,,,,,,,,,,,,,,,,,,,,,,,,,,,,,,,,,,,,,,,,,,,,,,,,,,,,,,,,,,,,,30204
205,Spital Azuga,Strada Victoriei 2,Azuga,Prahova,105100,+40244322051,45.4276826,25.5541617,False,,,,,,,,,,,,,,,,,,,,,,,,,,,,,,,,,,,,,,,,,,,,,,,,,,,,,,,,,,,,,,,,,,,,,,,,,,,,,,,,30205
206,Spital Beclean,Strada 1 Decembrie 1918 nan,Beclean,,425100,,47.184443,24.1847276,False,,,,,,,,,,,,,,,,,,,,,,,,,,,,,,,,,,,,,,,,,,,,,,,,,,,,,,,,,,,,,,,,,,,,,,,,,,,,,,,,30206
207,Spital Beclean,Strada 1 Decembrie 1918 nan,Beclean,,425100,,47.1833841,24.1851713,False,,,,,,,,,,,,,,,,,,,,,,,,,,,,,,,,,,,,,,,,,,,,,,,,,,,,,,,,,,,,,,,,,,,,,,,,,,,,,,,,30207
208,Spital Beclean,Strada 1 Decembrie 1918 nan,Beclean,,425100,,47.1841093,24.1863074,False,,,,,,,,,,,,,,,,,,,,,,,,,,,,,,,,,,,,,,,,,,,,,,,,,,,,,,,,,,,,,,,,,,,,,,,,,,,,,,,,30208
209,Spital Brezoi,,Brezoi,Vâlcea,245500,,45.3425876,24.2455709,False,,,,,,,,,,,,,,,,,,,,,,,,,,,,,,,,,,,,,,,,,,,,,,,,,,,,,,,,,,,,,,,,,,,,,,,,,,,,,,,,30209
210,Spital Budești,,Budești,Vâlcea,247055,,45.0643391,24.3877742,False,,,,,,,,,,,,,,,,,,,,,,,,,,,,,,,,,,,,,,,,,,,,,,,,,,,,,,,,,,,,,,,,,,,,,,,,,,,,,,,,30210
211,Spital CFR,,Constanța,,900317,,44.1673143,28.583522,False,,,,,,,,,,,,,,,,,,,,,,,,,,,,,,,,,,,,,,,,,,,,,,,,,,,,,,,,,,,,,,,,,,,,,,,,,,,,,,,,30211
212,Spital Ceuașu de Câmpie,,Ceuașu de Câmpie,,547140,,46.640307,24.5158801,False,,,,,,,,,,,,,,,,,,,,,,,,,,,,,,,,,,,,,,,,,,,,,,,,,,,,,,,,,,,,,,,,,,,,,,,,,,,,,,,,30212
213,Spital Clinic Cai Ferate Constanța-Sediul administrativ,Bulevardul 1 Mai 5-7,Constanța,,,,44.1655614,28.6344771,False,,,,,,,,,,,,,,,,,,,,,,,,,,,,,,,,,,,,,,,,,,,,,,,,,,,,,,,,,,,,,,,,,,,,,,,,,,,,,,,,30213
214,Spital Mangalia,,Mangalia,,905500,,43.8168307,28.5866894,False,,,,,,,,,,,,,,,,,,,,,,,,,,,,,,,,,,,,,,,,,,,,,,,,,,,,,,,,,,,,,,,,,,,,,,,,,,,,,,,,30214
215,Spital Municipal,Strada Fabricii 2A,Târgu Secuiesc,Covasna,525400,,45.9979956,26.1397791,False,,,,,,,,,,,,,,,,,,,,,,,,,,,,,,,,,,,,,,,,,,,,,,,,,,,,,,,,,,,,,,,,,,,,,,,,,,,,,,,,30215
216,Spital Orășenesc Săveni,Strada Avram Iancu nan,Săveni,,715300,,47.9593409,26.8600017,False,,,,,,,,,,,,,,,,,,,,,,,,,,,,,,,,,,,,,,,,,,,,,,,,,,,,,,,,,,,,,,,,,,,,,,,,,,,,,,,,30216
217,Spital de bătrâni,,Zimnicea,Teleorman,145400,,43.6525823,25.3616866,False,,,,,,,,,,,,,,,,,,,,,,,,,,,,,,,,,,,,,,,,,,,,,,,,,,,,,,,,,,,,,,,,,,,,,,,,,,,,,,,,30217
218,Spital raducaneni,,Răducăneni,,707400,,46.9634578,27.9428919,False,,,,,,,,,,,,,,,,,,,,,,,,,,,,,,,,,,,,,,,,,,,,,,,,,,,,,,,,,,,,,,,,,,,,,,,,,,,,,,,,30218
219,Spital si azil M-rea Paltin,,Poiana Teiului,,617340,,47.164832,25.9764496,False,,,,,,,,,,,,,,,,,,,,,,,,,,,,,,,,,,,,,,,,,,,,,,,,,,,,,,,,,,,,,,,,,,,,,,,,,,,,,,,,30219
220,Spitalul  Județean de Urgență Brăila,Șoseaua Buzăului 2,Brăila,Brăila,,,45.2525358,27.9413245,False,,,,,,,,,,,,,,,,,,,,,,,,,,,,,,,,,,,,,,,,,,,,,,,,,,,,,,,,,,,,,,,,,,,,,,,,,,,,,,,,30220
221,"Spitalul ""Buna Vestire"" obstretică-ginecologie",,Galați,,800153,,45.4445555,28.0421077,False,,,,,,,,,,,,,,,,,,,,,,,,,,,,,,,,,,,,,,,,,,,,,,,,,,,,,,,,,,,,,,,,,,,,,,,,,,,,,,,,30221
222,"Spitalul ""Carl Wolf"" - Centru pentru Bătrâni",,Sibiu,Sibiu,550009,,45.7977333,24.1401341,False,,,,,,,,,,,,,,,,,,,,,,,,,,,,,,,,,,,,,,,,,,,,,,,,,,,,,,,,,,,,,,,,,,,,,,,,,,,,,,,,30222
223,Spitalul 2,,Râmnicu Vâlcea,Vâlcea,240159,,45.1087535,24.3681636,False,,,,,,,,,,,,,,,,,,,,,,,,,,,,,,,,,,,,,,,,,,,,,,,,,,,,,,,,,,,,,,,,,,,,,,,,,,,,,,,,30223
224,Spitalul Agnita,Strada Spitalului 4,Agnita,Sibiu,555100,,45.9788926,24.6224366,False,,,,,,,,,,,,,,,,,,,,,,,,,,,,,,,,,,,,,,,,,,,,,,,,,,,,,,,,,,,,,,,,,,,,,,,,,,,,,,,,30224
225,Spitalul Aiud,,Aiud,Alba,515200,,46.3077623,23.7230167,False,,,,,,,,,,,,,,,,,,,,,,,,,,,,,,,,,,,,,,,,,,,,,,,,,,,,,,,,,,,,,,,,,,,,,,,,,,,,,,,,30225
226,Spitalul Aiud,,Aiud,Alba,515200,,46.3079301,23.7235314,False,,,,,,,,,,,,,,,,,,,,,,,,,,,,,,,,,,,,,,,,,,,,,,,,,,,,,,,,,,,,,,,,,,,,,,,,,,,,,,,,30226
227,Spitalul BalneoMedCenter,,Râmnicu Vâlcea,Vâlcea,,,45.082107,24.3670524,False,,,,,,,,,,,,,,,,,,,,,,,,,,,,,,,,,,,,,,,,,,,,,,,,,,,,,,,,,,,,,,,,,,,,,,,,,,,,,,,,30227
228,Spitalul Boldescu,,Ploiești,Prahova,100028,,44.9500947,26.0240557,False,,,,,,,,,,,,,,,,,,,,,,,,,,,,,,,,,,,,,,,,,,,,,,,,,,,,,,,,,,,,,,,,,,,,,,,,,,,,,,,,30228
229,Spitalul Boli Infecțioase,,Satu Mare,Satu Mare,440014,,47.7945099,22.8856886,False,,,,,,,,,,,,,,,,,,,,,,,,,,,,,,,,,,,,,,,,,,,,,,,,,,,,,,,,,,,,,,,,,,,,,,,,,,,,,,,,30229
230,Spitalul Boli Pulmonare ,,Breaza,Prahova,105401,,45.1791475,25.6762752,False,,,,,,,,,,,,,,,,,,,,,,,,,,,,,,,,,,,,,,,,,,,,,,,,,,,,,,,,,,,,,,,,,,,,,,,,,,,,,,,,30230
231,Spitalul Buna Vestire,,Ploiești,Prahova,100028,,44.9390262,26.030587,False,,,,,,,,,,,,,,,,,,,,,,,,,,,,,,,,,,,,,,,,,,,,,,,,,,,,,,,,,,,,,,,,,,,,,,,,,,,,,,,,30231
232,Spitalul Băneasa Regina Maria,Strada Constantin Dobrogeanu-Gherea 85,București,,013744,,44.4958919,26.0717694,False,,,,,,,,,,,,,,,,,,,,,,,,,,,,,,,,,,,,,,,,,,,,,,,,,,,,,,,,,,,,,,,,,,,,,,,,,,,,,,,,30232
233,Spitalul C.F.R.,,Satu Mare,Satu Mare,440014,,47.7895054,22.8816176,False,,,,,,,,,,,,,,,,,,,,,,,,,,,,,,,,,,,,,,,,,,,,,,,,,,,,,,,,,,,,,,,,,,,,,,,,,,,,,,,,30233
234,Spitalul C.F.R.,,Drobeta-Turnu Severin,,220099,,44.6234415,22.6412098,False,,,,,,,,,,,,,,,,,,,,,,,,,,,,,,,,,,,,,,,,,,,,,,,,,,,,,,,,,,,,,,,,,,,,,,,,,,,,,,,,30234
235,Spitalul CF Buzău,Bulevardul Republicii 8-12,Buzău,Buzău,120055,,45.1436946,26.8361269,False,,,,,,,,,,,,,,,,,,,,,,,,,,,,,,,,,,,,,,,,,,,,,,,,,,,,,,,,,,,,,,,,,,,,,,,,,,,,,,,,30235
236,Spitalul CFR,Bulevardul Știrbei Vodă 6,Craiova,Dolj,200413,,44.314555,23.7937217,False,,,,,,,,,,,,,,,,,,,,,,,,,,,,,,,,,,,,,,,,,,,,,,,,,,,,,,,,,,,,,,,,,,,,,,,,,,,,,,,,30236
237,Spitalul CFR,,Ploiești,Prahova,100028,,44.926499,25.9965905,False,,,,,,,,,,,,,,,,,,,,,,,,,,,,,,,,,,,,,,,,,,,,,,,,,,,,,,,,,,,,,,,,,,,,,,,,,,,,,,,,30237
238,Spitalul Calafat - Secția exterioara TBC Pneumologie,Strada 1 Decembrie 1918 nan,Poiana Mare,Dolj,207470,,43.9132628,23.0991253,False,,,,,,,,,,,,,,,,,,,,,,,,,,,,,,,,,,,,,,,,,,,,,,,,,,,,,,,,,,,,,,,,,,,,,,,,,,,,,,,,30238
239,"Spitalul Clinic ""Doctor Ioan Cantacuzino""",Strada Ion Movilă 5-7,București,,023571,+40212107100,44.4449545,26.1093263,False,,,,,,,,,,,,,,,,,,,,,,,,,,,,,,,,,,,,,,,,,,,,,,,,,,,,,,,,,,,,,,,,,,,,,,,,,,,,,,,,30239
240,Spitalul Clinic C.F. Constanța,,Constanța,,,,44.1738648,28.651106,False,,,,,,,,,,,,,,,,,,,,,,,,,,,,,,,,,,,,,,,,,,,,,,,,,,,,,,,,,,,,,,,,,,,,,,,,,,,,,,,,30240
241,Spitalul Clinic C.F. Nr. 2,Bulevardul Mărăști 62,București,,012103,,44.473797,26.0691431,False,,,,,,,,,,,,,,,,,,,,,,,,,,,,,,,,,,,,,,,,,,,,,,,,,,,,,,,,,,,,,,,,,,,,,,,,,,,,,,,,30241
242,Spitalul Clinic Colentina,Șoseaua Ștefan cel Mare 19-21,București,,023571,+4 021 3173245,44.4546577,26.1154528,False,,,,,,,,,,,,,,,,,,,,,,,,,,,,,,,,,,,,,,,,,,,,,,,,,,,,,,,,,,,,,,,,,,,,,,,,,,,,,,,,30242
243,Spitalul Clinic Căi Ferate,,Oradea,Bihor,410065,,47.0671585,21.9352689,False,,,,,,,,,,,,,,,,,,,,,,,,,,,,,,,,,,,,,,,,,,,,,,,,,,,,,,,,,,,,,,,,,,,,,,,,,,,,,,,,30243
244,Spitalul Clinic Căi Ferate,Splaiul Tudor Vladimirescu 13-15,Timișoara,,300002,+40 256 493 088,45.7495125,21.2179142,False,,,,,,,,,,,,,,,,,,,,,,,,,,,,,,,,,,,,,,,,,,,,,,,,,,,,,,,,,,,,,,,,,,,,,,,,,,,,,,,,30244
245,Spitalul Clinic Dr CI Parhon,,Iași,,700503,,47.1800168,27.5681719,False,,,,,,,,,,,,,,,,,,,,,,,,,,,,,,,,,,,,,,,,,,,,,,,,,,,,,,,,,,,,,,,,,,,,,,,,,,,,,,,,30245
246,Spitalul Clinic Județean - Clinica de Pediatrie,Strada Pompeiu Onofreiu 2 - 4,Sibiu,Sibiu,550009,,45.7952233,24.1549511,False,,,,,,,,,,,,,,,,,,,,,,,,,,,,,,,,,,,,,,,,,,,,,,,,,,,,,,,,,,,,,,,,,,,,,,,,,,,,,,,,30246
247,Spitalul Clinic Județean de Urgentă,,Sibiu,Sibiu,550009,,45.7942078,24.1547703,False,,,,,,,,,,,,,,,,,,,,,,,,,,,,,,,,,,,,,,,,,,,,,,,,,,,,,,,,,,,,,,,,,,,,,,,,,,,,,,,,30247
248,"Spitalul Clinic Județean de Urgențe ""Sf. Spiridon""",Bulevardul Independenței 1,Iași,,700098,0232-240822,47.1679519,27.5811326,False,,,,,,,,,,,,,,,,,,,,,,,,,,,,,,,,,,,,,,,,,,,,,,,,,,,,,,,,,,,,,,,,,,,,,,,,,,,,,,,,30248
249,Spitalul Clinic Județean de Urgență,Strada Clinicilor nan,Cluj-Napoca,Cluj,400006,,46.7658775,23.5830532,False,,,,,,,,,,,,,,,,,,,,,,,,,,,,,,,,,,,,,,,,,,,,,,,,,,,,,,,,,,,,,,,,,,,,,,,,,,,,,,,,30249
250,Spitalul Clinic Județean de Urgență,,Deva,Hunedoara,330088,,45.8772699,22.9044186,False,,,,,,,,,,,,,,,,,,,,,,,,,,,,,,,,,,,,,,,,,,,,,,,,,,,,,,,,,,,,,,,,,,,,,,,,,,,,,,,,30250
251,Spitalul Clinic Județean de Urgență,Strada Tabaci 1,Craiova,Dolj,200642,,44.3066944,23.792401,False,,,,,,,,,,,,,,,,,,,,,,,,,,,,,,,,,,,,,,,,,,,,,,,,,,,,,,,,,,,,,,,,,,,,,,,,,,,,,,,,30251
252,Spitalul Clinic Județean de Urgență Cluj,,Cluj-Napoca,Cluj,400006,,46.7656239,23.5818652,False,,,,,,,,,,,,,,,,,,,,,,,,,,,,,,,,,,,,,,,,,,,,,,,,,,,,,,,,,,,,,,,,,,,,,,,,,,,,,,,,30252
253,Spitalul Clinic Județean de Urgență Pius Brînzeu,Bulevardul Dr. Iosif Bulbucă (Liviu Rebreanu) 156,Timișoara,,300002,,45.7366392,21.2435394,False,,,,,,,,,,,,,,,,,,,,,,,,,,,,,,,,,,,,,,,,,,,,,,,,,,,,,,,,,,,,,,,,,,,,,,,,,,,,,,,,30253
254,Spitalul Clinic Județean de Urgență „Sf. Apostol Andrei” Constanța,Bulevardul Tomis 145,Constanța,,900612,,44.1867919,28.6407109,False,,,,,,,,,,,,,,,,,,,,,,,,,,,,,,,,,,,,,,,,,,,,,,,,,,,,,,,,,,,,,,,,,,,,,,,,,,,,,,,,30254
255,Spitalul Clinic Municipal,Strada Mihai Viteazul 7-8,Arad,Arad,310182,,46.1798407,21.3159401,False,,,,,,,,,,,,,,,,,,,,,,,,,,,,,,,,,,,,,,,,,,,,,,,,,,,,,,,,,,,,,,,,,,,,,,,,,,,,,,,,30255
256,Spitalul Clinic Municipal Dr. Gavril Curteanu,,Oradea,Bihor,410065,,47.0752818,21.9171303,False,,,,,,,,,,,,,,,,,,,,,,,,,,,,,,,,,,,,,,,,,,,,,,,,,,,,,,,,,,,,,,,,,,,,,,,,,,,,,,,,30256
257,Spitalul Clinic Municipal Filantropia,,Craiova,Dolj,200136,,44.3226986,23.7932327,False,,,,,,,,,,,,,,,,,,,,,,,,,,,,,,,,,,,,,,,,,,,,,,,,,,,,,,,,,,,,,,,,,,,,,,,,,,,,,,,,30257
258,Spitalul Clinic Nicolae Malaxa,Șoseaua Vergului 12,București,,030171,,44.4384233,26.1783545,False,,,,,,,,,,,,,,,,,,,,,,,,,,,,,,,,,,,,,,,,,,,,,,,,,,,,,,,,,,,,,,,,,,,,,,,,,,,,,,,,30258
259,Spitalul Clinic Nr.2 Filantropia,Strada Filantropiei 1,Craiova,Dolj,200581,,44.3215714,23.7924603,False,,,,,,,,,,,,,,,,,,,,,,,,,,,,,,,,,,,,,,,,,,,,,,,,,,,,,,,,,,,,,,,,,,,,,,,,,,,,,,,,30259
260,Spitalul Clinic Profesor Doctor Theodor Burghele,,București,,051521,,44.425606,26.0722353,False,,,,,,,,,,,,,,,,,,,,,,,,,,,,,,,,,,,,,,,,,,,,,,,,,,,,,,,,,,,,,,,,,,,,,,,,,,,,,,,,30260
261,"Spitalul Clinic de Adulți Secția Clinică Obstetrica-Ginecologie II ""Dominic Stanca""",Bulevardul 21 Decembrie 1989 53-55,Cluj-Napoca,Cluj,400119,,46.7744183,23.5999358,False,,,,,,,,,,,,,,,,,,,,,,,,,,,,,,,,,,,,,,,,,,,,,,,,,,,,,,,,,,,,,,,,,,,,,,,,,,,,,,,,30261
262,"Spitalul Clinic de Adulți Secția Clinică Obstetrica-Ginecologie II ""Dominic Stanca""",Strada Paris 2,Cluj-Napoca,Cluj,400119,,46.7743398,23.5999931,False,,,,,,,,,,,,,,,,,,,,,,,,,,,,,,,,,,,,,,,,,,,,,,,,,,,,,,,,,,,,,,,,,,,,,,,,,,,,,,,,30262
263,Spitalul Clinic de Boli Infecțioase,Bulevardul Ferdinand 100,Constanța,,900711,,44.1706162,28.6371628,False,,,,,,,,,,,,,,,,,,,,,,,,,,,,,,,,,,,,,,,,,,,,,,,,,,,,,,,,,,,,,,,,,,,,,,,,,,,,,,,,30263
264,Spitalul Clinic de Boli Infecțioase,Strada Iuliu Moldovan 23,Cluj-Napoca,Cluj,400348,,46.7606932,23.5830973,False,,,,,,,,,,,,,,,,,,,,,,,,,,,,,,,,,,,,,,,,,,,,,,,,,,,,,,,,,,,,,,,,,,,,,,,,,,,,,,,,30264
265,Spitalul Clinic de Boli Infecțioase și Pneumoftiziologie Dr. Victor Babeș,Strada Gheorghe Adam 13,Timișoara,,300002,,45.7689955,21.2603163,False,,,,,,,,,,,,,,,,,,,,,,,,,,,,,,,,,,,,,,,,,,,,,,,,,,,,,,,,,,,,,,,,,,,,,,,,,,,,,,,,30265
266,Spitalul Clinic de Boli Infecțioase și Pneumoftiziologie Dr. Victor Babeș,Calea București 126,Craiova,Dolj,200515,,44.3149227,23.8246033,False,,,,,,,,,,,,,,,,,,,,,,,,,,,,,,,,,,,,,,,,,,,,,,,,,,,,,,,,,,,,,,,,,,,,,,,,,,,,,,,,30266
267,Spitalul Clinic de Boli Infecțioase “Sfânta Parascheva”,,Iași,,700115,,47.1710315,27.5833191,False,,,,,,,,,,,,,,,,,,,,,,,,,,,,,,,,,,,,,,,,,,,,,,,,,,,,,,,,,,,,,,,,,,,,,,,,,,,,,,,,30267
268,"Spitalul Clinic de Chirurgie Oro-Maxilo-Facială ""Prof. Dr. Dan Theodorescu""",Calea Plevnei 17-21,București,,010221,,44.4358189,26.0852229,False,,,,,,,,,,,,,,,,,,,,,,,,,,,,,,,,,,,,,,,,,,,,,,,,,,,,,,,,,,,,,,,,,,,,,,,,,,,,,,,,30268
269,Spitalul Clinic de Nefrologie Dr. Carol Davila,,București,,010731,,44.4443743,26.0894303,False,,,,,,,,,,,,,,,,,,,,,,,,,,,,,,,,,,,,,,,,,,,,,,,,,,,,,,,,,,,,,,,,,,,,,,,,,,,,,,,,30269
270,Spitalul Clinic de Neurologie și Psihiatrie,,Oradea,Bihor,410065,,47.0635438,21.9448908,False,,,,,,,,,,,,,,,,,,,,,,,,,,,,,,,,,,,,,,,,,,,,,,,,,,,,,,,,,,,,,,,,,,,,,,,,,,,,,,,,30270
271,Spitalul Clinic de Neuropsihiatrie,Calea București 99,Craiova,Dolj,200472,0251431189,44.3174294,23.8154514,False,,,,,,,,,,,,,,,,,,,,,,,,,,,,,,,,,,,,,,,,,,,,,,,,,,,,,,,,,,,,,,,,,,,,,,,,,,,,,,,,30271
272,Spitalul Clinic de Obstetrică-Ginecologie Dr. Dumitru Popescu,Bulevardul 16 Decembrie 1989 22-24,Timișoara,,300002,,45.744701,21.2146799,False,,,,,,,,,,,,,,,,,,,,,,,,,,,,,,,,,,,,,,,,,,,,,,,,,,,,,,,,,,,,,,,,,,,,,,,,,,,,,,,,30272
273,Spitalul Clinic de Ortopedie,Strada General Traian Moșoiu nan,Cluj-Napoca,Cluj,400121,,46.7712196,23.6046608,False,,,,,,,,,,,,,,,,,,,,,,,,,,,,,,,,,,,,,,,,,,,,,,,,,,,,,,,,,,,,,,,,,,,,,,,,,,,,,,,,30273
274,"Spitalul Clinic de Ortopedie ""Foișor"" - Ambulator",Bulevardul Ferdinand I 35,București,,023571,,44.440796,26.1215769,False,,,,,,,,,,,,,,,,,,,,,,,,,,,,,,,,,,,,,,,,,,,,,,,,,,,,,,,,,,,,,,,,,,,,,,,,,,,,,,,,30274
275,Spitalul Clinic de Pneumoftiziologie Brașov - Pavilionul I,Aleea Dealul Spirii 12,Brașov,,500030,0268477011,45.6429493,25.5736522,False,,,,,,,,,,,,,,,,,,,,,,,,,,,,,,,,,,,,,,,,,,,,,,,,,,,,,,,,,,,,,,,,,,,,,,,,,,,,,,,,30275
276,Spitalul Clinic de Pneumoftiziologie Constanța,Strada Sentinelei 40,Constanța,,900002,,44.2317851,28.6085487,False,,,,,,,,,,,,,,,,,,,,,,,,,,,,,,,,,,,,,,,,,,,,,,,,,,,,,,,,,,,,,,,,,,,,,,,,,,,,,,,,30276
277,Spitalul Clinic de Pneumologie,,Iași,,700313,,47.1554474,27.6094451,False,,,,,,,,,,,,,,,,,,,,,,,,,,,,,,,,,,,,,,,,,,,,,,,,,,,,,,,,,,,,,,,,,,,,,,,,,,,,,,,,30277
278,Spitalul Clinic de Psihiatrie Socola,nan 36,Iași,,700280,,47.1307568,27.6137204,False,,,,,,,,,,,,,,,,,,,,,,,,,,,,,,,,,,,,,,,,,,,,,,,,,,,,,,,,,,,,,,,,,,,,,,,,,,,,,,,,30278
279,Spitalul Clinic de Psihiatrie “Prof. Dr. Alexandru Obregia”,,București,,,,44.3863938,26.1281487,False,,,,,,,,,,,,,,,,,,,,,,,,,,,,,,,,,,,,,,,,,,,,,,,,,,,,,,,,,,,,,,,,,,,,,,,,,,,,,,,,30279
280,Spitalul Clinic de Urgenta pentru copii Cluj-Napoca Neonatologie-prematuri,Strada Donath 172,Cluj-Napoca,Cluj,400331,,46.7674114,23.5464858,False,,,,,,,,,,,,,,,,,,,,,,,,,,,,,,,,,,,,,,,,,,,,,,,,,,,,,,,,,,,,,,,,,,,,,,,,,,,,,,,,30280
281,Spitalul Clinic de Urgențe Oftalmologice,Piața Lahovari 1,București,,010465,,44.4459748,26.1000622,False,,,,,,,,,,,,,,,,,,,,,,,,,,,,,,,,,,,,,,,,,,,,,,,,,,,,,,,,,,,,,,,,,,,,,,,,,,,,,,,,30281
282,Spitalul Clinic de Urgențe Tătărași,Strada Ion Creangă 94,Iași,,700321,,47.1608815,27.6164654,False,,,,,,,,,,,,,,,,,,,,,,,,,,,,,,,,,,,,,,,,,,,,,,,,,,,,,,,,,,,,,,,,,,,,,,,,,,,,,,,,30282
283,"Spitalul Clinic de Urgență ""Bagdasar-Arsenie""",,București,,,,44.3851108,26.1293482,False,,,,,,,,,,,,,,,,,,,,,,,,,,,,,,,,,,,,,,,,,,,,,,,,,,,,,,,,,,,,,,,,,,,,,,,,,,,,,,,,30283
284,"Spitalul Clinic de Urgență ""Bagdasar-Arsenie""",,București,,,,44.385489,26.1276861,False,,,,,,,,,,,,,,,,,,,,,,,,,,,,,,,,,,,,,,,,,,,,,,,,,,,,,,,,,,,,,,,,,,,,,,,,,,,,,,,,30284
285,"Spitalul Clinic de Urgență ""Prof. Dr. Nicolae Oblu""",Strada Ateneului 2,Iași,,700309,+40 232 264271;+40 232 473020,47.1613322,27.6076341,False,,,,,,,,,,,,,,,,,,,,,,,,,,,,,,,,,,,,,,,,,,,,,,,,,,,,,,,,,,,,,,,,,,,,,,,,,,,,,,,,30285
286,Spitalul Clinic de Urgență Arad,,Arad,Arad,310182,,46.1843755,21.3095887,False,,,,,,,,,,,,,,,,,,,,,,,,,,,,,,,,,,,,,,,,,,,,,,,,,,,,,,,,,,,,,,,,,,,,,,,,,,,,,,,,30286
287,Spitalul Clinic de Urgență Avram Iancu,,Oradea,Bihor,410065,,47.0624146,21.9366007,False,,,,,,,,,,,,,,,,,,,,,,,,,,,,,,,,,,,,,,,,,,,,,,,,,,,,,,,,,,,,,,,,,,,,,,,,,,,,,,,,30287
288,"Spitalul Clinic de Urgență Chirurgie Plastică, Reparatorie și Arsuri",,București,,012196,,44.4642626,26.0564588,False,,,,,,,,,,,,,,,,,,,,,,,,,,,,,,,,,,,,,,,,,,,,,,,,,,,,,,,,,,,,,,,,,,,,,,,,,,,,,,,,30288
289,"Spitalul Clinic de Urgență Militar ""Dr. Ștefan Odobleja""",Strada Caracal 150,Craiova,Dolj,200317,0251581081,44.302218,23.8194946,False,,,,,,,,,,,,,,,,,,,,,,,,,,,,,,,,,,,,,,,,,,,,,,,,,,,,,,,,,,,,,,,,,,,,,,,,,,,,,,,,30289
290,Spitalul Clinic de Urgență Prof. Dr. Agrippa Ionescu,Strada Ion Constantin Brătianu 149,Balotești,Ilfov,077016,,44.6460536,26.1192578,False,,,,,,,,,,,,,,,,,,,,,,,,,,,,,,,,,,,,,,,,,,,,,,,,,,,,,,,,,,,,,,,,,,,,,,,,,,,,,,,,30290
291,Spitalul Clinic de Urgență Sfântul Ioan,Șoseaua Vitan-Bârzești 13,București,,030171,+40213345075,44.3916272,26.1427626,False,,,,,,,,,,,,,,,,,,,,,,,,,,,,,,,,,,,,,,,,,,,,,,,,,,,,,,,,,,,,,,,,,,,,,,,,,,,,,,,,30291
292,Spitalul Clinic de Urgență pentru Copii Louis Țurcanu,,Timișoara,,300002,,45.7541313,21.2213879,False,,,,,,,,,,,,,,,,,,,,,,,,,,,,,,,,,,,,,,,,,,,,,,,,,,,,,,,,,,,,,,,,,,,,,,,,,,,,,,,,30292
293,Spitalul Clinic de Urgență pentru Copii „Grigore Alexandrescu”,Bulevardul Iancu de Hunedoara nan,București,,,,44.4522542,26.0904944,False,,,,,,,,,,,,,,,,,,,,,,,,,,,,,,,,,,,,,,,,,,,,,,,,,,,,,,,,,,,,,,,,,,,,,,,,,,,,,,,,30293
294,Spitalul Clinic nr.1 C.F. Witing,Calea Plevnei 162-164,București,,060941,,44.4423803,26.0716359,False,,,,,,,,,,,,,,,,,,,,,,,,,,,,,,,,,,,,,,,,,,,,,,,,,,,,,,,,,,,,,,,,,,,,,,,,,,,,,,,,30294
295,Spitalul Ecomed - Vintilă Vodă,,Vintilă Vodă,Buzău,127695,,45.4586215,26.7425296,False,,,,,,,,,,,,,,,,,,,,,,,,,,,,,,,,,,,,,,,,,,,,,,,,,,,,,,,,,,,,,,,,,,,,,,,,,,,,,,,,30295
296,Spitalul Elena Beldiman,,Bârlad,Vaslui,731085,,46.2352539,27.6715602,False,,,,,,,,,,,,,,,,,,,,,,,,,,,,,,,,,,,,,,,,,,,,,,,,,,,,,,,,,,,,,,,,,,,,,,,,,,,,,,,,30296
297,Spitalul Filantropia,,București,,011141,,44.4526353,26.082404,False,,,,,,,,,,,,,,,,,,,,,,,,,,,,,,,,,,,,,,,,,,,,,,,,,,,,,,,,,,,,,,,,,,,,,,,,,,,,,,,,30297
298,Spitalul Fundeni,,București,,023571,,44.4655861,26.1578509,False,,,,,,,,,,,,,,,,,,,,,,,,,,,,,,,,,,,,,,,,,,,,,,,,,,,,,,,,,,,,,,,,,,,,,,,,,,,,,,,,30298
299,Spitalul Grecescu,,Drobeta-Turnu Severin,,220097,,44.6241305,22.6442098,False,,,,,,,,,,,,,,,,,,,,,,,,,,,,,,,,,,,,,,,,,,,,,,,,,,,,,,,,,,,,,,,,,,,,,,,,,,,,,,,,30299
300,Spitalul Huedin,Strada Spitalului 42,Huedin,Cluj,405400,,46.8627407,23.0152743,False,,,,,,,,,,,,,,,,,,,,,,,,,,,,,,,,,,,,,,,,,,,,,,,,,,,,,,,,,,,,,,,,,,,,,,,,,,,,,,,,30300
301,Spitalul Județean,,Suceava,Suceava,720224,,47.6393056,26.2406942,False,,,,,,,,,,,,,,,,,,,,,,,,,,,,,,,,,,,,,,,,,,,,,,,,,,,,,,,,,,,,,,,,,,,,,,,,,,,,,,,,30301
302,Spitalul Județean Dâmbovița,,Târgoviște,,130007,,44.9242085,25.4501612,False,,,,,,,,,,,,,,,,,,,,,,,,,,,,,,,,,,,,,,,,,,,,,,,,,,,,,,,,,,,,,,,,,,,,,,,,,,,,,,,,30302
303,Spitalul Județean Ialomița,,Slobozia,,920014,,44.5682022,27.3596604,False,,,,,,,,,,,,,,,,,,,,,,,,,,,,,,,,,,,,,,,,,,,,,,,,,,,,,,,,,,,,,,,,,,,,,,,,,,,,,,,,30303
304,Spitalul Județean Ilfov,,București,,023571,,44.4349966,26.1560953,False,,,,,,,,,,,,,,,,,,,,,,,,,,,,,,,,,,,,,,,,,,,,,,,,,,,,,,,,,,,,,,,,,,,,,,,,,,,,,,,,30304
305,Spitalul Județean Sălaj,,Zalău,Sălaj,450090,,47.1929082,23.0503571,False,,,,,,,,,,,,,,,,,,,,,,,,,,,,,,,,,,,,,,,,,,,,,,,,,,,,,,,,,,,,,,,,,,,,,,,,,,,,,,,,30305
306,Spitalul Județean de Urgență,,Drobeta-Turnu Severin,,220067,0252/313751,44.6437003,22.6512094,False,,,,,,,,,,,,,,,,,,,,,,,,,,,,,,,,,,,,,,,,,,,,,,,,,,,,,,,,,,,,,,,,,,,,,,,,,,,,,,,,30306
307,Spitalul Județean de Urgență - Vâlcea,,Râmnicu Vâlcea,Vâlcea,240749,,45.1180125,24.3603645,False,,,,,,,,,,,,,,,,,,,,,,,,,,,,,,,,,,,,,,,,,,,,,,,,,,,,,,,,,,,,,,,,,,,,,,,,,,,,,,,,30307
308,Spitalul Județean de Urgență Dr. Constantin Opriș,,Baia Mare,,430242,,47.6558136,23.5523972,False,,,,,,,,,,,,,,,,,,,,,,,,,,,,,,,,,,,,,,,,,,,,,,,,,,,,,,,,,,,,,,,,,,,,,,,,,,,,,,,,30308
309,Spitalul Județean de Urgență Pitești,Aleea Spitalului 36,Pitești,,110284,0248287150,44.8715527,24.8466626,False,,,,,,,,,,,,,,,,,,,,,,,,,,,,,,,,,,,,,,,,,,,,,,,,,,,,,,,,,,,,,,,,,,,,,,,,,,,,,,,,30309
310,"Spitalul Județean de Urgență Pitești, Pavilion Secția Oncologie",Bulevardul I. C. Brătianu 62,Pitești,,110117,,44.8618744,24.8700457,False,,,,,,,,,,,,,,,,,,,,,,,,,,,,,,,,,,,,,,,,,,,,,,,,,,,,,,,,,,,,,,,,,,,,,,,,,,,,,,,,30310
311,"Spitalul Județean de Urgență Pitești, Secția Boli Infecțioase",Bulevardul I. C. Brătianu 56,Pitești,,110121,,44.8611094,24.8695372,False,,,,,,,,,,,,,,,,,,,,,,,,,,,,,,,,,,,,,,,,,,,,,,,,,,,,,,,,,,,,,,,,,,,,,,,,,,,,,,,,30311
312,"Spitalul Județean de Urgență Pitești, Secțiile Oftalmologie, Psihiatrie și Pneumologie",Strada Negru Vodă 53,Pitești,,110065,,44.866299,24.8590499,False,,,,,,,,,,,,,,,,,,,,,,,,,,,,,,,,,,,,,,,,,,,,,,,,,,,,,,,,,,,,,,,,,,,,,,,,,,,,,,,,30312
313,Spitalul Județean de Urgență Reșița,,Reșița,,,,45.3253823,21.8803262,False,,,,,,,,,,,,,,,,,,,,,,,,,,,,,,,,,,,,,,,,,,,,,,,,,,,,,,,,,,,,,,,,,,,,,,,,,,,,,,,,30313
314,Spitalul Județean de Urgență Slatina,,Slatina,Olt,230027,,44.432149,24.3681746,False,,,,,,,,,,,,,,,,,,,,,,,,,,,,,,,,,,,,,,,,,,,,,,,,,,,,,,,,,,,,,,,,,,,,,,,,,,,,,,,,30314
315,Spitalul Județean de urgență Sf. Spiridon,,Brăila,Brăila,810249,,45.2578616,27.9529593,False,,,,,,,,,,,,,,,,,,,,,,,,,,,,,,,,,,,,,,,,,,,,,,,,,,,,,,,,,,,,,,,,,,,,,,,,,,,,,,,,30315
316,Spitalul Maria Sklodowska Curie (de copii) - Budimex,Bulevardul Constantin Brâncoveanu nan,București,,041406,,44.3896324,26.1089945,False,,,,,,,,,,,,,,,,,,,,,,,,,,,,,,,,,,,,,,,,,,,,,,,,,,,,,,,,,,,,,,,,,,,,,,,,,,,,,,,,30316
317,Spitalul Mavromati,Strada Arhimandrit Marchian 11,Botoșani,,710357,,47.7422144,26.6615309,False,,,,,,,,,,,,,,,,,,,,,,,,,,,,,,,,,,,,,,,,,,,,,,,,,,,,,,,,,,,,,,,,,,,,,,,,,,,,,,,,30317
318,Spitalul Militar,,Cluj-Napoca,Cluj,400132,,46.7694348,23.6017672,False,,,,,,,,,,,,,,,,,,,,,,,,,,,,,,,,,,,,,,,,,,,,,,,,,,,,,,,,,,,,,,,,,,,,,,,,,,,,,,,,30318
319,Spitalul Militar,,Iași,,700483,,47.1734909,27.5744181,False,,,,,,,,,,,,,,,,,,,,,,,,,,,,,,,,,,,,,,,,,,,,,,,,,,,,,,,,,,,,,,,,,,,,,,,,,,,,,,,,30319
320,Spitalul Militar,Strada Cezar Bolliac 3-5,Focșani,Vrancea,620077,,45.6968576,27.1900319,False,,,,,,,,,,,,,,,,,,,,,,,,,,,,,,,,,,,,,,,,,,,,,,,,,,,,,,,,,,,,,,,,,,,,,,,,,,,,,,,,30320
321,Spitalul Militar de Urgențe “Dr. Alexandru Augustin” Sibiu,Bulevardul Victoriei 46,Sibiu,Sibiu,550009,,45.7842809,24.1390507,False,,,,,,,,,,,,,,,,,,,,,,,,,,,,,,,,,,,,,,,,,,,,,,,,,,,,,,,,,,,,,,,,,,,,,,,,,,,,,,,,30321
322,"Spitalul Militar de Urgență ""Dr. Aristide Serfioti""",Strada Traian 199,Galați,,800150,,45.4509906,28.0430112,False,,,,,,,,,,,,,,,,,,,,,,,,,,,,,,,,,,,,,,,,,,,,,,,,,,,,,,,,,,,,,,,,,,,,,,,,,,,,,,,,30322
323,Spitalul Militar de Urgență Constanța,Bulevardul Mamaia 96,Constanța,,900527,,44.1898705,28.6515365,False,,,,,,,,,,,,,,,,,,,,,,,,,,,,,,,,,,,,,,,,,,,,,,,,,,,,,,,,,,,,,,,,,,,,,,,,,,,,,,,,30323
324,Spitalul Militar de Urgență „Dr. Ion Jianu”,Strada Negru Vodă 47,Pitești,,110069,,44.8647656,24.8611518,False,,,,,,,,,,,,,,,,,,,,,,,,,,,,,,,,,,,,,,,,,,,,,,,,,,,,,,,,,,,,,,,,,,,,,,,,,,,,,,,,30324
325,Spitalul Monza,,București,,023571,,44.439052,26.1485609,False,,,,,,,,,,,,,,,,,,,,,,,,,,,,,,,,,,,,,,,,,,,,,,,,,,,,,,,,,,,,,,,,,,,,,,,,,,,,,,,,30325
326,Spitalul Municipal,Strada Sirenei nan,Câmpulung Moldovenesc,Suceava,725100,,47.5324823,25.5432236,False,,,,,,,,,,,,,,,,,,,,,,,,,,,,,,,,,,,,,,,,,,,,,,,,,,,,,,,,,,,,,,,,,,,,,,,,,,,,,,,,30326
327,Spitalul Municipal,,Gheorgheni,Harghita,535500,,46.7234476,25.6015691,False,,,,,,,,,,,,,,,,,,,,,,,,,,,,,,,,,,,,,,,,,,,,,,,,,,,,,,,,,,,,,,,,,,,,,,,,,,,,,,,,30327
328,Spitalul Municipal,,Târnăveni,,545600,,46.3301232,24.293997,False,,,,,,,,,,,,,,,,,,,,,,,,,,,,,,,,,,,,,,,,,,,,,,,,,,,,,,,,,,,,,,,,,,,,,,,,,,,,,,,,30328
329,Spitalul Municipal,,Ploiești,Prahova,100028,,44.9317692,26.0197179,False,,,,,,,,,,,,,,,,,,,,,,,,,,,,,,,,,,,,,,,,,,,,,,,,,,,,,,,,,,,,,,,,,,,,,,,,,,,,,,,,30329
330,Spitalul Municipal,,Mediaș,Sibiu,551025,,46.1640984,24.3562038,False,,,,,,,,,,,,,,,,,,,,,,,,,,,,,,,,,,,,,,,,,,,,,,,,,,,,,,,,,,,,,,,,,,,,,,,,,,,,,,,,30330
331,Spitalul Municipal,Strada Sirenei nan,Câmpulung Moldovenesc,Suceava,725100,,47.5326974,25.54381,False,,,,,,,,,,,,,,,,,,,,,,,,,,,,,,,,,,,,,,,,,,,,,,,,,,,,,,,,,,,,,,,,,,,,,,,,,,,,,,,,30331
332,Spitalul Municipal,,Târgoviște,,130007,,44.9196511,25.4577661,False,,,,,,,,,,,,,,,,,,,,,,,,,,,,,,,,,,,,,,,,,,,,,,,,,,,,,,,,,,,,,,,,,,,,,,,,,,,,,,,,30332
333,Spitalul Municipal,,Lugoj,,305500,,45.6931465,21.8890667,False,,,,,,,,,,,,,,,,,,,,,,,,,,,,,,,,,,,,,,,,,,,,,,,,,,,,,,,,,,,,,,,,,,,,,,,,,,,,,,,,30333
334,Spitalul Municipal,,Beiuș,Bihor,415200,,46.6694179,22.3492329,False,,,,,,,,,,,,,,,,,,,,,,,,,,,,,,,,,,,,,,,,,,,,,,,,,,,,,,,,,,,,,,,,,,,,,,,,,,,,,,,,30334
335,Spitalul Municipal,Strada George Emil Palade 5,Mangalia,,905500,,43.8199347,28.5880518,False,,,,,,,,,,,,,,,,,,,,,,,,,,,,,,,,,,,,,,,,,,,,,,,,,,,,,,,,,,,,,,,,,,,,,,,,,,,,,,,,30335
336,Spitalul Municipal,Strada Nicolae Bălcescu 2,Râmnicu Sărat,Buzău,125300,,45.37926,27.0507508,False,,,,,,,,,,,,,,,,,,,,,,,,,,,,,,,,,,,,,,,,,,,,,,,,,,,,,,,,,,,,,,,,,,,,,,,,,,,,,,,,30336
337,Spitalul Municipal Aiud,,Aiud,Alba,515200,,46.3076924,23.7229517,False,,,,,,,,,,,,,,,,,,,,,,,,,,,,,,,,,,,,,,,,,,,,,,,,,,,,,,,,,,,,,,,,,,,,,,,,,,,,,,,,30337
338,Spitalul Municipal Anghel Saligny Fetesti,,Fetești,,925100,,44.4085079,27.8272396,False,,,,,,,,,,,,,,,,,,,,,,,,,,,,,,,,,,,,,,,,,,,,,,,,,,,,,,,,,,,,,,,,,,,,,,,,,,,,,,,,30338
339,Spitalul Municipal Calafat,Strada Traian 5,Calafat,Dolj,205200,0251230606,43.9945049,22.9451648,False,,,,,,,,,,,,,,,,,,,,,,,,,,,,,,,,,,,,,,,,,,,,,,,,,,,,,,,,,,,,,,,,,,,,,,,,,,,,,,,,30339
340,Spitalul Municipal Clinicile Noi,Strada Gheorghe Dima 5,Timișoara,,300002,,45.7600362,21.2267758,False,,,,,,,,,,,,,,,,,,,,,,,,,,,,,,,,,,,,,,,,,,,,,,,,,,,,,,,,,,,,,,,,,,,,,,,,,,,,,,,,30340
341,Spitalul Municipal Curtea de Argeș,Strada Cuza Vodă 6-8,Curtea de Argeș,,115300,,45.1497909,24.678048,False,,,,,,,,,,,,,,,,,,,,,,,,,,,,,,,,,,,,,,,,,,,,,,,,,,,,,,,,,,,,,,,,,,,,,,,,,,,,,,,,30341
342,Spitalul Municipal Câmpina,Bulevardul Carol I 117,Câmpina,Prahova,105600,,45.1279657,25.7324997,False,,,,,,,,,,,,,,,,,,,,,,,,,,,,,,,,,,,,,,,,,,,,,,,,,,,,,,,,,,,,,,,,,,,,,,,,,,,,,,,,30342
343,Spitalul Municipal Dr. Alexandru Simionescu Hunedoara,Strada Victoriei 19,Hunedoara,Hunedoara,331079,,45.7505611,22.9051789,False,,,,,,,,,,,,,,,,,,,,,,,,,,,,,,,,,,,,,,,,,,,,,,,,,,,,,,,,,,,,,,,,,,,,,,,,,,,,,,,,30343
344,Spitalul Municipal Dr. Aurel Tulbure,,Făgăraș,,505200,,45.8404604,24.9586302,False,,,,,,,,,,,,,,,,,,,,,,,,,,,,,,,,,,,,,,,,,,,,,,,,,,,,,,,,,,,,,,,,,,,,,,,,,,,,,,,,30344
345,Spitalul Municipal Fetesti,,Fetești,,925100,,44.4087321,27.8275408,False,,,,,,,,,,,,,,,,,,,,,,,,,,,,,,,,,,,,,,,,,,,,,,,,,,,,,,,,,,,,,,,,,,,,,,,,,,,,,,,,30345
346,Spitalul Municipal Filantropia,Strada Sărarilor 28,Craiova,Dolj,200516,,44.3139433,23.8256429,False,,,,,,,,,,,,,,,,,,,,,,,,,,,,,,,,,,,,,,,,,,,,,,,,,,,,,,,,,,,,,,,,,,,,,,,,,,,,,,,,30346
347,Spitalul Municipal Gherla,,Gherla,Cluj,405300,,47.0243802,23.90393,False,,,,,,,,,,,,,,,,,,,,,,,,,,,,,,,,,,,,,,,,,,,,,,,,,,,,,,,,,,,,,,,,,,,,,,,,,,,,,,,,30347
348,Spitalul Municipal Moinești,,Moinești,Bacău,605400,,46.4768969,26.488253,False,,,,,,,,,,,,,,,,,,,,,,,,,,,,,,,,,,,,,,,,,,,,,,,,,,,,,,,,,,,,,,,,,,,,,,,,,,,,,,,,30348
349,Spitalul Municipal Moreni,,Moreni,,135300,,44.9780458,25.6466378,False,,,,,,,,,,,,,,,,,,,,,,,,,,,,,,,,,,,,,,,,,,,,,,,,,,,,,,,,,,,,,,,,,,,,,,,,,,,,,,,,30349
350,Spitalul Municipal Motru,,Motru,Gorj,215200,,44.8034758,22.97379,False,,,,,,,,,,,,,,,,,,,,,,,,,,,,,,,,,,,,,,,,,,,,,,,,,,,,,,,,,,,,,,,,,,,,,,,,,,,,,,,,30350
351,Spitalul Municipal Odorheiu Secuiesc,,Odorheiu Secuiesc,Harghita,535600,,46.3067846,25.2997939,False,,,,,,,,,,,,,,,,,,,,,,,,,,,,,,,,,,,,,,,,,,,,,,,,,,,,,,,,,,,,,,,,,,,,,,,,,,,,,,,,30351
352,Spitalul Municipal Onești Sfântul Ierarh Doctor Luca,Strada Perchiului 1,Onești,Bacău,,+40234323111,46.2556671,26.7645768,False,,,,,,,,,,,,,,,,,,,,,,,,,,,,,,,,,,,,,,,,,,,,,,,,,,,,,,,,,,,,,,,,,,,,,,,,,,,,,,,,30352
353,Spitalul Municipal Profesor Doctor Irinel Popescu,Strada Victoriei 29,Băilești,Dolj,205100,,44.0295699,23.3481571,False,,,,,,,,,,,,,,,,,,,,,,,,,,,,,,,,,,,,,,,,,,,,,,,,,,,,,,,,,,,,,,,,,,,,,,,,,,,,,,,,30353
354,Spitalul Municipal Salonta,,Salonta,Bihor,415500,,46.8040383,21.6687814,False,,,,,,,,,,,,,,,,,,,,,,,,,,,,,,,,,,,,,,,,,,,,,,,,,,,,,,,,,,,,,,,,,,,,,,,,,,,,,,,,30354
355,Spitalul Municipal Satu Mare,,Satu Mare,Satu Mare,440014,,47.7985985,22.8719044,False,,,,,,,,,,,,,,,,,,,,,,,,,,,,,,,,,,,,,,,,,,,,,,,,,,,,,,,,,,,,,,,,,,,,,,,,,,,,,,,,30355
356,Spitalul Municipal Sebeș,,Sebeș,Alba,515800,,45.9510827,23.5684148,False,,,,,,,,,,,,,,,,,,,,,,,,,,,,,,,,,,,,,,,,,,,,,,,,,,,,,,,,,,,,,,,,,,,,,,,,,,,,,,,,30356
357,Spitalul Municipal Sighetul Marmației,,Sighetu Marmației,,435500,,47.9270876,23.8776611,False,,,,,,,,,,,,,,,,,,,,,,,,,,,,,,,,,,,,,,,,,,,,,,,,,,,,,,,,,,,,,,,,,,,,,,,,,,,,,,,,30357
358,Spitalul Municipal Turda,,Turda,Cluj,401174,,46.579649,23.7763439,False,,,,,,,,,,,,,,,,,,,,,,,,,,,,,,,,,,,,,,,,,,,,,,,,,,,,,,,,,,,,,,,,,,,,,,,,,,,,,,,,30358
359,Spitalul Municipal Târgoviște,,Târgoviște,,130007,,44.9199663,25.4575916,False,,,,,,,,,,,,,,,,,,,,,,,,,,,,,,,,,,,,,,,,,,,,,,,,,,,,,,,,,,,,,,,,,,,,,,,,,,,,,,,,30359
360,Spitalul Municipal Urziceni,Strada Teilor 3,Urziceni,,925300,,44.7115072,26.6485576,False,,,,,,,,,,,,,,,,,,,,,,,,,,,,,,,,,,,,,,,,,,,,,,,,,,,,,,,,,,,,,,,,,,,,,,,,,,,,,,,,30360
361,Spitalul Municipal de Urgență,,Caransebeș,,325400,,45.4121002,22.227349,False,,,,,,,,,,,,,,,,,,,,,,,,,,,,,,,,,,,,,,,,,,,,,,,,,,,,,,,,,,,,,,,,,,,,,,,,,,,,,,,,30361
362,Spitalul Municipla Codlea,,Codlea,,505100,,45.7024076,25.4469717,False,,,,,,,,,,,,,,,,,,,,,,,,,,,,,,,,,,,,,,,,,,,,,,,,,,,,,,,,,,,,,,,,,,,,,,,,,,,,,,,,30362
363,Spitalul Mârzescu,,Brașov,,500030,,45.6521855,25.5965809,False,,,,,,,,,,,,,,,,,,,,,,,,,,,,,,,,,,,,,,,,,,,,,,,,,,,,,,,,,,,,,,,,,,,,,,,,,,,,,,,,30363
364,Spitalul Ocna Mureș,,Ocna Mureș,Alba,515700,,46.3794467,23.8604145,False,,,,,,,,,,,,,,,,,,,,,,,,,,,,,,,,,,,,,,,,,,,,,,,,,,,,,,,,,,,,,,,,,,,,,,,,,,,,,,,,30364
365,Spitalul Orasenesc Covasna,,Covasna,Covasna,525200,,45.8439523,26.1623109,False,,,,,,,,,,,,,,,,,,,,,,,,,,,,,,,,,,,,,,,,,,,,,,,,,,,,,,,,,,,,,,,,,,,,,,,,,,,,,,,,30365
366,Spitalul Orășenesc,nan 35,Târgu Neamț,,615200,,47.2071905,26.3578738,False,,,,,,,,,,,,,,,,,,,,,,,,,,,,,,,,,,,,,,,,,,,,,,,,,,,,,,,,,,,,,,,,,,,,,,,,,,,,,,,,30366
367,Spitalul Orășenesc,,Drăgășani,Vâlcea,245700,,44.6594166,24.2611988,False,,,,,,,,,,,,,,,,,,,,,,,,,,,,,,,,,,,,,,,,,,,,,,,,,,,,,,,,,,,,,,,,,,,,,,,,,,,,,,,,30367
368,Spitalul Orășenesc,,Făget,,305300,,45.8451529,22.1689169,False,,,,,,,,,,,,,,,,,,,,,,,,,,,,,,,,,,,,,,,,,,,,,,,,,,,,,,,,,,,,,,,,,,,,,,,,,,,,,,,,30368
369,Spitalul Orășenesc,Strada Sfânta Varvara 1,Moldova Nouă,,325550,,44.7267676,21.6226628,False,,,,,,,,,,,,,,,,,,,,,,,,,,,,,,,,,,,,,,,,,,,,,,,,,,,,,,,,,,,,,,,,,,,,,,,,,,,,,,,,30369
370,Spitalul Orășenesc,Bulevardul Carpați nan,Corabia,Olt,235300,,43.7735992,24.5091982,False,,,,,,,,,,,,,,,,,,,,,,,,,,,,,,,,,,,,,,,,,,,,,,,,,,,,,,,,,,,,,,,,,,,,,,,,,,,,,,,,30370
371,Spitalul Orășenesc Balș,,Balș,Olt,235100,,44.3476232,24.1144018,False,,,,,,,,,,,,,,,,,,,,,,,,,,,,,,,,,,,,,,,,,,,,,,,,,,,,,,,,,,,,,,,,,,,,,,,,,,,,,,,,30371
372,Spitalul Orășenesc Cugir,,Cugir,Alba,515600,,45.8368809,23.3625885,False,,,,,,,,,,,,,,,,,,,,,,,,,,,,,,,,,,,,,,,,,,,,,,,,,,,,,,,,,,,,,,,,,,,,,,,,,,,,,,,,30372
373,Spitalul Orășenesc Gura Humorului,,Gura Humorului,Suceava,725300,,47.5550911,25.889265,False,,,,,,,,,,,,,,,,,,,,,,,,,,,,,,,,,,,,,,,,,,,,,,,,,,,,,,,,,,,,,,,,,,,,,,,,,,,,,,,,30373
374,Spitalul Orășenesc Hațeg,,Hațeg,Hunedoara,335500,,45.6107031,22.9505373,False,,,,,,,,,,,,,,,,,,,,,,,,,,,,,,,,,,,,,,,,,,,,,,,,,,,,,,,,,,,,,,,,,,,,,,,,,,,,,,,,30374
375,Spitalul Orășenesc Hârlău,Strada Bogdan Vodă 15,Hârlău,,705100,,47.4313636,26.8966852,False,,,,,,,,,,,,,,,,,,,,,,,,,,,,,,,,,,,,,,,,,,,,,,,,,,,,,,,,,,,,,,,,,,,,,,,,,,,,,,,,30375
376,Spitalul Orășenesc Măcin,Strada Mircea Vodă 34,Măcin,Tulcea,825300,,45.2455121,28.1348757,False,,,,,,,,,,,,,,,,,,,,,,,,,,,,,,,,,,,,,,,,,,,,,,,,,,,,,,,,,,,,,,,,,,,,,,,,,,,,,,,,30376
377,Spitalul Orășenesc Nehoiu,,Nehoiu,Buzău,125100,,45.4196155,26.3003905,False,,,,,,,,,,,,,,,,,,,,,,,,,,,,,,,,,,,,,,,,,,,,,,,,,,,,,,,,,,,,,,,,,,,,,,,,,,,,,,,,30377
378,Spitalul Orășenesc Segarcea,Strada Unirii 50,Segarcea,Dolj,205400,,44.0992131,23.7438444,False,,,,,,,,,,,,,,,,,,,,,,,,,,,,,,,,,,,,,,,,,,,,,,,,,,,,,,,,,,,,,,,,,,,,,,,,,,,,,,,,30378
379,Spitalul Orășenesc Slănic,Aleea Spitalului nan,Slănic,Prahova,237303,,45.2408451,25.9395287,False,,,,,,,,,,,,,,,,,,,,,,,,,,,,,,,,,,,,,,,,,,,,,,,,,,,,,,,,,,,,,,,,,,,,,,,,,,,,,,,,30379
380,Spitalul Orășenesc Vălenii de Munte,,Vălenii de Munte,Prahova,106400,,45.1774868,26.0351795,False,,,,,,,,,,,,,,,,,,,,,,,,,,,,,,,,,,,,,,,,,,,,,,,,,,,,,,,,,,,,,,,,,,,,,,,,,,,,,,,,30380
381,Spitalul Orășenesc Ștei,,Ștei,Bihor,415600,,46.5355893,22.4593181,False,,,,,,,,,,,,,,,,,,,,,,,,,,,,,,,,,,,,,,,,,,,,,,,,,,,,,,,,,,,,,,,,,,,,,,,,,,,,,,,,30381
382,"Spitalul Panait Sârbu, Maternitate",,București,,060941,,44.449826,26.0599761,False,,,,,,,,,,,,,,,,,,,,,,,,,,,,,,,,,,,,,,,,,,,,,,,,,,,,,,,,,,,,,,,,,,,,,,,,,,,,,,,,30382
383,Spitalul Pelican,,Oradea,Bihor,410065,,47.0762803,21.9161302,False,,,,,,,,,,,,,,,,,,,,,,,,,,,,,,,,,,,,,,,,,,,,,,,,,,,,,,,,,,,,,,,,,,,,,,,,,,,,,,,,30383
384,Spitalul Polizu,Strada Gheorghe Polizu nan,București,,011062,,44.4473175,26.0807139,False,,,,,,,,,,,,,,,,,,,,,,,,,,,,,,,,,,,,,,,,,,,,,,,,,,,,,,,,,,,,,,,,,,,,,,,,,,,,,,,,30384
385,Spitalul Prof. Dr. Constantin Angelescu,Aleea Căuzași 49,București,,030171,,44.4278136,26.1127791,False,,,,,,,,,,,,,,,,,,,,,,,,,,,,,,,,,,,,,,,,,,,,,,,,,,,,,,,,,,,,,,,,,,,,,,,,,,,,,,,,30385
386,Spitalul Reghin,,Reghin,,545300,,46.7820885,24.6948866,False,,,,,,,,,,,,,,,,,,,,,,,,,,,,,,,,,,,,,,,,,,,,,,,,,,,,,,,,,,,,,,,,,,,,,,,,,,,,,,,,30386
387,Spitalul Sfântul Constantin,,Brașov,,500030,,45.6512104,25.6062565,False,,,,,,,,,,,,,,,,,,,,,,,,,,,,,,,,,,,,,,,,,,,,,,,,,,,,,,,,,,,,,,,,,,,,,,,,,,,,,,,,30387
388,Spitalul Sfântul Sava Buzău,Strada Crizantemelor 5,Buzău,Buzău,120194,0238 712 607,45.1492302,26.8227071,False,,,,,,,,,,,,,,,,,,,,,,,,,,,,,,,,,,,,,,,,,,,,,,,,,,,,,,,,,,,,,,,,,,,,,,,,,,,,,,,,30388
389,Spitalul TBC,,Sighișoara,,545400,,46.2231891,24.794438,False,,,,,,,,,,,,,,,,,,,,,,,,,,,,,,,,,,,,,,,,,,,,,,,,,,,,,,,,,,,,,,,,,,,,,,,,,,,,,,,,30389
390,Spitalul TBC,,Bârlad,Vaslui,731147,,46.2258245,27.6630412,False,,,,,,,,,,,,,,,,,,,,,,,,,,,,,,,,,,,,,,,,,,,,,,,,,,,,,,,,,,,,,,,,,,,,,,,,,,,,,,,,30390
391,Spitalul TBC Sf Andrei,,Valea Iașului,,117795,,45.186688,24.6907266,False,,,,,,,,,,,,,,,,,,,,,,,,,,,,,,,,,,,,,,,,,,,,,,,,,,,,,,,,,,,,,,,,,,,,,,,,,,,,,,,,30391
392,Spitalul TBC Titu Maiorescu,,Ghimpați,Giurgiu,087095,,44.189827,25.7840465,False,,,,,,,,,,,,,,,,,,,,,,,,,,,,,,,,,,,,,,,,,,,,,,,,,,,,,,,,,,,,,,,,,,,,,,,,,,,,,,,,30392
393,Spitalul Tractorul,Strada Olteț 2,Brașov,,500030,,45.665722,25.6076391,False,,,,,,,,,,,,,,,,,,,,,,,,,,,,,,,,,,,,,,,,,,,,,,,,,,,,,,,,,,,,,,,,,,,,,,,,,,,,,,,,30393
394,Spitalul Universitar de Urgență Militar Central „Dr. Carol Davila”,Calea Plevnei 134,București,,060941,,44.4420564,26.0718695,False,,,,,,,,,,,,,,,,,,,,,,,,,,,,,,,,,,,,,,,,,,,,,,,,,,,,,,,,,,,,,,,,,,,,,,,,,,,,,,,,30394
395,Spitalul Vechi,,Suceava,Suceava,720224,,47.6374988,26.2420041,False,,,,,,,,,,,,,,,,,,,,,,,,,,,,,,,,,,,,,,,,,,,,,,,,,,,,,,,,,,,,,,,,,,,,,,,,,,,,,,,,30395
396,Spitalul Vechi,,Suceava,Suceava,720224,,47.6379436,26.2414689,False,,,,,,,,,,,,,,,,,,,,,,,,,,,,,,,,,,,,,,,,,,,,,,,,,,,,,,,,,,,,,,,,,,,,,,,,,,,,,,,,30396
397,Spitalul Vechi,,Suceava,Suceava,720224,,47.6380605,26.2416549,False,,,,,,,,,,,,,,,,,,,,,,,,,,,,,,,,,,,,,,,,,,,,,,,,,,,,,,,,,,,,,,,,,,,,,,,,,,,,,,,,30397
398,Spitalul Vișeu,,Vișeul de Sus,,435700,,47.7100659,24.4256596,False,,,,,,,,,,,,,,,,,,,,,,,,,,,,,,,,,,,,,,,,,,,,,,,,,,,,,,,,,,,,,,,,,,,,,,,,,,,,,,,,30398
399,"Spitalul clinic de copii ""dr. Victor Gomoiu""",,București,,023571,,44.4331945,26.1420128,False,,,,,,,,,,,,,,,,,,,,,,,,,,,,,,,,,,,,,,,,,,,,,,,,,,,,,,,,,,,,,,,,,,,,,,,,,,,,,,,,30399
400,Spitalul clinic de ginecologie Dr. Ioan Aurel Sbârcea - Brașov,Strada George Barițiu 36,Brașov,,500030,,45.6405517,25.5848622,False,,,,,,,,,,,,,,,,,,,,,,,,,,,,,,,,,,,,,,,,,,,,,,,,,,,,,,,,,,,,,,,,,,,,,,,,,,,,,,,,30400
401,Spitalul clinic de urgență pentru copii „Sfânta Maria”,Strada Vasile Lupu 62,Iași,,700309,+40 232 264266,47.1598106,27.606047,False,,,,,,,,,,,,,,,,,,,,,,,,,,,,,,,,,,,,,,,,,,,,,,,,,,,,,,,,,,,,,,,,,,,,,,,,,,,,,,,,30401
402,Spitalul de Boli Cronice și Geriatrie Sfântul Luca,,București,,,,44.3838258,26.1295504,False,,,,,,,,,,,,,,,,,,,,,,,,,,,,,,,,,,,,,,,,,,,,,,,,,,,,,,,,,,,,,,,,,,,,,,,,,,,,,,,,30402
403,Spitalul de Boli Infecțioase,,Bârlad,Vaslui,,,46.2357028,27.6705988,False,,,,,,,,,,,,,,,,,,,,,,,,,,,,,,,,,,,,,,,,,,,,,,,,,,,,,,,,,,,,,,,,,,,,,,,,,,,,,,,,30403
404,Spitalul de Boli Infecțioase,,Galați,,800156,,45.465173,28.0340118,False,,,,,,,,,,,,,,,,,,,,,,,,,,,,,,,,,,,,,,,,,,,,,,,,,,,,,,,,,,,,,,,,,,,,,,,,,,,,,,,,30404
405,Spitalul de Boli Infecțioase,,Galați,,800198,,45.4660297,28.0351359,False,,,,,,,,,,,,,,,,,,,,,,,,,,,,,,,,,,,,,,,,,,,,,,,,,,,,,,,,,,,,,,,,,,,,,,,,,,,,,,,,30405
406,Spitalul de Boli Infecțioase,,Brașov,,500030,,45.656734,25.5975999,False,,,,,,,,,,,,,,,,,,,,,,,,,,,,,,,,,,,,,,,,,,,,,,,,,,,,,,,,,,,,,,,,,,,,,,,,,,,,,,,,30406
407,Spitalul de Boli Infecțioase,,Lugoj,,305500,,45.6904245,21.8873927,False,,,,,,,,,,,,,,,,,,,,,,,,,,,,,,,,,,,,,,,,,,,,,,,,,,,,,,,,,,,,,,,,,,,,,,,,,,,,,,,,30407
408,Spitalul de Boli Psihice Cronice Borșa,,Borșa,Cluj,407110,,46.9328793,23.6558411,False,,,,,,,,,,,,,,,,,,,,,,,,,,,,,,,,,,,,,,,,,,,,,,,,,,,,,,,,,,,,,,,,,,,,,,,,,,,,,,,,30408
409,Spitalul de Boli infecțioase (copii),,Sibiu,Sibiu,550009,,45.7907001,24.1396102,False,,,,,,,,,,,,,,,,,,,,,,,,,,,,,,,,,,,,,,,,,,,,,,,,,,,,,,,,,,,,,,,,,,,,,,,,,,,,,,,,30409
410,Spitalul de Bătrâni,,Teaca,,427345,,46.911615,24.5048595,False,,,,,,,,,,,,,,,,,,,,,,,,,,,,,,,,,,,,,,,,,,,,,,,,,,,,,,,,,,,,,,,,,,,,,,,,,,,,,,,,30410
411,Spitalul de Chimilogie,,Muereasca,Vâlcea,247411,,45.2001425,24.2956288,False,,,,,,,,,,,,,,,,,,,,,,,,,,,,,,,,,,,,,,,,,,,,,,,,,,,,,,,,,,,,,,,,,,,,,,,,,,,,,,,,30411
412,Spitalul de Copii Sfântul Nicolae,,Bârlad,Vaslui,731126,,46.2406856,27.6705296,False,,,,,,,,,,,,,,,,,,,,,,,,,,,,,,,,,,,,,,,,,,,,,,,,,,,,,,,,,,,,,,,,,,,,,,,,,,,,,,,,30412
413,Spitalul de Neurologie și Psihiatrie Carol Davila,FIXME 1-3,Alba Iulia,Alba,510009,,46.0694495,23.5693592,False,,,,,,,,,,,,,,,,,,,,,,,,,,,,,,,,,,,,,,,,,,,,,,,,,,,,,,,,,,,,,,,,,,,,,,,,,,,,,,,,30413
414,Spitalul de Neuropsihiatrie,,Ștei,Bihor,415600,,46.5480368,22.4652181,False,,,,,,,,,,,,,,,,,,,,,,,,,,,,,,,,,,,,,,,,,,,,,,,,,,,,,,,,,,,,,,,,,,,,,,,,,,,,,,,,30414
415,Spitalul de Neuropsihiatrie Săpoca,,Săpoca,Buzău,127540,,45.2379591,26.7455858,False,,,,,,,,,,,,,,,,,,,,,,,,,,,,,,,,,,,,,,,,,,,,,,,,,,,,,,,,,,,,,,,,,,,,,,,,,,,,,,,,30415
416,Spitalul de Obstetrică și Ginecologie,Bulevardul Independenței 296,Brăila,Brăila,810108,,45.280282,27.9727262,False,,,,,,,,,,,,,,,,,,,,,,,,,,,,,,,,,,,,,,,,,,,,,,,,,,,,,,,,,,,,,,,,,,,,,,,,,,,,,,,,30416
417,Spitalul de Obstetrică și Ginecologie,Bulevardul George Enescu 6,Botoșani,,710357,0231 584 017,47.7406388,26.6544283,False,,,,,,,,,,,,,,,,,,,,,,,,,,,,,,,,,,,,,,,,,,,,,,,,,,,,,,,,,,,,,,,,,,,,,,,,,,,,,,,,30417
418,Spitalul de Ortopedie MedLife,Bulevardul Ferdinand I 98-100,București,,023571,,44.4429344,26.1279705,False,,,,,,,,,,,,,,,,,,,,,,,,,,,,,,,,,,,,,,,,,,,,,,,,,,,,,,,,,,,,,,,,,,,,,,,,,,,,,,,,30418
419,"Spitalul de Pediatrie ""Luther""",,Sibiu,Sibiu,550009,,45.7930512,24.1474232,False,,,,,,,,,,,,,,,,,,,,,,,,,,,,,,,,,,,,,,,,,,,,,,,,,,,,,,,,,,,,,,,,,,,,,,,,,,,,,,,,30419
420,Spitalul de Pediatrie Pitești,Bulevardul Eroilor 1,Pitești,,110416,,44.8503574,24.865557,False,,,,,,,,,,,,,,,,,,,,,,,,,,,,,,,,,,,,,,,,,,,,,,,,,,,,,,,,,,,,,,,,,,,,,,,,,,,,,,,,30420
421,Spitalul de Pneumoftiziologie,Strada Trandafirilor 24,Botoșani,,710357,0231-584083,47.7351407,26.6639864,False,,,,,,,,,,,,,,,,,,,,,,,,,,,,,,,,,,,,,,,,,,,,,,,,,,,,,,,,,,,,,,,,,,,,,,,,,,,,,,,,30421
422,Spitalul de Pneumoftiziologie,,Baia Mare,,430242,,47.6622537,23.5524573,False,,,,,,,,,,,,,,,,,,,,,,,,,,,,,,,,,,,,,,,,,,,,,,,,,,,,,,,,,,,,,,,,,,,,,,,,,,,,,,,,30422
423,Spitalul de Pneumoftiziologie,,Brașov,,500030,,45.652347,25.5985618,False,,,,,,,,,,,,,,,,,,,,,,,,,,,,,,,,,,,,,,,,,,,,,,,,,,,,,,,,,,,,,,,,,,,,,,,,,,,,,,,,30423
424,"Spitalul de Pneumoftiziologie Galați, TBC",Strada Științei 117,Galați,,800170,,45.4564206,28.0436175,False,,,,,,,,,,,,,,,,,,,,,,,,,,,,,,,,,,,,,,,,,,,,,,,,,,,,,,,,,,,,,,,,,,,,,,,,,,,,,,,,30424
425,Spitalul de Pneumoftiziologie Marius Nasta,,București,,051521,,44.4066722,26.0932848,False,,,,,,,,,,,,,,,,,,,,,,,,,,,,,,,,,,,,,,,,,,,,,,,,,,,,,,,,,,,,,,,,,,,,,,,,,,,,,,,,30425
426,Spitalul de Pneumoftiziologie Sfântul Ștefan,Strada Dinu Vintilă 1,București,,023571,,44.4538434,26.1052969,False,,,,,,,,,,,,,,,,,,,,,,,,,,,,,,,,,,,,,,,,,,,,,,,,,,,,,,,,,,,,,,,,,,,,,,,,,,,,,,,,30426
427,Spitalul de Psihiatrie,Strada I.C. Brătianu 116,Botoșani,,710357,,47.7329011,26.6903534,False,,,,,,,,,,,,,,,,,,,,,,,,,,,,,,,,,,,,,,,,,,,,,,,,,,,,,,,,,,,,,,,,,,,,,,,,,,,,,,,,30427
428,Spitalul de Psihiatrie,,Satu Mare,Satu Mare,440014,,47.7991135,22.8717807,False,,,,,,,,,,,,,,,,,,,,,,,,,,,,,,,,,,,,,,,,,,,,,,,,,,,,,,,,,,,,,,,,,,,,,,,,,,,,,,,,30428
429,Spitalul de Psihiatrie,Strada Trandafirilor nan,Câmpulung Moldovenesc,Suceava,725100,,47.5275872,25.5601949,False,,,,,,,,,,,,,,,,,,,,,,,,,,,,,,,,,,,,,,,,,,,,,,,,,,,,,,,,,,,,,,,,,,,,,,,,,,,,,,,,30429
430,"Spitalul de Psihiatrie ""Dr. Gheorghe Preda""",,Sibiu,Sibiu,550009,,45.8086656,24.1548904,False,,,,,,,,,,,,,,,,,,,,,,,,,,,,,,,,,,,,,,,,,,,,,,,,,,,,,,,,,,,,,,,,,,,,,,,,,,,,,,,,30430
431,Spitalul de Psihiatrie Cronici Schitu Greci,Strada Satul Nou 2,Schitu,Olt,237400,,44.3195055,24.5454771,False,,,,,,,,,,,,,,,,,,,,,,,,,,,,,,,,,,,,,,,,,,,,,,,,,,,,,,,,,,,,,,,,,,,,,,,,,,,,,,,,30431
432,Spitalul de Psihiatrie Palazu Mare,Strada Santinelei 27-29,Constanța,,900002,,44.2338519,28.5987839,False,,,,,,,,,,,,,,,,,,,,,,,,,,,,,,,,,,,,,,,,,,,,,,,,,,,,,,,,,,,,,,,,,,,,,,,,,,,,,,,,30432
433,Spitalul de Psihiatrie Poiana Mare,Strada Gării 40,Poiana Mare,Dolj,207470,0251/23.52.99,43.9324865,23.0670924,False,,,,,,,,,,,,,,,,,,,,,,,,,,,,,,,,,,,,,,,,,,,,,,,,,,,,,,,,,,,,,,,,,,,,,,,,,,,,,,,,30433
434,Spitalul de Psihiatrie Sapoca,,Măgura,Buzău,127320,,45.2622106,26.5543271,False,,,,,,,,,,,,,,,,,,,,,,,,,,,,,,,,,,,,,,,,,,,,,,,,,,,,,,,,,,,,,,,,,,,,,,,,,,,,,,,,30434
435,Spitalul de Psihiatrie Sânpetru,DJ103 nan,Sânpetru,,507190,,45.7291003,25.6280328,False,,,,,,,,,,,,,,,,,,,,,,,,,,,,,,,,,,,,,,,,,,,,,,,,,,,,,,,,,,,,,,,,,,,,,,,,,,,,,,,,30435
436,Spitalul de Recuperare Sfântul Gheorghe,Calea Națională 2,Botoșani,,710357,,47.7538363,26.6364006,False,,,,,,,,,,,,,,,,,,,,,,,,,,,,,,,,,,,,,,,,,,,,,,,,,,,,,,,,,,,,,,,,,,,,,,,,,,,,,,,,30436
437,Spitalul de Urgenta Prof. Dr. Agrippa Ionescu,,București,,011358,,44.4588319,26.0795122,False,,,,,,,,,,,,,,,,,,,,,,,,,,,,,,,,,,,,,,,,,,,,,,,,,,,,,,,,,,,,,,,,,,,,,,,,,,,,,,,,30437
438,Spitalul de Urgență,Strada 1 Decembrie 1918 137 A,Petroșani,Hunedoara,332019,,45.4072619,23.3761181,False,,,,,,,,,,,,,,,,,,,,,,,,,,,,,,,,,,,,,,,,,,,,,,,,,,,,,,,,,,,,,,,,,,,,,,,,,,,,,,,,30438
439,Spitalul de Urgență,Strada 1 Decembrie 1918 137 A,Petroșani,Hunedoara,332019,,45.4072619,23.3761181,False,,,,,,,,,,,,,,,,,,,,,,,,,,,,,,,,,,,,,,,,,,,,,,,,,,,,,,,,,,,,,,,,,,,,,,,,,,,,,,,,30439
440,"Spitalul de Urgență ""Prof. Dr. Dimitrie Gerota""",,București,,023571,,44.4411881,26.123447,False,,,,,,,,,,,,,,,,,,,,,,,,,,,,,,,,,,,,,,,,,,,,,,,,,,,,,,,,,,,,,,,,,,,,,,,,,,,,,,,,30440
441,Spitalul de Urgență Elena Beldiman,,Bârlad,Vaslui,731128,,46.2374112,27.6723089,False,,,,,,,,,,,,,,,,,,,,,,,,,,,,,,,,,,,,,,,,,,,,,,,,,,,,,,,,,,,,,,,,,,,,,,,,,,,,,,,,30441
442,Spitalul de Urgență Floreasca,,București,,,,44.4537529,26.1021733,False,,,,,,,,,,,,,,,,,,,,,,,,,,,,,,,,,,,,,,,,,,,,,,,,,,,,,,,,,,,,,,,,,,,,,,,,,,,,,,,,30442
443,Spitalul de copii,,Gherla,Cluj,405300,,47.0283363,23.9067,False,,,,,,,,,,,,,,,,,,,,,,,,,,,,,,,,,,,,,,,,,,,,,,,,,,,,,,,,,,,,,,,,,,,,,,,,,,,,,,,,30443
444,Spitalul de pneumoftiziologie Călărași,,Călărași,,910014,,44.1940451,27.3517285,False,,,,,,,,,,,,,,,,,,,,,,,,,,,,,,,,,,,,,,,,,,,,,,,,,,,,,,,,,,,,,,,,,,,,,,,,,,,,,,,,30444
445,"Spitalul de psihiatrie ""Elisabeta Doamna""",Strada Traian 290,Galați,,800194,,45.4606879,28.038236,False,,,,,,,,,,,,,,,,,,,,,,,,,,,,,,,,,,,,,,,,,,,,,,,,,,,,,,,,,,,,,,,,,,,,,,,,,,,,,,,,30445
446,"Spitalul de psihiatrie ""Sf. Pantelimon""",,Brăila,Brăila,810238,,45.2608394,27.9650158,False,,,,,,,,,,,,,,,,,,,,,,,,,,,,,,,,,,,,,,,,,,,,,,,,,,,,,,,,,,,,,,,,,,,,,,,,,,,,,,,,30446
447,Spitalul de urgente Mavromati,Strada Tudor Vladimirescu 2,Darabani,,715100,,48.1840634,26.5911799,False,,,,,,,,,,,,,,,,,,,,,,,,,,,,,,,,,,,,,,,,,,,,,,,,,,,,,,,,,,,,,,,,,,,,,,,,,,,,,,,,30447
448,Spitalul din Cochirleanca,,Cochirleanca,Buzău,127190,,45.210952,27.0353715,False,,,,,,,,,,,,,,,,,,,,,,,,,,,,,,,,,,,,,,,,,,,,,,,,,,,,,,,,,,,,,,,,,,,,,,,,,,,,,,,,30448
449,Spitalul orășenesc Sinaia,,Sinaia,Prahova,106100,,45.3336756,25.5545989,False,,,,,,,,,,,,,,,,,,,,,,,,,,,,,,,,,,,,,,,,,,,,,,,,,,,,,,,,,,,,,,,,,,,,,,,,,,,,,,,,30449
450,"Spitalul pentru ocrotirea mamei și copilului ""Prof. Dr. Alfred Rusescu""",,București,,023571,,44.4629338,26.1222944,False,,,,,,,,,,,,,,,,,,,,,,,,,,,,,,,,,,,,,,,,,,,,,,,,,,,,,,,,,,,,,,,,,,,,,,,,,,,,,,,,30450
451,Spitalul Întorsura Buzăului,,Întorsura Buzăului,Covasna,525300,,45.6740624,26.0392969,False,,,,,,,,,,,,,,,,,,,,,,,,,,,,,,,,,,,,,,,,,,,,,,,,,,,,,,,,,,,,,,,,,,,,,,,,,,,,,,,,30451
452,"Spitalul “Dr.Caius Tiberiu Sparchez""",Strada Policlinicii 12,Zărnești,,505800,,45.5703501,25.3362916,False,,,,,,,,,,,,,,,,,,,,,,,,,,,,,,,,,,,,,,,,,,,,,,,,,,,,,,,,,,,,,,,,,,,,,,,,,,,,,,,,30452
453,Spitalului Județean de Urgență Bacău,,Bacău,Bacău,600114,,46.5556937,26.9095989,False,,,,,,,,,,,,,,,,,,,,,,,,,,,,,,,,,,,,,,,,,,,,,,,,,,,,,,,,,,,,,,,,,,,,,,,,,,,,,,,,30453
454,Stație Salvare,,Constanța,,900270,,44.1725392,28.6212121,False,,,,,,,,,,,,,,,,,,,,,,,,,,,,,,,,,,,,,,,,,,,,,,,,,,,,,,,,,,,,,,,,,,,,,,,,,,,,,,,,30454
455,Stomatologie,,Petroșani,Hunedoara,332019,,45.4081015,23.3772517,False,,,,,,,,,,,,,,,,,,,,,,,,,,,,,,,,,,,,,,,,,,,,,,,,,,,,,,,,,,,,,,,,,,,,,,,,,,,,,,,,30455
456,Unitatea Primire Urgențe UPU,Strada Clinicilor nan,Cluj-Napoca,Cluj,400006,,46.7657361,23.5831362,False,,,,,,,,,,,,,,,,,,,,,,,,,,,,,,,,,,,,,,,,,,,,,,,,,,,,,,,,,,,,,,,,,,,,,,,,,,,,,,,,30456
457,Zerlendi,,București,,040591,,44.4101975,26.1013732,False,,,,,,,,,,,,,,,,,,,,,,,,,,,,,,,,,,,,,,,,,,,,,,,,,,,,,,,,,,,,,,,,,,,,,,,,,,,,,,,,30457
458,farmacie veterinara,Strada Ceferiștilor 29,Pașcani,,705200,,47.2560976,26.7208341,False,,,,,,,,,,,,,,,,,,,,,,,,,,,,,,,,,,,,,,,,,,,,,,,,,,,,,,,,,,,,,,,,,,,,,,,,,,,,,,,,30458
459,Cabinet Individual de Psihologie Orlandea Laura,Strada Mirăslău 5,Sibiu,Sibiu,550009,0740 054 004,45.7855264,24.1576515,False,,,,,,,,,,,,,,,,,,,,,,,,,,,,,,,,,,,,,,,,,,,,,,,,,,,,,,,,,,,,,,,,,,,,,,,,,,,,,,,,30459
460,Cabinet Medical,,Vernești,Buzău,127682,,45.214801,26.6982074,False,,,,,,,,,,,,,,,,,,,,,,,,,,,,,,,,,,,,,,,,,,,,,,,,,,,,,,,,,,,,,,,,,,,,,,,,,,,,,,,,30460
461,Cabinet Medical Dr. Avgherino Silvia,Strada Principală 46,Traian,Brăila,817178,,45.1370176,27.6461962,False,,,,,,,,,,,,,,,,,,,,,,,,,,,,,,,,,,,,,,,,,,,,,,,,,,,,,,,,,,,,,,,,,,,,,,,,,,,,,,,,30461
462,Cabinet Medical Dr. Stancu Dorina,Strada Martir Constantin Radu 18B,Timișoara,,300002,,45.7264556,21.2677032,False,,,,,,,,,,,,,,,,,,,,,,,,,,,,,,,,,,,,,,,,,,,,,,,,,,,,,,,,,,,,,,,,,,,,,,,,,,,,,,,,30462
463,Cabinet Medical Dr. Stoian,Calea Buziașului 84,Timișoara,,300002,,45.7284488,21.2708417,False,,,,,,,,,,,,,,,,,,,,,,,,,,,,,,,,,,,,,,,,,,,,,,,,,,,,,,,,,,,,,,,,,,,,,,,,,,,,,,,,30463
464,Cabinet Medical Neurologie Doctor Pereanu Marcel,Strada Patrioților 7,Sibiu,Sibiu,550009,+40 269 215050,45.8008397,24.1390502,False,,,,,,,,,,,,,,,,,,,,,,,,,,,,,,,,,,,,,,,,,,,,,,,,,,,,,,,,,,,,,,,,,,,,,,,,,,,,,,,,30464
465,Cabinet Medical Sânpaul (1966),,Sânpaul,Cluj,407530,,46.8752476,23.4166058,False,,,,,,,,,,,,,,,,,,,,,,,,,,,,,,,,,,,,,,,,,,,,,,,,,,,,,,,,,,,,,,,,,,,,,,,,,,,,,,,,30465
466,Cabinet individual dr. Oae Dora Ioana,,Arefu,,117040,,45.3305226,24.6090215,False,,,,,,,,,,,,,,,,,,,,,,,,,,,,,,,,,,,,,,,,,,,,,,,,,,,,,,,,,,,,,,,,,,,,,,,,,,,,,,,,30466
467,Cabinet medical,nan 60,Pir,Satu Mare,447245,,47.4625885,22.3702231,False,,,,,,,,,,,,,,,,,,,,,,,,,,,,,,,,,,,,,,,,,,,,,,,,,,,,,,,,,,,,,,,,,,,,,,,,,,,,,,,,30467
468,Cabinet medical - dermato-venerologie,,Făgăraș,,505200,+40268333825,45.8479038,24.9689772,False,,,,,,,,,,,,,,,,,,,,,,,,,,,,,,,,,,,,,,,,,,,,,,,,,,,,,,,,,,,,,,,,,,,,,,,,,,,,,,,,30468
469,Cabinet medical medicină generală dr. David Maria,Strada Aluniș 38,Timișoara,,300002,,45.7233641,21.2277498,False,,,,,,,,,,,,,,,,,,,,,,,,,,,,,,,,,,,,,,,,,,,,,,,,,,,,,,,,,,,,,,,,,,,,,,,,,,,,,,,,30469
470,Cabinete Medicale,,Murfatlar,,905100,,44.1754483,28.4153475,False,,,,,,,,,,,,,,,,,,,,,,,,,,,,,,,,,,,,,,,,,,,,,,,,,,,,,,,,,,,,,,,,,,,,,,,,,,,,,,,,30470
471,Cabinete medicale individuale,,Iași,,700321,,47.1614104,27.6157733,False,,,,,,,,,,,,,,,,,,,,,,,,,,,,,,,,,,,,,,,,,,,,,,,,,,,,,,,,,,,,,,,,,,,,,,,,,,,,,,,,30471
472,Centrul Medical Cardiomed,,Iași,,700687,,47.1359392,27.5714699,False,,,,,,,,,,,,,,,,,,,,,,,,,,,,,,,,,,,,,,,,,,,,,,,,,,,,,,,,,,,,,,,,,,,,,,,,,,,,,,,,30472
473,Centrul de plasament Iași,,Iași,,700349,,47.160078,27.6117546,False,,,,,,,,,,,,,,,,,,,,,,,,,,,,,,,,,,,,,,,,,,,,,,,,,,,,,,,,,,,,,,,,,,,,,,,,,,,,,,,,30473
474,Centul Medical Sanovil,Strada 1 Decembrie 1918 12,Beclean,,425100,,47.1814964,24.1819892,False,,,,,,,,,,,,,,,,,,,,,,,,,,,,,,,,,,,,,,,,,,,,,,,,,,,,,,,,,,,,,,,,,,,,,,,,,,,,,,,,30474
475,Clinica Pedilife & Sanoptic,,Iași,,700313,,47.1591447,27.6025583,False,,,,,,,,,,,,,,,,,,,,,,,,,,,,,,,,,,,,,,,,,,,,,,,,,,,,,,,,,,,,,,,,,,,,,,,,,,,,,,,,30475
476,Clinică,,Deva,Hunedoara,330088,,45.8748211,22.9111083,False,,,,,,,,,,,,,,,,,,,,,,,,,,,,,,,,,,,,,,,,,,,,,,,,,,,,,,,,,,,,,,,,,,,,,,,,,,,,,,,,30476
477,Complex Hidroterapeutic Baia Sărată,,Deva,Hunedoara,330088,,45.8927698,22.8995401,False,,,,,,,,,,,,,,,,,,,,,,,,,,,,,,,,,,,,,,,,,,,,,,,,,,,,,,,,,,,,,,,,,,,,,,,,,,,,,,,,30477
478,Dispensar,,Merișani,,117455,,44.9700729,24.7454782,False,,,,,,,,,,,,,,,,,,,,,,,,,,,,,,,,,,,,,,,,,,,,,,,,,,,,,,,,,,,,,,,,,,,,,,,,,,,,,,,,30478
479,Dispensar,,Iernut,,545100,,46.4512542,24.2319808,False,,,,,,,,,,,,,,,,,,,,,,,,,,,,,,,,,,,,,,,,,,,,,,,,,,,,,,,,,,,,,,,,,,,,,,,,,,,,,,,,30479
480,Dispensar,,București,,023571,,44.4417337,26.1583385,False,,,,,,,,,,,,,,,,,,,,,,,,,,,,,,,,,,,,,,,,,,,,,,,,,,,,,,,,,,,,,,,,,,,,,,,,,,,,,,,,30480
481,Dispensar,,Glodeni,,547275,,46.6530876,24.6095627,False,,,,,,,,,,,,,,,,,,,,,,,,,,,,,,,,,,,,,,,,,,,,,,,,,,,,,,,,,,,,,,,,,,,,,,,,,,,,,,,,30481
482,Dispensar,nan 555,Mihai Viteazu,Cluj,407405,,46.5408158,23.741757,False,,,,,,,,,,,,,,,,,,,,,,,,,,,,,,,,,,,,,,,,,,,,,,,,,,,,,,,,,,,,,,,,,,,,,,,,,,,,,,,,30482
483,Dispensar,,Drăgănești-Vlașca,Teleorman,147135,,44.1007702,25.5961027,False,,,,,,,,,,,,,,,,,,,,,,,,,,,,,,,,,,,,,,,,,,,,,,,,,,,,,,,,,,,,,,,,,,,,,,,,,,,,,,,,30483
484,Dispensar,,București,,023571,,44.4604327,26.1294711,False,,,,,,,,,,,,,,,,,,,,,,,,,,,,,,,,,,,,,,,,,,,,,,,,,,,,,,,,,,,,,,,,,,,,,,,,,,,,,,,,30484
485,Dispensar,,Feleacu,Cluj,407272,,46.7179007,23.6786568,False,,,,,,,,,,,,,,,,,,,,,,,,,,,,,,,,,,,,,,,,,,,,,,,,,,,,,,,,,,,,,,,,,,,,,,,,,,,,,,,,30485
486,Dispensar,,Manasia,,927160,,44.7050519,26.6655179,False,,,,,,,,,,,,,,,,,,,,,,,,,,,,,,,,,,,,,,,,,,,,,,,,,,,,,,,,,,,,,,,,,,,,,,,,,,,,,,,,30486
487,Dispensar Iclod,,Iclod,Cluj,407335,,46.9847161,23.8105293,False,,,,,,,,,,,,,,,,,,,,,,,,,,,,,,,,,,,,,,,,,,,,,,,,,,,,,,,,,,,,,,,,,,,,,,,,,,,,,,,,30487
488,Dispensar Loamneș,,Loamneș,Sibiu,557124,,45.9323116,24.0742223,False,,,,,,,,,,,,,,,,,,,,,,,,,,,,,,,,,,,,,,,,,,,,,,,,,,,,,,,,,,,,,,,,,,,,,,,,,,,,,,,,30488
489,Dispensar Mila 23,,Nufăru,Tulcea,827171,,45.2290043,29.2478511,False,,,,,,,,,,,,,,,,,,,,,,,,,,,,,,,,,,,,,,,,,,,,,,,,,,,,,,,,,,,,,,,,,,,,,,,,,,,,,,,,30489
490,Dispensar Muereasca,,Muereasca,Vâlcea,247405,,45.18695,24.3175237,False,,,,,,,,,,,,,,,,,,,,,,,,,,,,,,,,,,,,,,,,,,,,,,,,,,,,,,,,,,,,,,,,,,,,,,,,,,,,,,,,30490
491,Dispensar Ohaba-Mâtnic,,Copăcele,,327101,,45.470284,22.0776293,False,,,,,,,,,,,,,,,,,,,,,,,,,,,,,,,,,,,,,,,,,,,,,,,,,,,,,,,,,,,,,,,,,,,,,,,,,,,,,,,,30491
492,Dispensar Sânpaul (1963),,Sânpaul,Cluj,407530,,46.8699342,23.4120394,False,,,,,,,,,,,,,,,,,,,,,,,,,,,,,,,,,,,,,,,,,,,,,,,,,,,,,,,,,,,,,,,,,,,,,,,,,,,,,,,,30492
493,Dispensar TBC,,Brăila,Brăila,810022,,45.2726398,27.9779736,False,,,,,,,,,,,,,,,,,,,,,,,,,,,,,,,,,,,,,,,,,,,,,,,,,,,,,,,,,,,,,,,,,,,,,,,,,,,,,,,,30493
494,Dispensar clinic uman,,Noșlac,Alba,517515,,46.4050244,23.9330714,False,,,,,,,,,,,,,,,,,,,,,,,,,,,,,,,,,,,,,,,,,,,,,,,,,,,,,,,,,,,,,,,,,,,,,,,,,,,,,,,,30494
495,Dispensar medical,,Cetatea de Baltă,Alba,517235,,46.2466545,24.1718657,False,,,,,,,,,,,,,,,,,,,,,,,,,,,,,,,,,,,,,,,,,,,,,,,,,,,,,,,,,,,,,,,,,,,,,,,,,,,,,,,,30495
496,Dispensar medical Galda de Jos,,Galda de Jos,Alba,517285,,46.1787346,23.6202858,False,,,,,,,,,,,,,,,,,,,,,,,,,,,,,,,,,,,,,,,,,,,,,,,,,,,,,,,,,,,,,,,,,,,,,,,,,,,,,,,,30496
497,Dispensar medical Ighiu,,Ighiu,Alba,517360,,46.1445594,23.517889,False,,,,,,,,,,,,,,,,,,,,,,,,,,,,,,,,,,,,,,,,,,,,,,,,,,,,,,,,,,,,,,,,,,,,,,,,,,,,,,,,30497
498,Dispensarul Chirpăr,,Chirpăr,Sibiu,557080,,45.893206,24.5980397,False,,,,,,,,,,,,,,,,,,,,,,,,,,,,,,,,,,,,,,,,,,,,,,,,,,,,,,,,,,,,,,,,,,,,,,,,,,,,,,,,30498
499,Dispensarul Medical Ardeleni,,București,,023571,,44.4455956,26.1195727,False,,,,,,,,,,,,,,,,,,,,,,,,,,,,,,,,,,,,,,,,,,,,,,,,,,,,,,,,,,,,,,,,,,,,,,,,,,,,,,,,30499
500,Dispensarul Medical Roșia Montană,,Roșia Montană,Alba,517615,,46.3056743,23.1314427,False,,,,,,,,,,,,,,,,,,,,,,,,,,,,,,,,,,,,,,,,,,,,,,,,,,,,,,,,,,,,,,,,,,,,,,,,,,,,,,,,30500
501,Dispnesar,,Boița,Sibiu,555701,,45.6339179,24.2593701,False,,,,,,,,,,,,,,,,,,,,,,,,,,,,,,,,,,,,,,,,,,,,,,,,,,,,,,,,,,,,,,,,,,,,,,,,,,,,,,,,30501
502,Dr. Popescu Alexandru,Strada Ciprian Porumbescu 1,Sibiu,Sibiu,550009,+40 269 232 540,45.773862,24.1376995,False,,,,,,,,,,,,,,,,,,,,,,,,,,,,,,,,,,,,,,,,,,,,,,,,,,,,,,,,,,,,,,,,,,,,,,,,,,,,,,,,30502
503,Hipocrat,,Brașov,,500030,,45.652731,25.5996993,False,,,,,,,,,,,,,,,,,,,,,,,,,,,,,,,,,,,,,,,,,,,,,,,,,,,,,,,,,,,,,,,,,,,,,,,,,,,,,,,,30503
504,Medicotest,Bulevardul Brăilei 136C,Galați,,800365,,45.4289714,28.0283938,False,,,,,,,,,,,,,,,,,,,,,,,,,,,,,,,,,,,,,,,,,,,,,,,,,,,,,,,,,,,,,,,,,,,,,,,,,,,,,,,,30504
505,Medlife,Strada Moldovei 6,Brașov,,500030,,45.656949,25.6073344,False,,,,,,,,,,,,,,,,,,,,,,,,,,,,,,,,,,,,,,,,,,,,,,,,,,,,,,,,,,,,,,,,,,,,,,,,,,,,,,,,30505
506,Mocanu,,Boroaia,Suceava,727040,,47.3498869,26.3359343,False,,,,,,,,,,,,,,,,,,,,,,,,,,,,,,,,,,,,,,,,,,,,,,,,,,,,,,,,,,,,,,,,,,,,,,,,,,,,,,,,30506
507,Policlinica,nan 35,Târgu Neamț,,615200,,47.2069876,26.3594448,False,,,,,,,,,,,,,,,,,,,,,,,,,,,,,,,,,,,,,,,,,,,,,,,,,,,,,,,,,,,,,,,,,,,,,,,,,,,,,,,,30507
508,Policlinica Cantemir,,Iași,,700233,,47.1497477,27.580214,False,,,,,,,,,,,,,,,,,,,,,,,,,,,,,,,,,,,,,,,,,,,,,,,,,,,,,,,,,,,,,,,,,,,,,,,,,,,,,,,,30508
509,Policlinica Cetatea Histria,Strada Cetatea Histria nan,București,,060941,,44.4203061,26.0219328,False,,,,,,,,,,,,,,,,,,,,,,,,,,,,,,,,,,,,,,,,,,,,,,,,,,,,,,,,,,,,,,,,,,,,,,,,,,,,,,,,30509
510,Policlinica DIACONIA,,Brăila,Brăila,810022,,45.2724515,27.9776231,False,,,,,,,,,,,,,,,,,,,,,,,,,,,,,,,,,,,,,,,,,,,,,,,,,,,,,,,,,,,,,,,,,,,,,,,,,,,,,,,,30510
511,Policlinica cu Plată,Strada Teodor Codrescu 5,Iași,,,,47.1786442,27.5707688,False,,,,,,,,,,,,,,,,,,,,,,,,,,,,,,,,,,,,,,,,,,,,,,,,,,,,,,,,,,,,,,,,,,,,,,,,,,,,,,,,30511
512,Policlinica cu Plată,Strada Paris 2,Arad,Arad,310182,,46.1671193,21.3219108,False,,,,,,,,,,,,,,,,,,,,,,,,,,,,,,,,,,,,,,,,,,,,,,,,,,,,,,,,,,,,,,,,,,,,,,,,,,,,,,,,30512
513,Polimed Center,Strada Bisericii 7,Odorheiu Secuiesc,Harghita,535600,,46.3159806,25.2853682,False,,,,,,,,,,,,,,,,,,,,,,,,,,,,,,,,,,,,,,,,,,,,,,,,,,,,,,,,,,,,,,,,,,,,,,,,,,,,,,,,30513
514,S.M.U.R.D.,,Iernut,,545100,,46.4509385,24.2322992,False,,,,,,,,,,,,,,,,,,,,,,,,,,,,,,,,,,,,,,,,,,,,,,,,,,,,,,,,,,,,,,,,,,,,,,,,,,,,,,,,30514
515,Salvamont,,Băișoara,Cluj,407065,,46.5369908,23.3120226,False,,,,,,,,,,,,,,,,,,,,,,,,,,,,,,,,,,,,,,,,,,,,,,,,,,,,,,,,,,,,,,,,,,,,,,,,,,,,,,,,30515
516,Salvamont Glăvoi,,Gârda de Sus,Alba,517310,,46.5777705,22.7044829,False,,,,,,,,,,,,,,,,,,,,,,,,,,,,,,,,,,,,,,,,,,,,,,,,,,,,,,,,,,,,,,,,,,,,,,,,,,,,,,,,30516
517,Serviciul de plasament de tip familial,,Râmnicu Vâlcea,Vâlcea,240632,,45.1209204,24.36247,False,,,,,,,,,,,,,,,,,,,,,,,,,,,,,,,,,,,,,,,,,,,,,,,,,,,,,,,,,,,,,,,,,,,,,,,,,,,,,,,,30517
518,"salvamar, medic",,Cojocna,Cluj,407240,,46.7477349,23.8412696,False,,,,,,,,,,,,,,,,,,,,,,,,,,,,,,,,,,,,,,,,,,,,,,,,,,,,,,,,,,,,,,,,,,,,,,,,,,,,,,,,30518
