,id,name,address,city,state,zip,county,phone,type,ownership,emergency,quality,LAT,LON
0,10000,400 ágyas klinika,Ifjúság útja,,,,,,,,yes,,46.0750451,18.2070318
1,10001,5/2,,,,,,,,,,,47.489701399999994,18.9569958
2,10002,A. épület,,,,,,,,,,,47.6765585,16.5973818
3,10003,Albert Schweitzer Kórház,,,,,,,,,,,47.6705765,19.6811771
4,10004,Albert Schweitzer Kórház,,,,,,,,,,,47.671228899999996,19.6815111
5,10005,Almási Balogh Pál Kórház,,,,,,,,,,,48.2092951,20.290221
6,10006,Arc- Állcsont- Szájsebészeti és Fogászati Klinika,Mária utca,,,,,,,,,,47.4876344,19.068821600000003
7,10007,B. Braun Avitum 4. számú Dialízisközpont,,,,,,,,,,,46.359058700000006,17.7975935
8,10008,B. épület,,,,,,,,,,,47.67568060000001,16.5997889
9,10009,Balassa János Kórház,,,,,,,,,,,46.345712400000004,18.7013515
10,10010,Balassa János Kórház,Béri Balogh Ádám utca,,,,,+3674501500,,,,,46.34520620000001,18.6974922
11,10011,Baranya Megyei Kórház,Rákóczi út,,,,,,,,,,46.0722988,18.2196927
12,10012,Bethesda Gyermekkórház,Bethesda utca,,,,,+3613649020,,,,,47.517580200000005,19.089689899999996
13,10013,Budai Gyermekkórház,Bolyai utca,,,,,,,,yes,,47.517915,19.029753
14,10014,Bugát Pál Kórház,,,,,,,,,yes,,47.7877141,19.928650100000002
15,10015,Bugát Pál Kórház,,,,,,,,,yes,,47.7889463,19.9297544
16,10016,Bácsalmási Egészségügyi Központ,,,,,,,,,,,46.125762,19.333170199999998
17,10017,"Bőr-, Nemikórtani és Onkodermatológiai Klinika",,,,,,,,,,,46.0804094,18.2161555
18,10018,C. épület,,,,,,,,,,,47.6761066,16.6004936
19,10019,Csatárka úti rendelő,,,,,,,,,,,47.5305198,19.008415300000003
20,10020,Csolnoky Ferenc Kórház,,,,,,,,,,,47.0893375,17.9099736
21,10021,D. épület,,,,,,,,,,,47.675990899999995,16.600477800000004
22,10022,Da Vinci magánklinika,,,,,,,,,,,46.089855,18.2255847
23,10023,Debreceni Egyetem Kenézy Gyula Kórház,,,,,,,,,yes,,47.534108700000004,21.6055168
24,10024,Dentalklinik & Laserklinik Dr. Tóka,,,,,,,,,no,,47.696312899999995,16.5817516
25,10025,Detoxikáló,,,,,,,,,,,47.5278817,19.0813282
26,10026,Deák Jenő Kórház,Ady Endre utca,,,,,+36 87 411-655,,,,,46.8845052,17.4414526
27,10027,Diósgyőri Kórház,,,,,,,,,,,48.0911889,20.720315399999997
28,10028,Dorogi Szent Borbála Szakkórház,Kossuth Lajos utca,,,,,,,,yes,,47.71986079999999,18.7335302
29,10029,Dr. Bugyi István Kórház,Sima Ferenc utca,,,,,+36 63 313 244,,,yes,,46.6641205,20.2507897
30,10030,E. épület,,,,,,,,,,,47.677564000000004,16.5997498
31,10031,Egészségház,,,,,,,,,,,46.385668599999995,18.826444199999997
32,10032,Egészségház és Patika,Kossuth Lajos utca,,,,,,,,,,48.2183358,22.140729500000003
33,10033,"Egészségügyi Központ (CT, MR)",Dr. Guba Sándor utca,,,,,,,,,,46.3829002,17.8256612
34,10034,Egészségügyi központ,,,,,,,,,yes,,47.7616914,21.903419399999997
35,10035,Erzsébet Kórház,,,,,,,,,,,48.398701200000005,21.649807100000004
36,10036,F. épület,,,,,,,,,,,47.6777035,16.59991
37,10037,Fehérgyarmati Kórház és Gyógyfürdő,Damjanich utca,,,,,,,,,,47.9960519,22.514259600000003
38,10038,Fejér Megyei Önkormányzat Szent György Kórháza és Rendelőintézete,,,,,,,,,,,46.889185299999994,18.6179292
39,10039,Fogászati és Szájsebészeti Klinika,,,,,,,,,,,46.073146799999996,18.2245357
40,10040,Fül- Orr- Gégészeti és Fej- Nyaksebészeti Klinika,Tisza Lajos körút,,,,,,,,,,46.2454724,20.1487527
41,10041,Gottsegen György Országos Kardiológiai Intézet,Haller utca,,,,,+3612151220,,,yes,,47.476838,19.084967600000002
42,10042,Gróf Esterházy Kórház és Rendelőintézeti Szakrendelő,,,,,,,,,,,47.3273624,17.4704257
43,10043,Gróf Tisza István Kórház,,,,,,,,,,,47.2266519,21.543249499999998
44,10044,"Gyermek és Ifjúság Pszichiátriai Gondozó, Vas megyei",11-es huszár út,,,,,+36 94 311 490,,,,,47.2466479,16.618732
45,10045,Gyermekklinika,,,,,,,,,,,46.0696102,18.2224283
46,10046,Gálfi Béla Szakkórház,,,,,,,,,,,47.665240999999995,18.965535199999998
47,10047,"HM 3. számú Rehabilitációs,. Krónikus Utókezelő osztály",,,,,,,,,,,47.522270500000005,18.930238600000003
48,10048,Heim Pál Gyermekkórház,,,,,,,,,,,47.479924100000005,19.092620899999996
49,10049,Helikopter leszállóhely,Dózsa György út,,,,,,,,,,47.5809705,18.3951421
50,10050,Hetényi Géza Kórház,,,,,,,,,,,47.1544787,20.1700975
51,10051,I. Sz. Gyermekgyógyászati Klinika,,,,,,,,,,,47.484542499999996,19.0782725
52,10052,I. épület,,,,,,,,,,,47.6776296,16.597635999999998
53,10053,I. épület,,,,,,,,,,,47.6767703,16.5973462
54,10054,II. Sz. Gyermekgyógyászati Klinika,,,,,,,,,,,47.483901,19.070546
55,10055,II. épület,,,,,,,,,,,47.676027399999995,16.5983604
56,10056,III. épület,,,,,,,,,yes,,47.6766734,16.598419500000002
57,10057,IV. épület,,,,,,,,,,,47.6755711,16.5990873
58,10058,IX./A. épület,,,,,,,,,,,47.6781076,16.5980515
59,10059,Ibrány-Nagyhalász Kistérségi Járóbeteg Szakellátó Intézet,,,,,,,,,,,48.134387100000005,21.7338982
60,10060,Irgalmasrendi Kórház,,,,,,,,,,,47.5162084,19.0381383
61,10061,Irgalmasrendi kórház,,,,,,,,,,,47.778622399999996,19.1255052
62,10062,Irgalmasrendiek Kórháza,,,,,,,,,,,47.5192245,19.036488199999997
63,10063,Izsófalvi Pszichiátriai Szakkórház,Mária táró,,,,,,,,,,48.3162931,20.6501421
64,10064,Jahn Ferenc Dél-Pesti Kórház,,,,,,,,,,,47.4249336,19.1368276
65,10065,Jahn Ferenc Dél-pesti Kórház Csepeli Weiss Manfréd Telephelye,Déli utca,,,,,+3612782060,,,,,47.4255591,19.0594773
66,10066,Jahn Ferenc Rehabilitációs Centrum,Jáhn Ferenc utca,,,,,,,,no,,47.449706,19.1507978
67,10067,Jánoshalmi Kistérségi Egészségügyi Központ,,,,,,,,,,,46.29780039999999,19.3260349
68,10068,Jávorszky Ödön Városi Kórház,,,,,,,,,yes,,47.7821158,19.1498361
69,10069,Jósa András Oktató Kórház és Szanatórium,Sóstói út,,,,,,,,,,47.979411400000004,21.717117899999998
70,10070,Jósa András Oktatókórház,Szent István utca,,,,,+36 42 599 700;+36 42 506 800,,,yes,,47.952260700000004,21.7298101
71,10071,Kanizsai Dorottya kórház,Szekeres József utca,,,,,+36 93 502 092,,,yes,,46.4505899,16.997363800000002
72,10072,Kaposi Mór Megyei Kórház,,,,,,,,,yes,,46.3603655,17.797431699999997
73,10073,Kaposi Mór Oktató Kórház Mosdósi Telephely,,,,,,,,,,,46.355319,17.9921295
74,10074,Kaposi Mór Oktató Kórház Tüdő és szívkórháza.,,,,,,,,,,,46.354960999999996,17.9940832
75,10075,Kaposvári Egyetem Egészségügyi Központ - Sugárterápia,,,,,,,,,,,46.3818024,17.825270800000002
76,10076,Karolina Kórház,,,,,,,,,,,47.8739999,17.269378399999997
77,10077,Kelen kórház,Than Károly utca,,,,,+3612050205,,,,,47.4614914,19.026004800000003
78,10078,Kemenesaljai Egyesített Kórház,,,,,,,,,,,47.255686,17.1575087
79,10079,Klinikai Központ,,,,,,,,,,,46.0783203,18.2099522
80,10080,Koch Róbert Kórház és Rendelőintézet,,,,,,,,,,,48.2953779,20.7262414
81,10081,Komárom-Esztergom Megyei Integrált Szociális Intézmény Pszichiátriai Betegek Otthona,Dr. Niedermann Gyula utca,,,,,,,,,,47.7553694,18.737076899999998
82,10082,Korvin Ottó Kórház,,,,,,,,,,,47.507853499999996,19.0738347
83,10083,Károlyi Sándor Kórház,Nyár utca,,,,,+361 369 2111,,,,,47.558587100000004,19.1043529
84,10084,Kórház,Majális tér,,,,,+36 72 582 340,,,,,46.187546000000005,18.2724032
85,10085,Körzeti Orvosi Rendelő (felnőtt),Corvin utca,,,,,,,,,,48.099407299999996,20.787847600000003
86,10086,Központi Orvosi Ügyelet,,,,,,,,,,,47.682770899999994,21.669661899999998
87,10087,Kútvölgyi Klinika,Kútvölgyi út,,,,,+3613251100,,,,,47.5117973,19.004146300000002
88,10088,MH Egészségügyi Központ Podmaniczky utcai telephely,Podmaniczky utca,,,,,+36 1 465 1800,,,,,47.517433000000004,19.073322100000002
89,10089,Madarász Utcai Gyermekkórház,,,,,,,,,,,47.5493204,19.074550199999997
90,10090,Magyar Honvédség Balatonfüredi Kardiológiai Rehabilitációs Intézet,,,,,,,,,,,46.9568514,17.898452499999998
91,10091,Magyar Honvédség Egészségügyi Központ,,,,,,,,,,,46.9105724,19.678229
92,10092,Magyar Imre Kórház,,,,,,,,,,,47.11153529999999,17.5648937
93,10093,Margit Kórház,Soproni út,,,,,,,,,,47.6104158,17.2471805
94,10094,Markhot Ferenc Oktatókórház és Rendelőintézet,,,,,,,,,yes,,47.904914399999996,20.3753925
95,10095,Markusovszky Kórház,,,,,,,,,yes,,47.2361436,16.617952499999998
96,10096,Merényi Gusztáv Kórház,,,,,,,,,,,47.468174600000005,19.100844100000003
97,10097,Misszió Egészségügyi Központ,,,,,,+36-28-389-625,,,,,47.662414399999996,19.2723772
98,10098,Művese Állomás,,,,,,,,,,,47.556950799999996,21.6244729
99,10099,N. épület,,,,,,,,,,,47.6770139,16.600906900000002
100,10100,Nagyatádi Kórház,Bajcsy-Zsilinszky Endre utca,,,,,+3682 / 504 – 400,,,,,46.232669,17.361222899999998
101,10101,Nyírő Gyula Kórház - OPAI - Tüdőszűrő állomás,Dévai utca,,,,,,,,,,47.5181659,19.066447699999998
102,10102,Orosháza Kórház,Könd utca,,,,,,,,,,46.5597381,20.65757
103,10103,Országos Gerincgyógyászati Központ,Királyhágó utca,,,,,,,,,,47.4962338,19.023442499999998
104,10104,Országos Klinikai Idegtudományi Intézet,Amerikai út,,,,,,,,,,47.5189703,19.098039
105,10105,Országos Onkológiai Intézet,Kék Golyó utca,,,,,,,,,,47.500671600000004,19.0226009
106,10106,Országos Traumatológiai Intézet,Fiumei út,,,,,,,,yes,,47.496543700000004,19.0803534
107,10107,Orvosi rendelő,Kossuth Lajos utca,,,,,,,,,,47.0185181,18.2118448
108,10108,Orvosi Ügyelet,,,,,,+36 72 481 510,,,,,46.190607799999995,18.2640969
109,10109,PTE Akác utcai klinikai tömb,,,,,,,,,,,46.053337400000004,18.228503
110,10110,PTE Szülészeti és Nőgyógyászati Klinika,Édesanyák útja,,,,,,,,,,46.079178799999994,18.210240300000002
111,10111,Petri Gábor Klinikai Tömb,Semmelweis utca,,,,,,,,,,46.244428899999996,20.1467857
112,10112,Petz Aladár Megyei Oktató Kórház,Zrínyi utca,,,,,,,,,,47.677737799999996,17.637611
113,10113,Petz Aladár Megyei Oktató Kórház - Reumatológiai Osztály,,,,,,,,,,,47.6875213,17.626579500000002
114,10114,"Petz Aladár Megyei Oktató Kórház Pszichiátriai, Mentálhigiénés és Addiktológiai Osztály",Győri út,,,,,+36-96 461-566,,,,,47.5160219,17.516216500000002
115,10115,Pető Intézet,Kútvölgyi út,,,,,+3612241510,,,,,47.5124359,19.0022964
116,10116,Pszichiátria,,,,,,,,,,,47.5290063,19.081494600000003
117,10117,Pszichiátriai rehabilitációs intézet Intaháza,Intaháza,,,,,+36-95/445-070,,,no,,47.25392670000001,17.0845902
118,10118,Pécsi Irgalmasrendi Kórház,,,,,,,,,,,46.0749729,18.228954100000003
119,10119,Péterfy Sándor Utcai Kórház,,,,,,,,,,,47.5013619,19.0781538
120,10120,Péterfy Sándor Utcai Kórház Alsóerdősori Telephelye,,,,,,,,,,,47.5015142,19.0751283
121,10121,Rendelőintézet,,,,,,,,,,,47.2491525,16.9418594
122,10122,Rendelőintézet,Csárda utca,,,,,+36 87 580 886;+36 87 580 888,,,,,46.9623676,17.8745306
123,10123,Rendelőintézet (Clinics),,,,,,,,,,,46.963778600000005,18.9427068
124,10124,Semmelweis Egyetem Külső Klinikai Tömb,,,,,,,,,,,47.4837255,19.080107199999997
125,10125,Semmelweis Ignác Egészségügyi Központ és Egyetemi Oktató Kórház,Csabai kapu,,,,,,,,,,48.09274620000001,20.785908199999998
126,10126,Semmelweis Kórház,,,,,,,,,yes,,46.4327513,19.4726907
127,10127,Siófoki Kórház-Rendelőintézet,Semmelweis utca,,,,,+36 84 501 700,,,,,46.9015053,18.044822699999997
128,10128,Soproni Erzsébet Oktató Kórház,,,,,,,,,,,47.677207,16.5966363
129,10129,Soproni Rehabilitációs Gyógyintézet,Várisi út,,,,,,,,,,47.6685821,16.5796215
130,10130,Szabolcs-Szatmár-Bereg Megyei Kórházak Mátészalkai Kórház,,,,,,,,,,,47.95604470000001,22.3172563
131,10131,Szeged MJV Önkormányzatának Kórháza,,,,,,,,,,,46.2537604,20.1241866
132,10132,Szent Borbála Kórház,,,,,,,,,,,47.5799131,18.3914258
133,10133,Szent Borbála Kórház Szanatórium,,,,,,,,,,,47.6002821,18.3962884
134,10134,Szent Ferenc Kórház,Széher út,,,,,,,,,,47.527025200000004,18.9754859
135,10135,Szent Györgyi Albert Klinikai Központ,,,,,,,,,,,46.24854929999999,20.151194
136,10136,Szent Imre Kórház,Tétényi út,,,,,+36 1 464-8600,,,,,47.4706967,19.0362299
137,10137,Szent István Kórház,Nagyvárad tér,,,,,,,,,,47.478744299999995,19.089022
138,10138,Szent Kozma és Damján Rehabilitációs Szakkórház,,,,,,+36 26 801 700,,,,,47.760670700000006,18.944453
139,10139,Szent Lukács kórház,,,,,,,,,,,46.382983700000004,18.1456461
140,10140,Szent László Kórház,Albert Flórián út,,,,,,,,,,47.4761643,19.09186
141,10141,Szent Lázár Megyei Kórház,,,,,,,,,,,48.116569,19.808699899999997
142,10142,Szent Pantaleon kórház,,,,,,,,,yes,,46.9649959,18.9430467
143,10143,Szent Rókus Kórház,Gyulai Pál utca,,,,,,,,,,47.494453,19.068028100000003
144,10144,Szigetvári Városi Kórház és Rendelőintézet,,,,,,,,,,,46.0531844,17.789472500000002
145,10145,Szociális Otthon,Dózsa György út,,,,,,,,,,47.6096696,19.3363562
146,10146,Szociális Otthon,,,,,,,,,,,47.660152200000006,19.2818311
147,10147,Szt. Erzsébet Kórház,,,,,,,,,,,47.4943555,19.9115379
148,10148,Százhalom Egészségügyi Központ,,,,,,,,,yes,,47.322047399999995,18.9093872
149,10149,Szécsény Kistérségi Rendelőintézet,,,,,,,,,,,48.0819551,19.5145724
150,10150,Szívgyógyászati Klinika,Ifjúság útja,,,,,,,,,,46.075050899999994,18.2043677
151,10151,Szülészet,,,,,,,,,,,46.073112200000004,18.2239332
152,10152,Toldy Ferenc kórház,,,,,,,,,,,47.1709745,19.8202807
153,10153,Tüdőkórház,,,,,,,,,,,46.704437,21.319246399999997
154,10154,Uzsoki Utcai Kórház,Uzsoki utca,,,,,,,,,,47.5215417,19.1004749
155,10155,V. épület,,,,,,,,,,,47.6761376,16.599447899999998
156,10156,VI. épület,,,,,,,,,,,47.676823,16.599189300000003
157,10157,Vadaskert Alapítvány,Lipótmezei út,,,,,,,,no,,47.530257299999995,18.9758879
158,10158,Vas Megyei Rehabilitációs Kórház,Hunyadi János utca,,,,,,,,,,46.9552735,16.2649081
159,10159,Vaszary Kolos Kórház,Petőfi Sándor utca,,,,,,,,yes,,47.791445,18.745802899999997
160,10160,Vasútegészségügyi Rehabilitációs Intézet,,,,,,,,,,,46.9591463,17.8971148
161,10161,Vámospércs Kistérségi Járóbeteg Rendelőintézet,Piac utca,,,,,,,,,,47.523269,21.901226899999997
162,10162,Városi Kórház Keszthely,Ady Endre utca,,,,,+36 83 311 060,,,yes,,46.7685453,17.253273800000002
163,10163,Városi Kórház és Rendelőintézet,,,,,,,,,,,46.7110471,19.8379836
164,10164,Városi Szakorvosi Rendelőintézet,,,,,,,,,,,47.8064794,20.5650725
165,10165,Vásárosnaményi Kórház,Ady Endre utca,,,,,+36 45 570 770,,,no,,48.129130700000005,22.3078358
166,10166,Zala Megyei Kórház,,,,,,,,,,,46.8349099,16.8468204
167,10167,"Zala Megyei Kórház, Pózvai telephely",,,,,,,,,,,46.874494399999996,16.8569427
168,10168,Zirci Erzsébet Kórház - Rendelőintézet,József Attila utca,,,,,,,,,,47.2610532,17.8658086
169,10169,ll. Belgyógyászati Klinika és Nephrológiai Centrum,,,,,,,,,,,46.07627670000001,18.205169
170,10170,orvosi rendelő,Kölcsey Ferenc utca,,,,,,,,,,46.184805100000005,18.9454143
171,10171,Állatkórház,Alpári Gáspár utca,,,,,,,,,,46.0525209,17.8000721
172,10172,Állatorvosi rendelő,,,,,,,,,,,47.7328466,17.8335438
173,10173,Árpád-házi Szent Erzsébet Szakkórház,Hősök tere,,,,,,,,,,47.6460463,18.315504999999998
174,10174,Árpád-házi Szent Erzsébet kórházkápolna,,,,,,,,,,,47.6772896,16.596849900000002
175,10175,Érsebészeti Klinika,,,,,,,,,,,47.5065058,19.0134749
176,10176,Újklinika,Semmelweis utca,,,,,,,,,,46.2451419,20.1471098
177,10177,Újpesti Szakorvosi Rendelőintézet,Görgey Artúr út,,,,,+3613694777,,,no,,47.5658495,19.1001263
178,10178,Újszegedi Gyermekkórház,Temesvári körút,,,,,,,,,,46.2448219,20.161918
179,10179,épülő Egészségközpont,,,,,,,,,,,47.7534805,19.076269600000003
